<?xml version="1.0" encoding="UTF-8"?>
<kml xmlns="http://www.opengis.net/kml/2.2">
    <Document>
        <Placemark xmlns:ns0="http://www.opengis.net/kml/2.2">
	<Style><LineStyle><color>ff0000ff</color></LineStyle><PolyStyle><fill>0</fill></PolyStyle></Style>
	<ExtendedData><SchemaData schemaUrl="#Wave23_v27MAR2025">
		<SimpleData name="area(ha)">0.186630594186857</SimpleData>
		<SimpleData name="site_id">230022_1.1</SimpleData>
		<SimpleData name="Land_parc">230022</SimpleData>
		<SimpleData name="district">Chhatarpur</SimpleData>
		<SimpleData name="block">Bijawar</SimpleData>
		<SimpleData name="village">Matipura</SimpleData>
		<SimpleData name="Land Type">Farmer</SimpleData>
		<SimpleData name="Instance">Wave 2023</SimpleData>
	</SchemaData></ExtendedData>
      <Polygon><outerBoundaryIs><LinearRing><coordinates>79.6778818860607,24.4439217606775,0 79.6778420230187,24.4438990917202,0 79.6777678243829,24.4438799743657,0 79.6777076254896,24.4438952682495,0 79.6776670262361,24.4438863468175,0 79.6775830277804,24.4439169345817,0 79.6775422978303,24.443953130936,0 79.6775242288614,24.4439691886617,0 79.67744163038,24.4440278151646,0 79.6773366323105,24.4440622263602,0 79.6772839333501,24.4440731119726,0 79.6772518003774,24.4440807431256,0 79.6773160663229,24.4441430641905,0 79.6773520320273,24.4441884006635,0 79.6774808296618,24.4442750657587,0 79.6775484271929,24.4443244484146,0 79.6775942275745,24.444357907357,0 79.6776151,24.4443534,0 79.6776291,24.4443295,0 79.677647168976,24.4443148862222,0 79.677661,24.4443037,0 79.6776786,24.444281,0 79.6776999,24.4442585,0 79.6777203,24.4442384,0 79.6777443,24.4442084,0 79.677758,24.4441826,0 79.6777762,24.4441597,0 79.677794,24.4441361,0 79.6778212,24.4441071,0 79.6778307,24.4440901,0 79.6778462,24.4440683,0 79.6778608,24.4440487,0 79.6778737,24.4440224,0 79.6779666207279,24.4439628162141,0 79.677957874131,24.4439567646329,0 79.6779316213714,24.4439386009102,0 79.6778818860607,24.4439217606775,0</coordinates></LinearRing></outerBoundaryIs></Polygon>
  </Placemark>
  
    </Document>
</kml>