<?xml version="1.0" encoding="UTF-8"?>
<kml xmlns="http://www.opengis.net/kml/2.2">
    <Document>
        <Placemark xmlns:ns0="http://www.opengis.net/kml/2.2">
	<Style><LineStyle><color>ff0000ff</color></LineStyle><PolyStyle><fill>0</fill></PolyStyle></Style>
	<ExtendedData><SchemaData schemaUrl="#Wave23_v27MAR2025">
		<SimpleData name="area(ha)">2.380464894684061</SimpleData>
		<SimpleData name="site_id">230087_1.1</SimpleData>
		<SimpleData name="Land_parc">230087</SimpleData>
		<SimpleData name="district">Damoh</SimpleData>
		<SimpleData name="block">Hatta</SimpleData>
		<SimpleData name="village">Surajpura</SimpleData>
		<SimpleData name="Land Type">Farmer</SimpleData>
		<SimpleData name="Instance">Wave 2023</SimpleData>
	</SchemaData></ExtendedData>
      <Polygon><outerBoundaryIs><LinearRing><coordinates>79.4887695644461,24.3849370403413,0 79.488761059595,24.3849359829006,0 79.4886464763675,24.3849348397623,0 79.4886108,24.3849368,0 79.4885860597142,24.3849342369813,0 79.4885366661275,24.3849337441603,0 79.4884533,24.3850083,0 79.4884705,24.3850778,0 79.4884279,24.3851137,0 79.4883673,24.3851482,0 79.4883038,24.3851716,0 79.4883109697627,24.3852023844623,0 79.4883164,24.3852257,0 79.488371068441,24.3852845621964,0 79.488379242414,24.3852933632096,0 79.4883894,24.3853043,0 79.48842,24.3853631,0 79.488476,24.3854108,0 79.4884997,24.3854411,0 79.4885012737819,24.3854751758009,0 79.488502,24.3854909,0 79.4884781,24.3855934,0 79.4884656035522,24.3856255072158,0 79.4884579,24.3856453,0 79.4884587703746,24.385655346611,0 79.4884614,24.3856857,0 79.4884584,24.3857543,0 79.4884512,24.3857714,0 79.4884633534971,24.3858146596528,0 79.4884655,24.3858223,0 79.488494,24.3858617,0 79.488494,24.3859386,0 79.4885343,24.3859783,0 79.4885598822885,24.3859880441048,0 79.4886334190518,24.3860160536833,0 79.4886583011068,24.3860025457698,0 79.4886897,24.3859855,0 79.4887177,24.3859904,0 79.488728,24.3859835,0 79.4887574072183,24.3859592613241,0 79.488761,24.3859563,0 79.4888592164767,24.3859265217108,0 79.4889118,24.3859014,0 79.4890540153516,24.3858891014528,0 79.4890769227158,24.3858871204492,0 79.4891640710425,24.3859092265089,0 79.4892511982684,24.3858890650325,0 79.489252139339,24.3858888472658,0 79.4893231,24.3858905,0 79.4893497308095,24.3858940029828,0 79.4893689963709,24.3858965371473,0 79.489402817314,24.3858979618346,0 79.4894497068272,24.3858768377814,0 79.4895041809538,24.3858606412178,0 79.4895837796774,24.3858595526847,0 79.4896114456064,24.3858543914601,0 79.4896492,24.3858395,0 79.4896823,24.3858174,0 79.4897072,24.3857961,0 79.4897273074301,24.3857710000831,0 79.4897533043667,24.3857532961642,0 79.4897772990994,24.3857354778476,0 79.4898084041138,24.3857156707606,0 79.4898367,24.385706,0 79.4898449813086,24.3857009636131,0 79.4898612,24.3856911,0 79.4898834505387,24.3856695558346,0 79.4899116,24.3856423,0 79.4899431,24.3856229,0 79.4899445228491,24.3856209871635,0 79.4899582,24.3856026,0 79.4899764121606,24.3855801850346,0 79.4899816,24.3855738,0 79.4900036704917,24.385556951654,0 79.490063,24.3855181,0 79.4901293,24.3855004,0 79.4901608,24.3854935,0 79.4901973,24.3854837,0 79.4902674627386,24.3854640242628,0 79.490291617168,24.385454614176,0 79.4903247,24.385443,0 79.4903577,24.3854314,0 79.4903948,24.385424,0 79.4904305,24.3854305,0 79.4904635636577,24.385433301334,0 79.4904962,24.3854394,0 79.4905352,24.385445,0 79.490538163592,24.3854446812648,0 79.4905715330619,24.3854410923646,0 79.4906117,24.3854389,0 79.4906439,24.3854319,0 79.4906748,24.3854321,0 79.4907500571962,24.3854220195682,0 79.4907855,24.3854188,0 79.4908109,24.3854032,0 79.4908121,24.3853751,0 79.4907955,24.3853487,0 79.4907745,24.3853214,0 79.4907613,24.3852998,0 79.4907426,24.3852769,0 79.4907401,24.3852482,0 79.4907378628888,24.3852327306159,0 79.4907354,24.3852157,0 79.4907321,24.3851514,0 79.4907134,24.3850991,0 79.4906999,24.3850771,0 79.4906971,24.3850471,0 79.4906819,24.3850165,0 79.4907062,24.3849783,0 79.4907073,24.3849454,0 79.4907217,24.3848459,0 79.4906954,24.3847798,0 79.490686539098,24.3847745844069,0 79.4906638,24.3847612,0 79.4906283,24.3847518,0 79.4906038,24.3847491,0 79.4905706,24.3847475,0 79.490541,24.3847341,0 79.4905155,24.3847333,0 79.4904859,24.3847277,0 79.4904398,24.3847088,0 79.4903217,24.3846967,0 79.4902509971091,24.3847203091526,0 79.4901513,24.3847536,0 79.4901512,24.3847536,0 79.4901416,24.38476,0 79.4901266,24.3847589,0 79.4900533008276,24.384763697067,0 79.49005324645,24.38476827337,0 79.4900139827772,24.3847678820033,0 79.4899738,24.3847723,0 79.4898694,24.3847788,0 79.4898091,24.3847858,0 79.4897570890865,24.3848007671701,0 79.4897535,24.3848018,0 79.4896804,24.3848112,0 79.4895663,24.3848352,0 79.4895332,24.3848247,0 79.4895132,24.3847695,0 79.4895071861929,24.3847628295163,0 79.489461,24.3847116,0 79.4894029,24.3847255,0 79.4893772,24.3847321,0 79.4893073,24.3847638,0 79.4892468,24.3847898,0 79.4891883,24.3848305,0 79.4891679629431,24.3848497441826,0 79.4891455,24.384871,0 79.4891076,24.3848806,0 79.4890775,24.3848816,0 79.4890659885918,24.3848821501782,0 79.4890503,24.3848829,0 79.4890014,24.384899,0 79.4889671562319,24.3849024935637,0 79.4889024,24.3849091,0 79.4888683899886,24.3849172746901,0 79.4887893806917,24.3849362654323,0 79.4887805,24.3849384,0 79.4887695644461,24.3849370403413,0</coordinates></LinearRing></outerBoundaryIs></Polygon>
  </Placemark>
  
    </Document>
</kml>