<?xml version="1.0" encoding="UTF-8"?>
<kml xmlns="http://www.opengis.net/kml/2.2">
    <Document>
        <Placemark xmlns:ns0="http://www.opengis.net/kml/2.2">
	<Style><LineStyle><color>ff0000ff</color></LineStyle><PolyStyle><fill>0</fill></PolyStyle></Style>
	<ExtendedData><SchemaData schemaUrl="#Wave23_v27MAR2025">
		<SimpleData name="area(ha)">3.439092741724497</SimpleData>
		<SimpleData name="site_id">230070_1.1</SimpleData>
		<SimpleData name="Land_parc">230070</SimpleData>
		<SimpleData name="district">Chhatarpur</SimpleData>
		<SimpleData name="block">Bada Malahara</SimpleData>
		<SimpleData name="village">Rampura</SimpleData>
		<SimpleData name="Land Type">Community</SimpleData>
		<SimpleData name="Instance">Wave 2023</SimpleData>
	</SchemaData></ExtendedData>
      <Polygon><outerBoundaryIs><LinearRing><coordinates>79.3128605787682,24.5203734166245,0 79.3128603436084,24.5203910165244,0 79.3128782750952,24.5203761154032,0 79.3128801765162,24.5203744484567,0 79.3128819780183,24.5203726910717,0 79.3128836744698,24.5203708482542,0 79.3128870744695,24.5203669482533,0 79.3128886063432,24.5203650952196,0 79.3128900319795,24.5203631725327,0 79.3128913476022,24.5203611852857,0 79.3128925497262,24.5203591387425,0 79.3128936351673,24.5203570383243,0 79.3128946010502,24.5203548895947,0 79.3128954448165,24.5203526982456,0 79.312896164231,24.5203504700816,0 79.3128967573883,24.5203482110048,0 79.312897222717,24.5203459269994,0 79.3128975589846,24.5203436241153,0 79.3128977653003,24.5203413084527,0 79.3128978411176,24.5203389861455,0 79.3128977862358,24.5203366633452,0 79.3128977097887,24.52033518734,0 79.3131720780661,24.5199607505276,0 79.3134826747994,24.5198319244979,0 79.3134842377959,24.5198330133627,0 79.3134863548296,24.519834335152,0 79.3134885440291,24.519835554582,0 79.3134907994873,24.5198366683623,0 79.3134931151184,24.5198376734877,0 79.3134954846741,24.519838567246,0 79.3134979017609,24.5198393472257,0 79.3135003598566,24.5198400113221,0 79.3135028523287,24.5198405577433,0 79.3135053724518,24.5198409850149,0 79.313507913426,24.5198412919841,0 79.313510468395,24.5198414778225,0 79.3135130304647,24.5198415420287,0 79.3135155927222,24.5198414844295,0 79.3135181482535,24.5198413051803,0 79.3135206901633,24.5198410047647,0 79.3135232115928,24.5198405839933,0 79.3135257057384,24.5198400440016,0 79.3135281658703,24.5198393862464,0 79.3135305853503,24.5198386125028,0 79.3135329576502,24.5198377248583,0 79.3135352763686,24.5198367257082,0 79.3135375352492,24.5198356177483,0 79.3135397281968,24.5198344039684,0 79.3135418492943,24.5198330876434,0 79.3135438928183,24.5198316723253,0 79.3135458532549,24.5198301618328,0 79.3135477253143,24.5198285602418,0 79.3135495039452,24.5198268718737,0 79.3135511843483,24.5198251012843,0 79.3135527619895,24.519823253251,0 79.3135542326118,24.5198213327604,0 79.3135555922472,24.5198193449944,0 79.3135568372269,24.5198172953167,0 79.3135579641917,24.5198151892577,0 79.3135589701007,24.5198130325003,0 79.3135626182197,24.5198046111361,0 79.3135980808617,24.5197888024874,0 79.3135592259182,24.5197883681338,0 79.3135598511052,24.5197415569616,0 79.3135796145046,24.5196983051661,0 79.3136591068568,24.5196991937755,0 79.3136958619662,24.5196996046302,0 79.3136964535872,24.5196983024415,0 79.3136973369441,24.5196960198453,0 79.3136980852489,24.5196936971974,0 79.3136986963486,24.5196913411808,0 79.3136991684848,24.5196889585746,0 79.313699500299,24.5196865562342,0 79.3136996908366,24.5196841410718,0 79.3136997395493,24.5196817200366,0 79.313699646297,24.5196793000948,0 79.3136994113479,24.5196768882091,0 79.3136990353781,24.5196744913194,0 79.3136985194695,24.5196721163222,0 79.3136978651063,24.5196697700512,0 79.3136942651022,24.5196581700521,0 79.3136934943807,24.5196559133069,0 79.3136925955674,24.519653696576,0 79.3136915711278,24.5196515259401,0 79.3136904238724,24.5196494073538,0 79.3136891569481,24.5196473466288,0 79.3136877738305,24.5196453494181,0 79.3136871404819,24.5196445328215,0 79.3136894499995,24.5196439020221,0 79.3136918881449,24.5196431064714,0 79.3136942773316,24.5196421950306,0 79.313696610984,24.519641170208,0 79.3136988826791,24.5196400348245,0 79.3137010861643,24.5196387920048,0 79.3137032153752,24.5196374451697,0 79.3137052644513,24.5196359980261,0 79.3137072277531,24.5196344545569,0 79.3137090998768,24.5196328190102,0 79.3137108756698,24.5196310958877,0 79.3137125502446,24.5196292899318,0 79.3137141189922,24.5196274061132,0 79.313715577595,24.5196254496167,0 79.3137169220383,24.5196234258272,0 79.3137181486219,24.5196213403148,0 79.3137192539699,24.5196191988194,0 79.3137202350399,24.5196170072353,0 79.3137210891318,24.5196147715942,0 79.3137218138949,24.5196124980494,0 79.3137224073343,24.5196101928584,0 79.3137228678168,24.5196078623657,0 79.313723194075,24.5196055129857,0 79.3137233852108,24.5196031511846,0 79.3137234406984,24.5196007834628,0 79.3137233603848,24.519598416337,0 79.3137231444913,24.5195960563222,0 79.313722793612,24.519593709914,0 79.3137183936026,24.5195691099149,0 79.3137179089837,24.5195667847478,0 79.3137172918135,24.519564486018,0 79.3137165437889,24.5195622200459,0 79.3137156669665,24.5195599930619,0 79.3137146637573,24.519557811189,0 79.3137135369195,24.5195556804263,0 79.3137122895515,24.5195536066325,0 79.3137109250829,24.5195515955094,0 79.313710390927,24.5195508932416,0 79.31371416308,24.5195495442587,0 79.3137165271653,24.5195486333224,0 79.3137188363092,24.5195476112085,0 79.3137210842702,24.5195464806797,0 79.3137232649726,24.5195452447917,0 79.3137253725222,24.5195439068849,0 79.3137274012226,24.5195424705755,0 79.3137293455904,24.5195409397456,0 79.3137312003704,24.5195393185328,0 79.3137329605494,24.5195376113191,0 79.3137346213697,24.5195358227188,0 79.3137361783425,24.5195339575662,0 79.3137376272595,24.5195320209026,0 79.3137389642045,24.5195300179625,0 79.3137401855639,24.5195279541596,0 79.3137412880366,24.519525835072,0 79.3137422686427,24.5195236664273,0 79.3137431247318,24.5195214540871,0 79.31374385399,24.519519204031,0 79.3137444544462,24.5195169223407,0 79.3137449244776,24.519514615183,0 79.3137452628136,24.5195122887941,0 79.3137454685398,24.5195099494618,0 79.3137455411003,24.519507603509,0 79.3137454802988,24.5195052572764,0 79.3137452862997,24.5195029171056,0 79.3137449596273,24.5195005893217,0 79.3137445011647,24.5194982802164,0 79.313743912151,24.5194959960309,0 79.3137431941782,24.519493742939,0 79.3137423491869,24.5194915270305,0 79.313741379461,24.5194893542946,0 79.3137402876215,24.5194872306041,0 79.3137390766195,24.5194851616988,0 79.3137377497282,24.5194831531707,0 79.3137363105341,24.5194812104486,0 79.3137347629269,24.5194793387834,0 79.3137331110898,24.519477543234,0 79.3137313594873,24.5194758286534,0 79.3137295128539,24.519474199676,0 79.3137275761806,24.5194726607045,0 79.3137255547021,24.5194712158987,0 79.313723453882,24.5194698691635,0 79.3137212793987,24.5194686241391,0 79.3137190371295,24.5194674841906,0 79.3137167331348,24.5194664523991,0 79.3137143736421,24.5194655315533,0 79.3137119650286,24.5194647241422,0 79.3137095138046,24.5194640323481,0 79.3137070265953,24.5194634580408,0 79.3137045101233,24.5194630027725,0 79.3137019711903,24.5194626677739,0 79.3136879750597,24.5194611596863,0 79.3136973114921,24.5194407269922,0 79.3137091411761,24.519444556556,0 79.3137116048387,24.5194452881258,0 79.3137141070686,24.5194459004043,0 79.3137166409702,24.5194463917041,0 79.3137191995606,24.5194467606714,0 79.3137217757891,24.5194470062893,0 79.3137243625562,24.5194471278811,0 79.3137269527333,24.5194471251116,0 79.3137295391827,24.5194469979885,0 79.3137321147767,24.5194467468621,0 79.3137346724175,24.5194463724244,0 79.313737205057,24.5194458757074,0 79.3137397057158,24.5194452580797,0 79.3137421675028,24.5194445212435,0 79.3137445836337,24.5194436672293,0 79.3137469474505,24.5194426983906,0 79.3137492524389,24.5194416173971,0 79.3137514922471,24.519440427228,0 79.3137536607026,24.5194391311629,0 79.3137557518297,24.5194377327736,0 79.3137577598658,24.5194362359136,0 79.3137596792772,24.5194346447079,0 79.3137615047746,24.5194329635415,0 79.3137632313272,24.5194311970473,0 79.3137648541772,24.5194293500933,0 79.3137663688524,24.5194274277692,0 79.3137677711787,24.5194254353725,0 79.3137690572917,24.5194233783937,0 79.3137702236471,24.5194212625014,0 79.3137712670308,24.5194190935265,0 79.3137721845674,24.5194168774461,0 79.3137729737286,24.5194146203671,0 79.3137736323394,24.5194123285096,0 79.3137741585851,24.5194100081892,0 79.3137745510154,24.5194076658004,0 79.3137748085488,24.519405307798,0 79.3137749304756,24.5194029406801,0 79.31377491646,24.51940057097,0 79.3137747665405,24.519398205198,0 79.3137744811302,24.5193958498835,0 79.3137740610157,24.5193935115172,0 79.3137735073547,24.5193911965431,0 79.313772821673,24.5193889113407,0 79.3137720058601,24.5193866622073,0 79.3137710621643,24.5193844553412,0 79.3137641431646,24.5193694483943,0 79.3137706089727,24.5193650107332,0 79.313772620493,24.5193635538892,0 79.3137745465271,24.5193620033583,0 79.313776381868,24.5193603633323,0 79.3137781215537,24.5193586382451,0 79.3137797608812,24.5193568327603,0 79.3137812954183,24.5193549517592,0 79.3137827210165,24.5193530003271,0 79.3137840338217,24.5193509837396,0 79.3137852302847,24.5193489074486,0 79.3137863071709,24.5193467770674,0 79.3137872615689,24.5193445983555,0 79.3137962615622,24.5193223983524,0 79.3137970948317,24.5193201656705,0 79.3137977994666,24.5193178962086,0 79.3137983735423,24.5193155961654,0 79.3137988154908,24.5193132718233,0 79.3137991241049,24.519310929531,0 79.3137992985418,24.5193085756862,0 79.3137993383249,24.5193062167182,0 79.3137992433455,24.5193038590702,0 79.3137990138633,24.519301509182,0 79.3137986505049,24.519299173472,0 79.3137981542628,24.5192968583198,0 79.3137975264925,24.5192945700492,0 79.3137967689087,24.5192923149103,0 79.3137958835806,24.5192900990628,0 79.3137948729264,24.5192879285589,0 79.3137937397066,24.5192858093273,0 79.3137924870166,24.5192837471564,0 79.3137911182778,24.5192817476787,0 79.3137896372289,24.5192798163556,0 79.3137880479152,24.5192779584623,0 79.3137863546777,24.5192761790735,0 79.3137845621413,24.5192744830494,0 79.3137826752022,24.5192728750224,0 79.3137806990143,24.5192713593848,0 79.3137786389754,24.5192699402762,0 79.3137765007122,24.519268621573,0 79.3137742900653,24.5192674068769,0 79.3137720130727,24.5192662995057,0 79.3137696759537,24.5192653024842,0 79.313767285092,24.5192644185356,0 79.313764847018,24.5192636500743,0 79.313762368391,24.5192629991992,0 79.3137598559811,24.5192624676882,0 79.3137573166506,24.519262056993,0 79.3137547573355,24.5192617682354,0 79.3137521850263,24.5192616022041,0 79.3137496067489,24.5192615593526,0 79.3137470295457,24.5192616397979,0 79.3137444604559,24.5192618433204,0 79.3137419064968,24.519262169364,0 79.3137413605962,24.5192622658885,0 79.3137413282124,24.51926192401,0 79.3137409697264,24.5192595783099,0 79.3137404772576,24.519257253041,0 79.3137398521617,24.5192549546045,0 79.3137390961595,24.5192526893278,0 79.3137382113323,24.519250463447,0 79.3137372001158,24.5192482830896,0 79.313736065294,24.519246154258,0 79.3137348099907,24.5192440828126,0 79.3137334376618,24.519242074456,0 79.3137319520851,24.5192401347168,0 79.3137303573503,24.5192382689351,0 79.3137286578475,24.5192364822471,0 79.3137268582553,24.5192347795714,0 79.3137249635278,24.5192331655953,0 79.313722978881,24.5192316447618,0 79.3137209097783,24.5192302212578,0 79.313718761916,24.5192288990019,0 79.3137168705587,24.5192278621812,0 79.3137189541607,24.5192060259356,0 79.3137191024757,24.5192038860581,0 79.3137191395597,24.5192017421511,0 79.3137190653288,24.5191995990514,0 79.3137188799507,24.5191974615941,0 79.3137185838435,24.5191953346016,0 79.313715755949,24.5191782662842,0 79.3137215127928,24.5191781261004,0 79.3137240332203,24.5191780056487,0 79.3137265436182,24.5191777674415,0 79.3137290374183,24.5191774121021,0 79.3137315080956,24.5191769405601,0 79.3137339491857,24.5191763540493,0 79.3137363543017,24.5191756541044,0 79.3137387171504,24.5191748425568,0 79.3137410315497,24.5191739215296,0 79.3137432914441,24.5191728934329,0 79.3137454909206,24.5191717609567,0 79.3137476242243,24.5191705270639,0 79.3137496857736,24.519169194983,0 79.3137516701745,24.5191677681993,0 79.3137535722349,24.5191662504461,0 79.3137553869781,24.5191646456943,0 79.3137571096559,24.5191629581429,0 79.313758735761,24.5191611922071,0 79.3137602610387,24.5191593525076,0 79.3137616814983,24.5191574438578,0 79.3137629934231,24.5191554712516,0 79.3137641933806,24.5191534398503,0 79.3137651066356,24.519151794541,0 79.313766105363,24.5190770029586,0 79.3137658618801,24.5190767910523,0 79.3137639037201,24.5190752568739,0 79.3137618606466,24.5190738183637,0 79.3137597382373,24.5190724794488,0 79.3137575422862,24.5190712437845,0 79.3137552787885,24.5190701147441,0 79.3137529539234,24.51906909541,0 79.313750574038,24.5190681885649,0 79.3137481456292,24.5190673966846,0 79.3137456753267,24.5190667219309,0 79.3137431698744,24.5190661661458,0 79.3137406361123,24.5190657308466,0 79.3137380809575,24.5190654172218,0 79.3137355113856,24.5190652261276,0 79.3137329344116,24.5190651580855,0 79.3137303570707,24.5190652132814,0 79.313727786399,24.5190653915647,0 79.3137252294145,24.5190656924484,0 79.313655432691,24.5190756076491,0 79.3136172268773,24.5190372706892,0 79.31358237377,24.5189173664362,0 79.3135940285693,24.5189119552771,0 79.3135962825052,24.5189108405546,0 79.3135984701541,24.5189096202892,0 79.313600585617,24.5189082977713,0 79.3136026231893,24.518906876567,0 79.3136045773769,24.5189053605088,0 79.3136064429101,24.5189037536845,0 79.3136082147587,24.5189020604271,0 79.3136098881447,24.5189002853025,0 79.3136114585559,24.5188984330973,0 79.3136129217576,24.5188965088059,0 79.3136142738043,24.5188945176174,0 79.3136155110502,24.5188924649009,0 79.3136166301591,24.5188903561916,0 79.3136176281132,24.5188881971757,0 79.3136185022216,24.5188859936749,0 79.3136192501272,24.5188837516311,0 79.3136198698134,24.51888147709,0 79.313620359609,24.5188791761849,0 79.3136207181935,24.5188768551201,0 79.3136209445998,24.5188745201546,0 79.3136210382175,24.5188721775845,0 79.3136209987941,24.5188698337266,0 79.3136197589983,24.5188424207015,0 79.3136409914977,24.5188064098806,0 79.3136493571482,24.5188026771757,0 79.3136681498584,24.5188064779478,0 79.3136707148846,24.5188069319079,0 79.3136710219178,24.518806970957,0 79.3136711628214,24.5187964195592,0 79.3135971551159,24.5187955922901,0 79.3137835959844,24.5187073853774,0 79.3138342995543,24.5187079520891,0 79.3138340260503,24.5187076559821,0 79.313832227715,24.5187059068633,0 79.3138303302611,24.5187042477102,0 79.3138283390579,24.5187026832177,0 79.3138277518179,24.5187022693588,0 79.3138284517077,24.5187005312097,0 79.3138395516983,24.5186704312058,0 79.3138403061457,24.5186681957038,0 79.3138409329834,24.5186659274421,0 79.3138414305274,24.5186636325135,0 79.3138417974413,24.5186613170827,0 79.3138420327394,24.5186589873693,0 79.3138421357899,24.5186566496313,0 79.3138421063158,24.5186543101483,0 79.3138419443963,24.5186519752046,0 79.3138416504664,24.5186496510722,0 79.3138412253157,24.5186473439941,0 79.3138406700861,24.5186450601676,0 79.3138399862692,24.5186428057274,0 79.3138391757017,24.5186405867294,0 79.3138374556124,24.5186362546572,0 79.3138409017121,24.5186282583598,0 79.3138417941513,24.518626015525,0 79.313842555771,24.5186237326691,0 79.313843184442,24.5186214161743,0 79.3138436784067,24.5186190725166,0 79.3138440362843,24.518616708248,0 79.3138442570741,24.5186143299782,0 79.3138443401591,24.518611944356,0 79.3138442853068,24.5186095580506,0 79.3138440926707,24.5186071777334,0 79.3138437627894,24.5186048100588,0 79.313843296585,24.5186024616461,0 79.3138426953609,24.5186001390604,0 79.3138419607979,24.5185978487949,0 79.3138410949496,24.5185955972524,0 79.3138401002366,24.5185933907274,0 79.3138389794398,24.5185912353884,0 79.3138377356924,24.5185891372611,0 79.3138363724717,24.5185871022111,0 79.3138348935886,24.5185851359275,0 79.3138333031775,24.5185832439074,0 79.3138316056848,24.5185814314403,0 79.3138298058559,24.518579703593,0 79.3138279087225,24.5185780651961,0 79.3138259195884,24.5185765208299,0 79.3138238440144,24.5185750748118,0 79.313821687803,24.5185737311845,0 79.3138194569824,24.5185724937042,0 79.3138171577889,24.5185713658304,0 79.3138147966504,24.5185703507163,0 79.3138123801676,24.5185694511998,0 79.3138117025754,24.5185692364095,0 79.3138385554431,24.5185142012816,0 79.3138395404691,24.5185120326001,0 79.3138404008861,24.518509819985,0 79.3138411343653,24.5185075694246,0 79.3138417389217,24.5185052870102,0 79.3138422129189,24.5185029789192,0 79.3138425550741,24.5185006513983,0 79.3138427644613,24.5184983107471,0 79.3138428405138,24.5184959633006,0 79.3138427830256,24.5184936154121,0 79.3138425921525,24.5184912734362,0 79.3138422684111,24.5184889437116,0 79.3138418126775,24.5184866325436,0 79.3138412261852,24.5184843461874,0 79.3138405105215,24.518482090831,0 79.3138396676235,24.5184798725787,0 79.3138386997724,24.5184776974341,0 79.3138376095878,24.5184755712843,0 79.3138364000202,24.5184734998837,0 79.3138350743433,24.5184714888386,0 79.3138336361452,24.5184695435919,0 79.3138320893183,24.5184676694084,0 79.3138304380491,24.5184658713607,0 79.3138286868067,24.518464154315,0 79.3138268403311,24.5184625229187,0 79.3138249036195,24.5184609815872,0 79.3138228819139,24.5184595344919,0 79.3138207806859,24.5184581855496,0 79.3138186056226,24.5184569384112,0 79.3138163626107,24.5184557964519,0 79.3138140577209,24.5184547627627,0 79.313813754044,24.5184546440694,0 79.313814527924,24.5184537207938,0 79.3138277909945,24.5184370066134,0 79.3137890861487,24.5184365740143,0 79.3137814451184,24.5183461976995,0 79.3138248840511,24.5183466832111,0 79.3138237879944,24.5183448948983,0 79.3138224038421,24.518342890961,0 79.3138209066178,24.5183409562643,0 79.3137953814401,24.5183097441474,0 79.3137982475987,24.5182961503396,0 79.3137986672381,24.5182938390318,0 79.3137989552366,24.518291510917,0 79.3137991108184,24.5182891722668,0 79.3137991335642,24.5182868293811,0 79.3137990234129,24.5182844885715,0 79.3137987806612,24.5182821561435,0 79.313798405963,24.5182798383806,0 79.3137979003277,24.5182775415262,0 79.3137972651175,24.5182752717679,0 79.3137965020435,24.51827303522,0 79.3137956131613,24.5182708379074,0 79.3137946008654,24.5182686857494,0 79.3137934678829,24.5182665845435,0 79.3137922172657,24.51826453995,0 79.313790852383,24.5182625574769,0 79.3137893769113,24.5182606424645,0 79.3137877948256,24.5182588000716,0 79.3137861103876,24.5182570352614,0 79.313784328135,24.518255352788,0 79.3137824528689,24.5182537571836,0 79.313780489641,24.5182522527467,0 79.31377844374,24.5182508435298,0 79.3137763206771,24.5182495333293,0 79.3137741261716,24.5182483256747,0 79.3137718661351,24.5182472238191,0 79.3137695466559,24.5182462307307,0 79.3137671739823,24.5182453490849,0 79.3137647545058,24.5182445812566,0 79.3137622947442,24.5182439293143,0 79.3137598013236,24.5182433950141,0 79.3137572809611,24.5182429797954,0 79.313754740446,24.5182426847767,0 79.3137037694856,24.5182379918039,0 79.3137042774597,24.5182376364597,0 79.3137062303944,24.5182361169627,0 79.3137080944289,24.518234506712,0 79.3137098645308,24.5182328100547,0 79.3137115359217,24.5182310315712,0 79.3137131040893,24.5182291760627,0 79.3137145648001,24.5182272485385,0 79.3137159141109,24.5182252542022,0 79.3137171483788,24.5182231984377,0 79.3137182642718,24.5182210867949,0 79.3137192587775,24.5182189249745,0 79.3137201292111,24.5182167188126,0 79.3137208732226,24.518214474265,0 79.3137214888035,24.5182121973913,0 79.3137219742921,24.5182098943381,0 79.3137223283775,24.5182075713229,0 79.313722550104,24.518205234617,0 79.313722638873,24.5182028905286,0 79.3137230388565,24.5181605905276,0 79.3137229945143,24.5181582472011,0 79.3137228173009,24.5181559091383,0 79.3137225076938,24.5181535826414,0 79.3137220665277,24.5181512739814,0 79.3137214949917,24.518148989381,0 79.3137207946264,24.5181467349984,0 79.3137199673196,24.5181445169102,0 79.3137190153012,24.5181423410951,0 79.3137179411374,24.5181402134179,0 79.3137167477235,24.5181381396138,0 79.3137154382764,24.5181361252724,0 79.3137140163257,24.5181341758235,0 79.313712485704,24.5181322965216,0 79.3137108505372,24.5181304924324,0 79.3137091152328,24.5181287684186,0 79.3137072844682,24.5181271291274,0 79.3137053631782,24.5181255789772,0 79.3137033565415,24.5181241221465,0 79.3137012699669,24.5181227625622,0 79.3136991090787,24.5181215038888,0 79.3136968797015,24.5181203495191,0 79.3136945878445,24.5181193025647,0 79.3136922396852,24.5181183658475,0 79.313689841553,24.5181175418925,0 79.313687399912,24.5181168329206,0 79.3136849213436,24.5181162408427,0 79.3136824125285,24.5181157672548,0 79.3136798802292,24.5181154134335,0 79.3136773312713,24.5181151803324,0 79.3136747725256,24.5181150685799,0 79.3136722108889,24.5181150784771,0 79.313669653266,24.5181152099975,0 79.313667106551,24.5181154627864,0 79.3136645776083,24.5181158361625,0 79.3136620732545,24.5181163291195,0 79.3136596002402,24.5181169403285,0 79.3136571652311,24.518117668142,0 79.3136547747907,24.5181185105983,0 79.3136524353624,24.5181194654266,0 79.3136501532519,24.5181205300532,0 79.3136479346107,24.5181217016083,0 79.3136457854189,24.5181229769343,0 79.3136437114696,24.5181243525934,0 79.313641718353,24.5181258248776,0 79.3136398114416,24.5181273898185,0 79.3136386993464,24.5181284025687,0 79.3136381949907,24.5181267324549,0 79.3136373687118,24.5181244696237,0 79.3136364129184,24.5181222498917,0 79.3136353302802,24.518120079459,0 79.3136341238211,24.518117964388,0 79.3136327969111,24.5181159105864,0 79.3136313532563,24.5181139237906,0 79.3136297968891,24.5181120095502,0 79.3136281321567,24.5181101732118,0 79.3136263637088,24.5181084199046,0 79.3136244964851,24.5181067545259,0 79.313622535701,24.5181051817273,0 79.3136204868331,24.5181037059018,0 79.3136183556042,24.5181023311717,0 79.3136161479674,24.5181010613767,0 79.3136138700886,24.5180999000635,0 79.3136115283305,24.518098850476,0 79.3136091292338,24.5180979155456,0 79.3136066794997,24.5180970978839,0 79.3136041859704,24.5180963997747,0 79.3136016556109,24.5180958231678,0 79.3135990954887,24.5180953696739,0 79.3135988400543,24.5180953308034,0 79.3135963712594,24.518094012515,0 79.313594041292,24.5180928441416,0 79.3135916459594,24.5180917922123,0 79.3135891922074,24.5180908597776,0 79.3135866871515,24.5180900495414,0 79.3135841380558,24.5180893638531,0 79.3135815523123,24.5180888047011,0 79.3135789374191,24.5180883737069,0 79.3135763009588,24.5180880721202,0 79.3135736505767,24.5180879008156,0 79.3135709939584,24.5180878602898,0 79.3135683388075,24.5180879506604,0 79.3135656928234,24.5180881716653,0 79.313499292847,24.518095371664,0 79.3134967150429,24.5180957145354,0 79.3134941606097,24.518096181398,0 79.313491636667,24.5180967709506,0 79.3134891502496,24.5180974815499,0 79.3134867082879,24.5180983112154,0 79.3134843175881,24.5180992576345,0 79.3134819848136,24.5181003181695,0 79.3134797164665,24.5181014898643,0 79.313477518869,24.5181027694532,0 79.3134753981465,24.5181041533696,0 79.3134733602098,24.5181056377563,0 79.3134714107392,24.518107218476,0 79.3134695551682,24.5181088911227,0 79.3134677986689,24.5181106510346,0 79.3134661461369,24.5181124933062,0 79.3134646021783,24.5181144128027,0 79.3134631710963,24.5181164041741,0 79.3134618568799,24.51811846187,0 79.3134606631919,24.5181205801551,0 79.3134510631874,24.5181387801521,0 79.3134506442134,24.5181396293792,0 79.3134504196156,24.5181391898284,0 79.3134491684107,24.518137049258,0 79.313447793249,24.5181349733163,0 79.3134462981068,24.518132968006,0 79.3134372981047,24.5181215680083,0 79.313435727443,24.5181196846628,0 79.3134340509548,24.5181178792959,0 79.313432273257,24.5181161568793,0 79.3134303992455,24.5181145221564,0 79.3134284340809,24.5181129796292,0 79.3134263831754,24.5181115335457,0 79.3134242521768,24.5181101878882,0 79.3134220469538,24.5181089463627,0 79.3134197735796,24.5181078123881,0 79.3134174383147,24.5181067890874,0 79.3134150475903,24.5181058792788,0 79.3134126079904,24.5181050854676,0 79.3134110454683,24.5181046600904,0 79.3134092090318,24.5180817047456,0 79.3134089564054,24.5180793771095,0 79.313408572336,24.5180770645704,0 79.3134080578547,24.5180747733371,0 79.3134074143429,24.5180725095614,0 79.3134066435284,24.5180702793213,0 79.3134057474806,24.5180680886048,0 79.3134047286054,24.5180659432937,0 79.3134035896385,24.518063849148,0 79.3134023336378,24.5180618117902,0 79.3134009639755,24.5180598366905,0 79.3133994843291,24.5180579291518,0 79.3133978986712,24.5180560942956,0 79.3133962112593,24.5180543370483,0 79.3133944266238,24.518052662128,0 79.3133925495563,24.5180510740317,0 79.3133905850965,24.5180495770232,0 79.3133885385189,24.5180481751219,0 79.3133864153183,24.5180468720916,0 79.3133842211953,24.518045671431,0 79.3133819620408,24.5180445763637,0 79.3133796439204,24.5180435898298,0 79.3133772730582,24.518042714478,0 79.3133748558196,24.5180419526586,0 79.3133723986946,24.5180413064171,0 79.3133699082803,24.5180407774884,0 79.3133673912634,24.5180403672927,0 79.3133648544017,24.5180400769313,0 79.3133623045064,24.5180399071839,0 79.3133597484238,24.5180398585061,0 79.3133571930166,24.5180399310288,0 79.3133546451459,24.5180401245571,0 79.3133521116524,24.5180404385714,0 79.3133495993384,24.5180408722287,0 79.313347114949,24.5180414243647,0 79.3133446651547,24.5180420934968,0 79.3133422565329,24.5180428778286,0 79.3133398955505,24.5180437752542,0 79.3133375885465,24.5180447833641,0 79.313335341715,24.5180458994517,0 79.3133331610884,24.5180471205203,0 79.3133310525216,24.5180484432915,0 79.3133290216758,24.5180498642138,0 79.3133270740037,24.5180513794722,0 79.3133252147345,24.5180529849983,0 79.3133234488602,24.5180546764815,0 79.3133217811221,24.5180564493803,0 79.3133202159977,24.5180582989347,0 79.3132873742184,24.5180992588933,0 79.313274766469,24.518109992516,0 79.3132734623646,24.5181097771987,0 79.3132708467194,24.518109476239,0 79.3132682172382,24.5181093035237,0 79.3132655814274,24.518109259546,0 79.3132629468115,24.5181093444313,0 79.3132603209116,24.5181095579374,0 79.3132577112239,24.5181098994547,0 79.3132551251982,24.5181103680084,0 79.313252570217,24.5181109622608,0 79.3132500535739,24.5181116805155,0 79.3132475824533,24.5181125207221,0 79.3132451639095,24.518113480482,0 79.3132428048467,24.5181145570555,0 79.3132405119994,24.5181157473692,0 79.313238291913,24.518117048025,0 79.3132361509253,24.5181184553101,0 79.313234095148,24.518119965207,0 79.3132321304499,24.5181215734054,0 79.3132302624397,24.5181232753143,0 79.3132284964499,24.5181250660753,0 79.3132227964496,24.5181311660739,0 79.3132211914054,24.5181329763676,0 79.3132196906392,24.5181348600494,0 79.3132182981526,24.5181368120969,0 79.3132170176584,24.5181388273052,0 79.3132158525709,24.5181409003008,0 79.3132148059968,24.5181430255566,0 79.3132140294547,24.518144848302,0 79.3131854876949,24.5181452358801,0 79.3131856419037,24.5181436550435,0 79.3131857372261,24.5181413344325,0 79.3131857019828,24.5181390124071,0 79.313185536267,24.5181366951124,0 79.3131852405172,24.5181343886809,0 79.3131848155162,24.5181320992163,0 79.3131842623886,24.5181298327774,0 79.3131835825983,24.5181275953621,0 79.3131827779443,24.5181253928916,0 79.313181850556,24.5181232311943,0 79.3131808028876,24.518121115991,0 79.3131796377117,24.5181190528795,0 79.3131783581118,24.5181170473193,0 79.3131769674743,24.5181151046182,0 79.3131754694793,24.5181132299171,0 79.3131738680911,24.5181114281774,0 79.3131721675476,24.5181097041671,0 79.3131703723492,24.5181080624487,0 79.3131684872466,24.5181065073667,0 79.3131665172285,24.5181050430366,0 79.3131644675084,24.5181036733334,0 79.3131623435107,24.5181024018821,0 79.3131601508563,24.5181012320473,0 79.3131578953479,24.5181001669248,0 79.3131555829543,24.5180992093336,0 79.3131081829663,24.5180809093402,0 79.3131057655673,24.5180800438517,0 79.3131033017612,24.518079295882,0 79.3131007983678,24.5180786675015,0 79.3130982623165,24.5180781604494,0 79.3130957006271,24.5180777761293,0 79.3130931203904,24.5180775156051,0 79.3130905287484,24.5180773795977,0 79.3130879328749,24.5180773684838,0 79.3130853399551,24.5180774822941,0 79.3130827571664,24.5180777207135,0 79.3130801916578,24.5180780830821,0 79.3130776505308,24.5180785683969,0 79.3130751408191,24.5180791753144,0 79.3130726694696,24.5180799021549,0 79.3130702433231,24.5180807469063,0 79.3130678690951,24.5180817072304,0 79.3130655533574,24.518082780469,0 79.3130633025201,24.5180839636514,0 79.3130611228135,24.5180852535025,0 79.3130590202709,24.5180866464521,0 79.3130570007123,24.5180881386443,0 79.3130550697277,24.518089725949,0 79.3130532326623,24.5180914039723,0 79.3130514946009,24.5180931680696,0 79.3130498603545,24.5180950133577,0 79.3130483344467,24.518096934729,0 79.3130469211013,24.518098926865,0 79.3130456242303,24.5181009842515,0 79.3130440242297,24.5181036842511,0 79.3130428244531,24.5181058454129,0 79.3130417531994,24.5181080623792,0 79.3130408135573,24.5181103287576,0 79.3130400082359,24.5181126380137,0 79.3130391424431,24.5181153720932,0 79.3130368612322,24.5181178345922,0 79.3130166297336,24.5181120879,0 79.31301413617,24.5181114447702,0 79.3130116091467,24.5181109222748,0 79.3130090556308,24.5181105218544,0 79.3130064826623,24.5181102446129,0 79.3130038973349,24.5181100913146,0 79.3130013067766,24.5181100623823,0 79.3129987181295,24.5181101578957,0 79.3129961385306,24.5181103775914,0 79.312993575092,24.5181107208639,0 79.312991034881,24.5181111867665,0 79.3129885249012,24.5181117740149,0 79.3129860520726,24.5181124809899,0 79.3129836232129,24.5181133057425,0 79.3129812450184,24.5181142459988,0 79.312978924046,24.5181152991664,0 79.3129766666946,24.5181164623417,0 79.3129744791878,24.5181177323179,0 79.3129723675567,24.5181191055936,0 79.312970337623,24.5181205783825,0 79.3129683949833,24.5181221466243,0 79.3129665449936,24.5181238059952,0 79.3129647927543,24.5181255519202,0 79.3129631430964,24.5181273795859,0 79.312961600568,24.5181292839533,0 79.312960169422,24.5181312597719,0 79.3129588536041,24.5181333015945,0 79.312957656742,24.5181354037917,0 79.3129565821355,24.5181375605675,0 79.3129556327473,24.5181397659758,0 79.312954811195,24.5181420139362,0 79.3129541197435,24.518144298251,0 79.3129535602993,24.5181466126222,0 79.3129499585207,24.5181636189322,0 79.3129268045964,24.5181672097674,0 79.3129248263159,24.5181666203619,0 79.3129222939937,24.5181659998623,0 79.3129197292238,24.5181655032931,0 79.3129171392467,24.5181651320562,0 79.3129145313738,24.5181648871996,0 79.3129119129673,24.5181647694145,0 79.3129092914188,24.5181647790335,0 79.3129066741291,24.5181649160293,0 79.3129040684867,24.5181651800153,0 79.3129014818475,24.5181655702462,0 79.3128989215135,24.5181660856204,0 79.3128963947125,24.5181667246829,0 79.3128901475864,24.518168469376,0 79.3128582003884,24.5181711460332,0 79.3128553789074,24.5181714576225,0 79.312852581715,24.518171917318,0 79.3128481110698,24.5181727743112,0 79.3128474026512,24.5181724734671,0 79.3128450217805,24.5181715969802,0 79.312842594318,24.5181708349402,0 79.3128401268308,24.5181701894087,0 79.3128376259945,24.5181696621321,0 79.312835098575,24.5181692545369,0 79.3128325514098,24.5181689677259,0 79.3128299913902,24.5181688024749,0 79.312827425442,24.5181687592311,0 79.3128248605071,24.5181688381114,0 79.3128223035247,24.5181690389025,0 79.3128197614125,24.5181693610611,0 79.312817241048,24.5181698037156,0 79.3128147492497,24.5181703656685,0 79.312812292759,24.5181710453995,0 79.3128098782216,24.5181718410696,0 79.31280751217,24.5181727505262,0 79.3128052010051,24.5181737713089,0 79.3128029509796,24.518174900656,0 79.3128007681808,24.5181761355122,0 79.3127986585141,24.5181774725367,0 79.3127966276869,24.5181789081123,0 79.3127946811934,24.5181804383553,0 79.3127928242997,24.5181820591256,0 79.3127910620295,24.5181837660384,0 79.3127893991504,24.5181855544759,0 79.3127878401612,24.5181874195996,0 79.312786703158,24.5181889373711,0 79.3127592177223,24.5181931999281,0 79.312756319497,24.5181886118589,0 79.3127549576883,24.518186581632,0 79.3127534807217,24.5181846199535,0 79.3127518927095,24.5181827322856,0 79.3127501980736,24.5181809238844,0 79.3127484015326,24.5181791997853,0 79.3127465080888,24.5181775647889,0 79.3127445230144,24.5181760234478,0 79.3127424518367,24.5181745800537,0 79.3127403003229,24.5181732386258,0 79.3127380744636,24.518172002899,0 79.3127357804567,24.5181708763143,0 79.3127334246896,24.5181698620085,0 79.3127310137219,24.5181689628059,0 79.3127285542668,24.5181681812103,0 79.3127260531724,24.5181675193979,0 79.3127235174029,24.5181669792117,0 79.312720954019,24.5181665621556,0 79.3127183701583,24.5181662693909,0 79.3127157730154,24.5181661017329,0 79.3127131698219,24.5181660596483,0 79.3127105678262,24.5181661432543,0 79.3127079742734,24.5181663523182,0 79.3127053963851,24.5181666862579,0 79.3127028413392,24.5181671441434,0 79.3127003162502,24.5181677246998,0 79.312697828149,24.5181684263106,0 79.3126953839636,24.5181692470223,0 79.3126929904996,24.5181701845495,0 79.3126906544215,24.5181712362818,0 79.3126883822339,24.5181723992908,0 79.3126861802638,24.518173670338,0 79.3126840546421,24.5181750458844,0 79.3126820112878,24.5181765220998,0 79.3126800558904,24.5181780948737,0 79.3126781938944,24.5181797598269,0 79.3126764304847,24.5181815123235,0 79.3126747705712,24.5181833474837,0 79.3126732187759,24.5181852601975,0 79.3126717794198,24.5181872451392,0 79.3126713069943,24.5181879778035,0 79.3126711601422,24.518187559921,0 79.3126702394387,24.518185345934,0 79.3126691930625,24.5181831791824,0 79.3126680238949,24.5181810656326,0 79.3126667351554,24.5181790111045,0 79.3126653303925,24.5181770212554,0 79.3126638134745,24.5181751015646,0 79.3126621885783,24.5181732573182,0 79.3126604601782,24.5181714935944,0 79.3126586330337,24.5181698152498,0 79.3126567121759,24.518168226906,0 79.312654702894,24.5181667329365,0 79.3126526107209,24.5181653374553,0 79.3126504414175,24.5181640443047,0 79.3126482009572,24.5181628570458,0 79.3126458955095,24.5181617789477,0 79.3126435314224,24.518160812979,0 79.3126411152059,24.5181599617997,0 79.3126386535131,24.5181592277536,0 79.3126361531226,24.5181586128619,0 79.3126336209195,24.5181581188178,0 79.3126310638764,24.5181577469817,0 79.3126284890344,24.5181574983774,0 79.3126259034836,24.5181573736896,0 79.3126233143435,24.5181573732615,0 79.3126207287436,24.5181574970944,0 79.3126181538035,24.5181577448473,0 79.3126155966137,24.5181581158379,0 79.3126130642156,24.5181586090447,0 79.3126105635825,24.5181592231095,0 79.3126081015999,24.5181599563416,0 79.3126056850473,24.5181608067219,0 79.3126033205789,24.5181617719088,0 79.3126010147055,24.5181628492445,0 79.3125987737764,24.5181640357625,0 79.3125966039624,24.5181653281956,0 79.3125945112382,24.518166722985,0 79.3125925013664,24.5181682162899,0 79.3125905798812,24.5181698039984,0 79.3125887520739,24.5181714817386,0 79.3125870229773,24.5181732448908,0 79.3125853973527,24.5181750885997,0 79.3125838796764,24.5181770077887,0 79.3125824741276,24.5181789971731,0 79.3125811845765,24.5181810512748,0 79.3125800145741,24.5181831644377,0 79.3125789673421,24.5181853308431,0 79.3125780457641,24.5181875445255,0 79.3125772523777,24.5181897993893,0 79.3125765893678,24.5181920892255,0 79.3125760585599,24.5181944077288,0 79.3125695058536,24.5182273091536,0 79.3125559664099,24.518238785944,0 79.3125541335857,24.5182404224433,0 79.312552396041,24.5182421437452,0 79.3125507584568,24.5182439452126,0 79.312549225245,24.5182458219921,0 79.312547800536,24.5182477690275,0 79.3125464881682,24.5182497810734,0 79.3125452916772,24.5182518527092,0 79.3125442142864,24.5182539783539,0 79.3125432588984,24.5182561522806,0 79.312542428087,24.5182583686329,0 79.3125417240906,24.5182606214395,0 79.3125411488057,24.5182629046315,0 79.3125407037823,24.5182652120575,0 79.3125403902192,24.5182675375014,0 79.3125402089612,24.5182698746982,0 79.3125401604966,24.5182722173512,0 79.3125402449561,24.5182745591494,0 79.3125404621121,24.5182768937836,0 79.3125408113795,24.5182792149643,0 79.312541511378,24.5182831149644,0 79.3125419958131,24.5182854331959,0 79.3125426120214,24.5182877250936,0 79.3125433583182,24.5182899843924,0 79.3125442326634,24.5182922049162,0 79.3125452326671,24.5182943805948,0 79.3125463555954,24.5182965054807,0 79.3125475983787,24.5182985737653,0 79.3125477873301,24.5182988526283,0 79.3125425996739,24.5183071818247,0 79.3125269835804,24.5183061705877,0 79.3125243907325,24.5183060652935,0 79.3125217954201,24.5183060848837,0 79.312519204824,24.518306229304,0 79.3125166261125,24.5183064981549,0 79.3125140664204,24.5183068906925,0 79.3125115328304,24.5183074058307,0 79.3125090323526,24.518308042144,0 79.3125065719056,24.5183087978719,0 79.3125041582975,24.5183096709234,0 79.3125017982063,24.5183106588827,0 79.3124994981624,24.5183117590163,0 79.3124972645297,24.5183129682802,0 79.3124951034886,24.5183142833284,0 79.3124930210185,24.5183157005223,0 79.3124910228814,24.5183172159406,0 79.312489114606,24.5183188253903,0 79.3124873014724,24.5183205244181,0 79.3124855884974,24.518322308323,0 79.3124839804207,24.5183241721691,0 79.3124824816917,24.5183261107991,0 79.3124810964573,24.5183281188492,0 79.3124798285503,24.5183301907631,0 79.3124786814789,24.518332320808,0 79.312477658417,24.5183345030902,0 79.3124767621953,24.5183367315716,0 79.3124759952937,24.5183390000861,0 79.3124753598341,24.5183413023568,0 79.3124748575747,24.5183436320137,0 79.3124744899054,24.5183459826106,0 79.3124742578433,24.5183483476436,0 79.3124741620307,24.518350720569,0 79.3124742027326,24.5183530948209,0 79.3124743798364,24.51835546383,0 79.3124746928521,24.5183578210414,0 79.3124751409136,24.5183601599329,0 79.3124757227812,24.518362474033,0 79.3124764368448,24.5183647569386,0 79.3124772811288,24.5183670023332,0 79.3124782532971,24.518369204004,0 79.3124920299027,24.5183981848678,0 79.3123406349502,24.5187272380654,0 79.3123393424612,24.5187273906247,0 79.3123368696032,24.5187278005516,0 79.3123344227666,24.5187283251432,0 79.3122746227865,24.5187426251394,0 79.3122721474967,24.5187432806895,0 79.3122697129916,24.51874405358,0 79.3122673259117,24.5187449417029,0 79.3122649927681,24.5187459426356,0 79.3122627199247,24.5187470536481,0 79.3122605135809,24.5187482717098,0 79.3122583797547,24.5187495934983,0 79.3122563242666,24.5187510154084,0 79.312254352723,24.5187525335616,0 79.3122524705016,24.518754143817,0 79.3122506827365,24.5187558417823,0 79.3122489943038,24.5187576228262,0 79.3122474098091,24.5187594820906,0 79.3122459335743,24.5187614145042,0 79.312244569626,24.5187634147961,0 79.3122433216845,24.5187654775102,0 79.3122421931537,24.5187675970203,0 79.3122411871119,24.518769767545,0 79.3122403063031,24.5187719831641,0 79.3122395531299,24.5187742378342,0 79.3122389296467,24.5187765254054,0 79.3122384375541,24.518778839638,0 79.3122380781943,24.5187811742196,0 79.3122378525476,24.5187835227825,0 79.3122377612294,24.5187858789207,0 79.3122378044889,24.5187882362073,0 79.312237982208,24.5187905882128,0 79.312238293902,24.5187929285217,0 79.3122387387207,24.5187952507504,0 79.3122393154508,24.5187975485649,0 79.3122400225193,24.5187998156976,0 79.3122408579975,24.5188020459645,0 79.3122418196065,24.5188042332823,0 79.3122429047235,24.518806371685,0 79.3122441103887,24.5188084553396,0 79.3122454333135,24.5188104785627,0 79.3122468698894,24.5188124358359,0 79.312248416198,24.5188143218203,0 79.3122500680215,24.5188161313717,0 79.3122518208544,24.5188178595543,0 79.3122536699157,24.5188195016543,0 79.3122556101618,24.5188210531926,0 79.3122576363004,24.5188225099373,0 79.3122586031983,24.518823133257,0 79.3120898334761,24.5189686024592,0 79.3120900141411,24.5189550863622,0 79.3120899890108,24.5189551119518,0 79.3120886721535,24.5189548927037,0 79.3120861340533,24.5189545935116,0 79.3120835824114,24.5189544151179,0 79.3120810240919,24.5189543580027,0 79.3120784659766,24.5189544223195,0 79.3120759149467,24.5189546078952,0 79.3120733778647,24.5189549142308,0 79.3120708615553,24.5189553405021,0 79.3120683727872,24.5189558855625,0 79.3120659182553,24.5189565479458,0 79.3120635045623,24.5189573258702,0 79.312061138201,24.518958217243,0 79.312058825537,24.5189592196664,0 79.3120565727912,24.518960330444,0 79.3120543860236,24.5189615465877,0 79.3120522711166,24.5189628648262,0 79.3120021711249,24.5189958648171,0 79.312000096414,24.5189973090326,0 79.3119981079735,24.5189988514873,0 79.3119962113544,24.5190004878752,0 79.3119944118513,24.5190022136282,0 79.3119927144877,24.5190040239286,0 79.3119911240018,24.5190059137229,0 79.3119896448339,24.5190078777355,0 79.311988281113,24.5190099104837,0 79.3119870366461,24.5190120062928,0 79.3119859149075,24.5190141593121,0 79.3119849190283,24.5190163635314,0 79.3119840517888,24.5190186127973,0 79.31198331561,24.5190209008307,0 79.311982712547,24.5190232212444,0 79.3119822442833,24.5190255675607,0 79.3119819121261,24.5190279332297,0 79.3119817170027,24.5190303116472,0 79.3119816594578,24.5190326961738,0 79.311981739652,24.5190350801528,0 79.3119819573615,24.5190374569291,0 79.3119823119786,24.5190398198676,0 79.3119828025132,24.5190421623719,0 79.3119834275961,24.5190444779028,0 79.3119841854822,24.5190467599962,0 79.3119850740558,24.5190490022813,0 79.3119860908364,24.5190511984987,0 79.3119872329856,24.5190533425173,0 79.3119884973149,24.519055428352,0 79.3119898802949,24.5190574501798,0 79.3119913780648,24.5190594023566,0 79.3119929864434,24.5190612794328,0 79.3119947009408,24.5190630761682,0 79.3119965167708,24.5190647875472,0 79.3119984288643,24.5190664087922,0 79.3120004318835,24.5190679353773,0 79.3120025202368,24.5190693630409,0 79.3120035357074,24.5190699835851,0 79.3118869848465,24.5193244809492,0 79.3118801642732,24.5193200973379,0 79.3118783844551,24.5193181144764,0 79.3116904312833,24.519316011169,0 79.3116602236317,24.5193156731056,0 79.3116098782547,24.5193450338724,0 79.3116077542932,24.5193463447066,0 79.3116057075664,24.5193477546405,0 79.3116037435925,24.5193492598728,0 79.3116018676669,24.5193508563449,0 79.3116000848475,24.5193525397524,0 79.311598399941,24.5193543055567,0 79.3115968174904,24.5193561489966,0 79.3115953417623,24.5193580651019,0 79.3115939767355,24.5193600487064,0 79.3115927260904,24.5193620944619,0 79.311591593199,24.5193641968526,0 79.3115905811159,24.5193663502101,0 79.3115896925697,24.5193685487284,0 79.3115889299563,24.51937078648,0 79.3115882953317,24.5193730574313,0 79.3115877904072,24.5193753554595,0 79.311587416544,24.5193776743685,0 79.3115871747502,24.5193800079062,0 79.3115870656777,24.5193823497808,0 79.3115870896205,24.5193846936782,0 79.3115872465143,24.5193870332787,0 79.3115875359358,24.5193893622743,0 79.3115879571049,24.5193916743856,0 79.311588508886,24.5193939633786,0 79.3115891897913,24.5193962230817,0 79.311589997985,24.5193984474023,0 79.311590931288,24.5194006303432,0 79.311591987184,24.5194027660188,0 79.3115931628261,24.5194048486707,0 79.3115944550445,24.5194068726839,0 79.3115958603551,24.519408832601,0 79.311597374969,24.5194107231377,0 79.3115989948024,24.5194125391969,0 79.3116007154878,24.5194142758819,0 79.3116025323861,24.5194159285105,0 79.3116044405985,24.5194174926266,0 79.31160643498,24.5194189640132,0 79.3116085101534,24.519420338703,0 79.3116106605235,24.5194216129897,0 79.3116128802927,24.5194227834375,0 79.3116151634758,24.5194238468906,0 79.311617503917,24.5194248004818,0 79.3116198953059,24.5194256416399,0 79.3116223311949,24.519426368097,0 79.3116248050163,24.5194269778945,0 79.3116273101002,24.5194274693882,0 79.3116298396924,24.5194278412529,0 79.3116323869725,24.519428092486,0 79.3116349450725,24.5194282224101,0 79.3116375070954,24.519428230675,0 79.3116400661333,24.5194281172583,0 79.3116426152865,24.5194278824658,0 79.3116451476821,24.5194275269307,0 79.3116476564921,24.5194270516114,0 79.3116501349522,24.5194264577895,0 79.3116525763801,24.5194257470662,0 79.3116549741932,24.5194249213576,0 79.3116573219263,24.5194239828901,0 79.3116596132497,24.5194229341939,0 79.3116618419853,24.5194217780966,0 79.3117516522881,24.5193723292225,0 79.3118185237308,24.5193938162345,0 79.3118835560964,24.5194430940945,0 79.311881956608,24.5194917400249,0 79.3118712628051,24.5194975014135,0 79.311869070945,24.5194987541615,0 79.3118669537875,24.5195001101905,0 79.311864917141,24.5195015657803,0 79.3118629665931,24.5195031169375,0 79.3118611074951,24.5195047594066,0 79.3118593449474,24.5195064886813,0 79.3118576837855,24.5195083000175,0 79.3118561285668,24.5195101884458,0 79.3118546835581,24.5195121487853,0 79.3118533527237,24.5195141756578,0 79.3118521397148,24.5195162635026,0 79.3118510478592,24.5195184065918,0 79.3118500801525,24.5195205990457,0 79.3118492392496,24.5195228348494,0 79.3118485274573,24.5195251078691,0 79.3118479467287,24.5195274118686,0 79.3118474986569,24.5195297405271,0 79.3118471844712,24.5195320874557,0 79.3118470050335,24.5195344462159,0 79.3118469608361,24.5195368103362,0 79.3118470520005,24.5195391733308,0 79.3118472782763,24.5195415287168,0 79.3118476390429,24.5195438700322,0 79.3118481333104,24.5195461908537,0 79.3118487597229,24.5195484848141,0 79.3118495165619,24.5195507456199,0 79.3118504017509,24.5195529670686,0 79.3118514128614,24.5195551430657,0 79.3118525471195,24.5195572676413,0 79.3118538014134,24.5195593349667,0 79.3118551723019,24.5195613393703,0 79.311856656024,24.5195632753528,0 79.3118582485091,24.5195651376031,0 79.3118599453883,24.5195669210119,0 79.3118617420061,24.5195686206866,0 79.3118636334336,24.5195702319641,0 79.3118656144816,24.5195717504238,0 79.3118676797152,24.5195731718999,0 79.3118698234684,24.5195744924925,0 79.3118720398599,24.5195757085786,0 79.3118743228089,24.5195768168219,0 79.3118766660522,24.519577814182,0 79.3118790631612,24.5195786979225,0 79.3118815075593,24.519579465619,0 79.3118839925405,24.5195801151652,0 79.3118865112871,24.5195806447792,0 79.3119000112916,24.5195831447803,0 79.3119026802121,24.5195835696066,0 79.3119053705946,24.5195838597804,0 79.3119080743292,24.5195840144268,0 79.3119107832656,24.5195840330798,0 79.3119134892381,24.519583915683,0 79.3119161840898,24.5195836625905,0 79.3119188596971,24.5195832745651,0 79.3119215079947,24.5195827527764,0 79.3119241209996,24.5195820987975,0 79.3119266908352,24.5195813145995,0 79.3119541161287,24.5195721728358,0 79.3119820955045,24.5195683458696,0 79.3119846210292,24.519567938786,0 79.3119871200253,24.519567412204,0 79.3119895857422,24.5195667675459,0 79.3119920115197,24.5195660065531,0 79.3119943908051,24.5195651312812,0 79.3119967171715,24.5195641440945,0 79.3119989843349,24.5195630476596,0 79.3120011861711,24.5195618449382,0 79.3120033167326,24.5195605391791,0 79.3120053702642,24.5195591339095,0 79.312007341219,24.5195576329253,0 79.3120092242728,24.5195560402809,0 79.3120110143392,24.5195543602785,0 79.3120127065828,24.5195525974561,0 79.3120142964326,24.5195507565755,0 79.312015779594,24.5195488426093,0 79.3120171520607,24.5195468607275,0 79.3120184101253,24.5195448162836,0 79.3120195503895,24.5195427148001,0 79.3120205697733,24.5195405619535,0 79.3120214655231,24.5195383635592,0 79.3120222352193,24.5195361255556,0 79.3120228767827,24.5195338539878,0 79.3120233884804,24.519531554992,0 79.3120237689301,24.5195292347781,0 79.3120240171043,24.5195268996137,0 79.3120241323325,24.5195245558064,0 79.3120241143035,24.5195222096875,0 79.312023963066,24.5195198675942,0 79.3120236790286,24.519517535853,0 79.3120232629584,24.5195152207626,0 79.3120227159794,24.5195129285765,0 79.3120220395691,24.5195106654863,0 79.3120212355546,24.5195084376051,0 79.3120203061078,24.5195062509509,0 79.3120192537394,24.5195041114304,0 79.3120180812918,24.5195020248228,0 79.3120167919323,24.5194999967645,0 79.3120153891437,24.5194980327338,0 79.3120138767151,24.5194961380358,0 79.3120129171947,24.5194950585656,0 79.3120061221963,24.5194663578399,0 79.3120350074898,24.5194780703431,0 79.312037357946,24.5194789578461,0 79.3120397552559,24.5194797333866,0 79.3120421930527,24.519480394905,0 79.3120446648621,24.5194809406446,0 79.3120471641194,24.5194813691558,0 79.3120496841872,24.5194816793006,0 79.3120522183728,24.5194818702555,0 79.3120547599457,24.5194819415132,0 79.3120573021562,24.5194818928845,0 79.3120598382527,24.5194817244985,0 79.3120623614997,24.5194814368025,0 79.3120648651962,24.5194810305604,0 79.3120673426927,24.5194805068513,0 79.3120697874096,24.5194798670659,0 79.3120721928543,24.5194791129034,0 79.3120745526382,24.5194782463667,0 79.3120768604945,24.5194772697571,0 79.3120791102938,24.5194761856684,0 79.3120812960612,24.5194749969795,0 79.3120812979261,24.5194749958424,0 79.3120820378146,24.5194752554355,0 79.3120844807085,24.5194759815577,0 79.3120855596562,24.5194762463399,0 79.3120856218433,24.5194763186656,0 79.3120873018066,24.5194780771482,0 79.3120890789297,24.5194797537848,0 79.3120909484555,24.5194813440875,0 79.3120929053801,24.5194828437995,0 79.3120949444652,24.5194842489065,0 79.3120970602528,24.5194855556474,0 79.3120992470796,24.5194867605245,0 79.3121014990921,24.5194878603127,0 79.3121038102623,24.5194888520681,0 79.3121061744039,24.5194897331362,0 79.3121085851887,24.5194905011586,0 79.3121110361638,24.5194911540794,0 79.3121135207686,24.519491690151,0 79.3121160323526,24.5194921079385,0 79.3121185641931,24.5194924063236,0 79.3121211095129,24.5194925845076,0 79.312123661499,24.5194926420136,0 79.3121253460462,24.5194926002099,0 79.3121268025397,24.5194933922451,0 79.3121290765486,24.519494486491,0 79.3121314097348,24.5194954709524,0 79.3121337957714,24.5194963429598,0 79.3121362281885,24.5194971001486,0 79.3121387003902,24.5194977404657,0 79.3121393774254,24.5194978814539,0 79.3121398605813,24.5194982415078,0 79.3121419661523,24.5194996481093,0 79.3121441499926,24.5195009509949,0 79.312146406005,24.519502146527,0 79.3121487278909,24.5195032313677,0 79.3121511091676,24.5195042024883,0 79.3121535431868,24.5195050571773,0 79.3121560231527,24.5195057930485,0 79.3121585421413,24.5195064080474,0 79.3121610931198,24.519506900457,0 79.312163668966,24.5195072689024,0 79.3121662624882,24.519507512355,0 79.3121688664453,24.5195076301351,0 79.3121714735673,24.5195076219137,0 79.3121740765752,24.519507487714,0 79.3121766682014,24.5195072279105,0 79.3121792412103,24.5195068432287,0 79.3121817884181,24.5195063347424,0 79.3121843027132,24.5195057038715,0 79.3121867770757,24.5195049523772,0 79.3121892045973,24.5195040823578,0 79.3121915785004,24.5195030962422,0 79.3121938921573,24.5195019967837,0 79.3121961391083,24.5195007870519,0 79.3121983130799,24.5194994704243,0 79.3122004080027,24.5194980505769,0 79.3122261080062,24.519479650572,0 79.312227492692,24.5194786052522,0 79.3122274926927,24.5195207418365,0 79.3122264175615,24.5195220215995,0 79.3122249742847,24.519523936137,0 79.3122236407005,24.5195259161408,0 79.3122224203486,24.5195279563555,0 79.3122213164685,24.5195300513655,0 79.31222033199,24.5195321956099,0 79.3122194695265,24.5195343833973,0 79.3121997749411,24.519588686178,0 79.3121740055315,24.5195582537385,0 79.3121723577245,24.5195564103196,0 79.3121706059555,24.5195546489668,0 79.3121687550995,24.5195529745819,0 79.3121668103072,24.5195513918244,0 79.3121647769908,24.519549905099,0 79.3121626608087,24.5195485185431,0 79.3121604676499,24.5195472360152,0 79.3121582036179,24.5195460610844,0 79.312155875013,24.5195449970205,0 79.3121534883156,24.5195440467847,0 79.3121510501674,24.5195432130212,0 79.3121485673536,24.5195424980504,0 79.3121460467836,24.519541903862,0 79.3121434954718,24.5195414321094,0 79.3121409205181,24.5195410841055,0 79.3121383290884,24.5195408608189,0 79.3121357283942,24.5195407628707,0 79.3121331256729,24.5195407905337,0 79.3121305281678,24.5195409437309,0 79.3121279431071,24.5195412220358,0 79.3121253776849,24.5195416246741,0 79.3121228390405,24.5195421505252,0 79.3121203342385,24.5195427981258,0 79.3121178702495,24.5195435656736,0 79.3121154539305,24.5195444510327,0 79.3121130920057,24.5195454517392,0 79.3121107910483,24.5195465650083,0 79.3121085574613,24.5195477877419,0 79.3121063974607,24.5195491165373,0 79.3121043170573,24.5195505476966,0 79.3121023220409,24.519552077237,0 79.3121004179632,24.5195537009021,0 79.312098610123,24.5195554141733,0 79.3120969035514,24.5195572122829,0 79.3120953029975,24.519559090227,0 79.3120938129155,24.5195610427794,0 79.3120924374521,24.5195630645064,0 79.3120911804351,24.5195651497818,0 79.3120900453625,24.5195672928026,0 79.3120890353933,24.519569487605,0 79.3120881533379,24.5195717280811,0 79.312087401651,24.519574007996,0 79.3120867824245,24.5195763210049,0 79.3120862973817,24.5195786606709,0 79.3120859478724,24.5195810204832,0 79.3120857348692,24.5195833938746,0 79.3120856589649,24.5195857742403,0 79.3120857203707,24.519588154956,0 79.3120859189157,24.5195905293964,0 79.3120862540475,24.5195928909538,0 79.3120867248334,24.5195952330562,0 79.3120873299632,24.5195975491859,0 79.3120880677531,24.5195998328973,0 79.3120889361497,24.5196020778352,0 79.3120899327365,24.5196042777521,0 79.3121013762273,24.5196277670462,0 79.3120948157591,24.5196327948671,0 79.3120930252313,24.5196342358702,0 79.3120913128955,24.5196357543398,0 79.312091087621,24.5196359743969,0 79.3120864953933,24.5196387375169,0 79.3120614028445,24.5196383639298,0 79.3120588144266,24.5196383875221,0 79.3120562309231,24.5196385352762,0 79.3120536594444,24.5196388067856,0 79.3120511070681,24.5196392013029,0 79.3120485808188,24.5196397177423,0 79.3120460876496,24.5196403546824,0 79.3120436344224,24.5196411103703,0 79.312041227889,24.5196419827259,0 79.3120388746729,24.5196429693485,0 79.3120372767166,24.5196437345082,0 79.3120349696759,24.5196436599993,0 79.312032427557,24.5196436977913,0 79.3120298275579,24.5196437977913,0 79.3120272266734,24.5196439608908,0 79.3120246388351,24.5196442494436,0 79.3120220712672,24.5196446626441,0 79.3120195311375,24.5196451993387,0 79.3120170255369,24.5196458580292,0 79.3120145614604,24.5196466368768,0 79.3120121457865,24.5196475337073,0 79.3120097852589,24.5196485460171,0 79.3120074864674,24.5196496709801,0 79.3120052558294,24.5196509054558,0 79.3120030995719,24.5196522459982,0 79.3120010237143,24.5196536888648,0 79.3119990340518,24.5196552300278,0 79.3119971361387,24.5196568651848,0 79.3119953352733,24.519658589771,0 79.3119936364829,24.5196603989721,0 79.3119920445099,24.5196622877375,0 79.3119905637985,24.5196642507943,0 79.3119891984823,24.5196662826626,0 79.3119879523728,24.51966837767,0 79.3119868289486,24.5196705299681,0 79.311985831346,24.5196727335485,0 79.3119849623498,24.5196749822597,0 79.311984224386,24.519677269824,0 79.3119836195147,24.5196795898554,0 79.3119831494244,24.5196819358773,0 79.3119828154277,24.5196843013405,0 79.3119826184567,24.5196866796414,0 79.3119825659794,24.5196887864085,0 79.3119815041309,24.5196897433311,0 79.3119804217627,24.5197707104515,0 79.3120690838153,24.5197717025047,0 79.3121283373205,24.5198705372786,0 79.3121289436112,24.5198711256676,0 79.3121303449972,24.5198927694227,0 79.3121305671448,24.5198951400286,0 79.3121309255071,24.5198974966332,0 79.3121314190885,24.5198998326897,0 79.3121320465179,24.5199021417086,0 79.3121328060523,24.5199044172752,0 79.3121336955817,24.5199066530681,0 79.3121347126349,24.5199088428761,0 79.3121358543866,24.5199109806158,0 79.3121371176649,24.5199130603486,0 79.3121384989604,24.5199150762969,0 79.3121399944359,24.5199170228604,0 79.3121415999368,24.5199188946313,0 79.3121433110031,24.51992068641,0 79.3121451228813,24.5199223932187,0 79.312147030538,24.5199240103159,0 79.3121490286737,24.5199255332092,0 79.3121511117375,24.5199269576681,0 79.3121532739426,24.5199282797353,0 79.3121555092823,24.519929495738,0 79.3121578115468,24.5199306022983,0 79.3121601743402,24.5199315963419,0 79.3121625910988,24.5199324751075,0 79.3121650551087,24.5199332361538,0 79.3121675595247,24.5199338773665,0 79.3121700973896,24.5199343969645,0 79.312172661653,24.5199347935041,0 79.3121752451913,24.5199350658839,0 79.3121778408275,24.5199352133471,0 79.3121804413507,24.5199352354841,0 79.3121830395366,24.5199351322333,0 79.3121856281674,24.5199349038817,0 79.3121882000517,24.5199345510636,0 79.3121907480449,24.519934074759,0 79.3121932058094,24.5199334903812,0 79.3123631789883,24.5200984443092,0 79.3123706730001,24.5201080596901,0 79.3123702964217,24.5201362358311,0 79.3123140730008,24.5201356068502,0 79.3123148493557,24.5201361916907,0 79.3123169376564,24.5201376029961,0 79.312319104207,24.5201389118517,0 79.3123213430088,24.5201401146335,0 79.3123236478634,24.5201412080115,0 79.3123260123892,24.5201421889584,0 79.3123284300397,24.5201430547582,0 79.312330894121,24.5201438030139,0 79.312333397811,24.5201444316538,0 79.3123359341776,24.5201449389373,0 79.3123384961984,24.5201453234599,0 79.31234107678,24.520145584157,0 79.3123436687776,24.5201457203068,0 79.3123462650147,24.5201457315323,0 79.3123488583031,24.5201456178025,0 79.3123514414627,24.5201453794323,0 79.3123523839408,24.5201452694765,0 79.3123769135425,24.5201573493805,0 79.312379269688,24.5201584363806,0 79.3123816859816,24.520159406586,0 79.3123841555126,24.5201602572219,0 79.3123866712178,24.5201609858554,0 79.3123892259022,24.5201615904025,0 79.3123918122593,24.5201620691343,0 79.312394422892,24.5201624206815,0 79.3123970503335,24.5201626440387,0 79.3123996870693,24.5201627385671,0 79.3124023255581,24.5201627039963,0 79.3124049582537,24.5201625404251,0 79.3124075776264,24.5201622483214,0 79.3124101761846,24.5201618285207,0 79.3124122377461,24.520161390354,0 79.3124421709939,24.5201997969061,0 79.3124419295503,24.5202014750362,0 79.3124417273513,24.5202038164748,0 79.3124416585387,24.5202061643659,0 79.3124417232988,24.5202085123534,0 79.3124419214561,24.5202108540812,0 79.3124422524743,24.5202131832099,0 79.3124427154574,24.5202154934344,0 79.3124433091519,24.5202177785005,0 79.3124440319506,24.5202200322224,0 79.312444881897,24.520222248499,0 79.31244585669,24.5202244213307,0 79.3124469536909,24.5202265448352,0 79.3124481699299,24.5202286132641,0 79.3124495021146,24.5202306210179,0 79.3124509466385,24.5202325626614,0 79.3124671206772,24.5202531313405,0 79.3124618920402,24.5202606362322,0 79.3124606163975,24.5202625725473,0 79.3124594483186,24.5202645648658,0 79.3124583907334,24.5202666081904,0 79.3124574462946,24.5202686973959,0 79.3124566173711,24.5202708272421,0 79.3124559060421,24.5202729923866,0 79.3124553140919,24.5202751873986,0 79.3124548430051,24.5202774067726,0 79.3124502418086,24.5203024150839,0 79.3124481502628,24.5203032436445,0 79.3124459034129,24.5203042606603,0 79.3124437159208,24.5203053807657,0 79.3124415934327,24.5203066010697,0 79.3124395414271,24.5203079184224,0 79.3124375652006,24.5203093294235,0 79.312435669854,24.5203108304311,0 79.3124338602796,24.5203124175708,0 79.3124053602804,24.5203387175643,0 79.3124036685346,24.5203403587807,0 79.3124020685208,24.5203420752708,0 79.3124005642348,24.5203438627481,0 79.3123991594335,24.5203457167485,0 79.3123978576251,24.5203476326418,0 79.3123966620608,24.5203496056434,0 79.3123955757263,24.520351630826,0 79.3123869757218,24.5203687308233,0 79.3123859258776,24.5203709763643,0 79.3123850103146,24.5203732705655,0 79.3123842317129,24.5203756067115,0 79.3123835923516,24.5203779779638,0 79.3123830941022,24.5203803773815,0 79.3123827384231,24.520382797941,0 79.3123825263555,24.520385232557,0 79.3123824585202,24.5203876741029,0 79.3123825351157,24.5203901154319,0 79.3123827559179,24.5203925493979,0 79.3123831202803,24.5203949688761,0 79.3123836271366,24.5203973667844,0 79.312384275003,24.5203997361037,0 79.3123860750009,24.5204056361042,0 79.3123866283328,24.5204072910777,0 79.3124982182742,24.5204085393894,0 79.3124985631789,24.5204074737217,0 79.3124988729804,24.5204062912864,0 79.3124994014652,24.520406042892,0 79.3125014680079,24.5204049530205,0 79.3125034745637,24.5204037730496,0 79.3125054164433,24.5204025057367,0 79.3125072891083,24.5204011540438,0 79.3125370891117,24.5203785540378,0 79.3125390478119,24.5203769870543,0 79.3125409135012,24.5203753277851,0 79.3125426809915,24.5203735808441,0 79.3125443453678,24.5203717510892,0 79.3125459020018,24.5203698436086,0 79.3125473465648,24.5203678637066,0 79.31254867504,24.5203658168887,0 79.312549883733,24.5203637088469,0 79.3125509692828,24.5203615454429,0 79.3125519286708,24.5203593326929,0 79.312552759229,24.52035707675,0 79.3125563744982,24.5203463281198,0 79.3125667084337,24.5203595872734,0 79.3128605787682,24.5203734166245,0</coordinates></LinearRing></outerBoundaryIs><innerBoundaryIs><LinearRing><coordinates>79.3135530434382,24.5188164618829,0 79.3135723277383,24.5188073383265,0 79.31357136416,24.5188794903125,0 79.3135530434382,24.5188164618829,0</coordinates></LinearRing></innerBoundaryIs><innerBoundaryIs><LinearRing><coordinates>79.3133717212829,24.5184194784631,0 79.3133713322625,24.5184199956388,0 79.3133699747271,24.5184220208553,0 79.3133687355275,24.518424108609,0 79.3133676180959,24.5184262531177,0 79.3133666255274,24.5184284484416,0 79.3133657605709,24.5184306885003,0 79.3133654026638,24.5184316993453,0 79.3133637327674,24.5184303556671,0 79.3133455573437,24.5184164644549,0 79.313345108902,24.5184153976368,0 79.3133717212829,24.5184194784631,0</coordinates></LinearRing></innerBoundaryIs><innerBoundaryIs><LinearRing><coordinates>79.3137409137813,24.5184760910974,0 79.313739463569,24.518477126963,0 79.3137253453694,24.51848064162,0 79.3137230300842,24.5184812740966,0 79.3137207514192,24.5184820095179,0 79.3137185148391,24.5184828461202,0 79.3137163257076,24.5184837818971,0 79.3137141892747,24.5184848146044,0 79.313712110664,24.5184859417656,0 79.3137100948604,24.5184871606774,0 79.3136576948696,24.5185205606682,0 79.3136558365719,24.5185218050791,0 79.3136540437636,24.5185231274647,0 79.3136385380162,24.5185351214573,0 79.3136314820323,24.5185267446488,0 79.3136298587917,24.5185249181077,0 79.3136281336824,24.5185231714703,0 79.3136263113958,24.5185215094867,0 79.3136243968876,24.5185199366765,0 79.3136223953642,24.518518457317,0 79.3136203122688,24.5185170754313,0 79.3136181532664,24.5185157947774,0 79.3136159242282,24.518514618838,0 79.3136136312163,24.5185135508111,0 79.3136112804663,24.5185125936012,0 79.3136088783712,24.5185117498114,0 79.3136064314633,24.5185110217363,0 79.3136039463971,24.518510411356,0 79.3136014299306,24.5185099203304,0 79.3135988889073,24.5185095499948,0 79.3135963302375,24.5185093013563,0 79.3135937608795,24.5185091750911,0 79.3135911878206,24.5185091715426,0 79.3135886180582,24.5185092907204,0 79.3135860585808,24.5185095323005,0 79.3135835163488,24.5185098956258,0 79.3135809982758,24.5185103797083,0 79.3135785112095,24.5185109832316,0 79.3135760619137,24.5185117045543,0 79.3135736570491,24.5185125417148,0 79.3135713031557,24.5185134924365,0 79.3135690066349,24.518514554134,0 79.3135667737321,24.5185157239199,0 79.3135646105196,24.518516998613,0 79.3135625228802,24.5185183747468,0 79.3135605164913,24.5185198485789,0 79.3135585968091,24.5185214161013,0 79.3135567690543,24.5185230730511,0 79.3135550381975,24.5185248149223,0 79.3135534089456,24.5185266369778,0 79.3135518857294,24.5185285342626,0 79.3135504726913,24.5185305016171,0 79.313549173674,24.518532533691,0 79.3135479922101,24.5185346249582,0 79.3135469315128,24.5185367697315,0 79.3135459944665,24.5185389621781,0 79.3135451836194,24.5185411963358,0 79.3135423311281,24.5185497998105,0 79.3135143723437,24.5185283859247,0 79.3135123458747,24.5185269147505,0 79.3135102379118,24.5185255427715,0 79.3135080542498,24.518524273759,0 79.3135058008912,24.5185231112016,0 79.3135034840303,24.5185220582949,0 79.3135011100361,24.5185211179333,0 79.3134986854343,24.5185202927018,0 79.3134962168901,24.5185195848688,0 79.3134937111891,24.5185189963801,0 79.3134911752194,24.5185185288535,0 79.3134886159521,24.5185181835741,0 79.3134860404224,24.518517961491,0 79.3134841249862,24.5185178886621,0 79.313484056437,24.5185175684745,0 79.3134830564355,24.5185134684747,0 79.3134824028798,24.5185110938553,0 79.3134816095445,24.518508755153,0 79.3134806787641,24.5185064592498,0 79.3134796132774,24.5185042129013,0 79.3134784162198,24.5185020227175,0 79.3134770911136,24.5184998951432,0 79.3134756418579,24.5184978364389,0 79.3134748120681,24.5184967873821,0 79.313475912865,24.5184610433977,0 79.3134786877035,24.5184593492849,0 79.313480788134,24.5184579932568,0 79.3134828085178,24.5184565389807,0 79.3134847433704,24.5184549904042,0 79.3134865874395,24.518453351731,0 79.3134883357194,24.5184516274094,0 79.3134899834644,24.5184498221201,0 79.3134915262014,24.5184479407637,0 79.3134929597428,24.5184459884471,0 79.3134942801971,24.51844397047,0 79.3134954839799,24.5184418923102,0 79.3134965678235,24.5184397596092,0 79.3134970369343,24.518438694694,0 79.3137409137813,24.5184760910974,0</coordinates></LinearRing></innerBoundaryIs><innerBoundaryIs><LinearRing><coordinates>79.3125093026927,24.518360642756,0 79.3124922190677,24.5183977737211,0 79.3124931007831,24.5183317923487,0 79.3125270351398,24.5183321719196,0 79.3125093026927,24.518360642756,0</coordinates></LinearRing></innerBoundaryIs></Polygon>
  </Placemark>
  
    </Document>
</kml>