<?xml version="1.0" encoding="UTF-8"?>
<kml xmlns="http://www.opengis.net/kml/2.2">
    <Document>
        <Placemark xmlns:ns0="http://www.opengis.net/kml/2.2">
	<Style><LineStyle><color>ff0000ff</color></LineStyle><PolyStyle><fill>0</fill></PolyStyle></Style>
	<ExtendedData><SchemaData schemaUrl="#Wave23_v27MAR2025">
		<SimpleData name="area(ha)">48.843257773023645</SimpleData>
		<SimpleData name="site_id">230011_1.1</SimpleData>
		<SimpleData name="Land_parc">230011</SimpleData>
		<SimpleData name="district">Chhatarpur</SimpleData>
		<SimpleData name="block">Bijawar</SimpleData>
		<SimpleData name="village">Baxoi</SimpleData>
		<SimpleData name="Land Type">Farmer</SimpleData>
		<SimpleData name="Instance">Wave 2023</SimpleData>
	</SchemaData></ExtendedData>
      <Polygon><outerBoundaryIs><LinearRing><coordinates>79.5283561835153,24.6349974430289,0 79.5283523892822,24.6349996563321,0 79.5282282,24.6350721,0 79.5281017314453,24.6351755436492,0 79.5280409,24.6352253,0 79.5279538019058,24.6352930812993,0 79.5279399,24.6353039,0 79.5278545222778,24.6353350805966,0 79.527691,24.6353948,0 79.527656127722,24.635405011833,0 79.5275626,24.6354324,0 79.5275569979267,24.6354342140095,0 79.5275569172516,24.6354410960823,0 79.5275363660994,24.6354408948073,0 79.5273526,24.6355004,0 79.5272594368384,24.6355364424322,0 79.5271789,24.6355676,0 79.5271602140115,24.6355735626958,0 79.5270294734931,24.6356152818912,0 79.5270257062676,24.6356164840077,0 79.5269658,24.6356356,0 79.5269618974602,24.6356367801114,0 79.5268322,24.635676,0 79.5267635880039,24.6356993764208,0 79.526763531301,24.6357042108601,0 79.526749793573,24.6357040762415,0 79.5267101,24.6357176,0 79.5265869,24.6357604,0 79.5265652155161,24.635767329968,0 79.5264914289843,24.6357909107764,0 79.5264886080462,24.6357918122951,0 79.5264245,24.6358123,0 79.5263669284733,24.635827983073,0 79.5262942667041,24.6358477768449,0 79.526267823949,24.6358549800978,0 79.5262527,24.6358591,0 79.5261499,24.6358994,0 79.526042,24.6357475,0 79.5260199858602,24.635696922912,0 79.5259983,24.6356471,0 79.5259514,24.6354708,0 79.5258098,24.6354814,0 79.5256083,24.6355523,0 79.5254434,24.6355912,0 79.5252819794013,24.6356818069258,0 79.5252818869101,24.6356896847111,0 79.5252682062816,24.6356895505172,0 79.5249971,24.6358422,0 79.524889,24.6359171,0 79.5248840549858,24.635918008514,0 79.5247649,24.6359399,0 79.5246977,24.6357574,0 79.5244375,24.6358288,0 79.5243908312024,24.6358571325091,0 79.5243907795117,24.6358615324835,0 79.5243836981254,24.6358614629796,0 79.5242825,24.6359229,0 79.5241314,24.635985,0 79.5239953,24.6360177,0 79.5237905,24.6360941,0 79.523624,24.6361675,0 79.5234350248828,24.6362133311904,0 79.5234133,24.6362186,0 79.5233986895131,24.6362198839422,0 79.5231914,24.6362381,0 79.5230175,24.6362798,0 79.5229038595553,24.6362955670962,0 79.5229038261378,24.636298408711,0 79.5228847309165,24.6362982210992,0 79.522882,24.6362986,0 79.5228047721605,24.6363210210237,0 79.5226836,24.6363562,0 79.5225861,24.6363803,0 79.5225674425051,24.6363853989521,0 79.5225652225319,24.6363860056538,0 79.5225074578811,24.6364017922768,0 79.5224412,24.6364199,0 79.5222959,24.6364571,0 79.5222103100112,24.636468389305,0 79.5222102653638,24.6364721840296,0 79.5221835324408,24.6364719212514,0 79.5221564,24.6364755,0 79.5222086585568,24.6366087512119,0 79.5222206,24.6366392,0 79.5222255100769,24.6366529250319,0 79.5222714,24.6367812,0 79.5223045713575,24.6368531590596,0 79.5223281,24.6369042,0 79.5223408352449,24.6369249453208,0 79.5223785,24.6369863,0 79.5223943130452,24.6370157665173,0 79.5224012938103,24.637028774686,0 79.5224444,24.6371091,0 79.5224832,24.6372101,0 79.5224973602291,24.6372601797125,0 79.5225255,24.6373597,0 79.5225789,24.6374782,0 79.5226103,24.6375915,0 79.5226518,24.6376963,0 79.5226617879078,24.6377407598143,0 79.5226775,24.6378107,0 79.5226880228404,24.6378480668543,0 79.5227216,24.6379673,0 79.5227634140673,24.6381029407657,0 79.5227667,24.6381136,0 79.5227817914258,24.6381934169224,0 79.5227827500077,24.6381934263418,0 79.5227826939728,24.6381981903931,0 79.5227982,24.6382802,0 79.5227990310836,24.6382838818976,0 79.5228326,24.6384326,0 79.5228544,24.6385187,0 79.5228770271963,24.6385770845557,0 79.5228899,24.6386103,0 79.5229237,24.6387403,0 79.5229768,24.6388468,0 79.5229387407858,24.6389173236672,0 79.5229251,24.6389426,0 79.5228128,24.6391345,0 79.5227707745258,24.6392115467099,0 79.5227654,24.6392214,0 79.5227423652551,24.6392765762894,0 79.5227095,24.6393553,0 79.5227774,24.6393949,0 79.5229789,24.6394312,0 79.523061793356,24.6394603060899,0 79.5230642197388,24.6394603299288,0 79.5230642096715,24.6394611859502,0 79.5232097,24.6395168,0 79.5233594088236,24.6395609009824,0 79.5233757,24.6395657,0 79.5235563,24.6396055,0 79.5236549535851,24.6396312588284,0 79.5237049,24.6396443,0 79.5237118583034,24.6396472826614,0 79.5238516423178,24.639707200674,0 79.5238941,24.6397254,0 79.5239291354373,24.6397397118854,0 79.5240777,24.6398004,0 79.524205,24.6398411,0 79.5242951,24.6399471,0 79.524284,24.6399654,0 79.5244116729147,24.6400153360319,0 79.524440633284,24.6400266631278,0 79.5245972,24.6400879,0 79.5246373024339,24.6401043678185,0 79.5248227,24.6401805,0 79.5248339351668,24.6401851941558,0 79.5248686169308,24.6401996845079,0 79.5248703998778,24.6402004294389,0 79.5249322438666,24.6402262683834,0 79.5250417,24.640272,0 79.5250934785488,24.6402929139701,0 79.5251288756246,24.640307211255,0 79.5251593,24.6403195,0 79.5252272288963,24.6403445070058,0 79.5253300797779,24.6403823699413,0 79.5253389011231,24.6403856173766,0 79.5253796,24.6404006,0 79.5254239682152,24.6404163227437,0 79.525565,24.6404663,0 79.5255982604395,24.6404784570908,0 79.5257929,24.6405496,0 79.525919,24.640592,0 79.5260142386284,24.640627420656,0 79.5261013,24.6406598,0 79.5261126067374,24.6406634977798,0 79.5263291,24.6407343,0 79.5264003021198,24.6407572085443,0 79.5264078809382,24.6407572828396,0 79.5264078533009,24.6407596380561,0 79.5265062734001,24.640791303629,0 79.5265246,24.6407972,0 79.5266299,24.640836,0 79.5266783682046,24.6408502298291,0 79.5267031625836,24.6408504728423,0 79.5267030803144,24.6408574850752,0 79.526853,24.6409015,0 79.5270115916669,24.6409437911124,0 79.5270135,24.6409443,0 79.5271955305747,24.6409861028912,0 79.5273083,24.641012,0 79.5274446280107,24.6410383294914,0 79.5275413,24.641057,0 79.5277012,24.6410934,0 79.5278535,24.6411264,0 79.5278848269156,24.6411329367901,0 79.5278853522493,24.6411329419348,0 79.5278853510275,24.6411330461531,0 79.528082452939,24.6411741740024,0 79.5281698,24.6411924,0 79.5283577548439,24.6412278632477,0 79.5283781975056,24.6412280633832,0 79.5283781547439,24.6412317122778,0 79.5284613,24.6412474,0 79.5285752911677,24.6412699240767,0 79.5286738550963,24.6412893997338,0 79.5286941,24.6412934,0 79.5287724820033,24.6413035028084,0 79.5288547,24.6413141,0 79.5289078675248,24.6413235436316,0 79.5289534217186,24.6413316349652,0 79.5289697028825,24.6413345268211,0 79.5290682899477,24.6413520377887,0 79.5291331261642,24.6413635539159,0 79.5291668770439,24.6413695486929,0 79.5291773,24.6413714,0 79.5292654290756,24.6413900560447,0 79.5293639769941,24.6414109175874,0 79.5293809,24.6414145,0 79.5294116777343,24.6414187690513,0 79.5295323,24.6414355,0 79.5297462,24.6414754,0 79.5298570553034,24.6414863389953,0 79.5299464806527,24.6414951632619,0 79.5299557336397,24.64149607632,0 79.5300411,24.6415045,0 79.5301396616721,24.6415161850313,0 79.530153081409,24.641516316254,0 79.5301530643461,24.6415177739873,0 79.5303262,24.6415383,0 79.5304490817376,24.6415485104133,0 79.5305024508588,24.6415529448957,0 79.5305477781667,24.6415567111623,0 79.5305669,24.6415583,0 79.5307452949583,24.6415625244634,0 79.5307696,24.6415631,0 79.5308263,24.6415532,0 79.5308314,24.6415381,0 79.5308626,24.6415338,0 79.53083,24.6415167,0 79.5309068,24.6415198,0 79.5309367,24.6415236,0 79.5309433437769,24.6415228633478,0 79.5309845,24.6415183,0 79.531047420246,24.6415250586998,0 79.5313384544107,24.6415279025035,0 79.5313384073819,24.6415319235428,0 79.531353,24.6415322,0 79.5314818,24.6415356,0 79.5315359704909,24.6415337798179,0 79.5315360166497,24.641529832637,0 79.5316269921159,24.6415307213571,0 79.5316931,24.6415285,0 79.5318908,24.641523,0 79.5320300430176,24.6415243335836,0 79.5322145,24.6415261,0 79.5323263784524,24.6415279130888,0 79.5324204153516,24.641529436975,0 79.532425152178,24.6415295137347,0 79.5325107,24.6415309,0 79.5325239348473,24.6415303495134,0 79.5327415,24.6415213,0 79.5327241546715,24.641360843369,0 79.5327235004154,24.6413608369828,0 79.5327235641685,24.6413553807905,0 79.5327068,24.6412003,0 79.5326994,24.640966,0 79.5327081,24.6406539,0 79.5326678,24.6404694,0 79.5326462,24.640228,0 79.5326392760118,24.6401861693533,0 79.5326384341427,24.6401861611355,0 79.5326384895632,24.6401814180936,0 79.5325955,24.6399217,0 79.5324718,24.6396415,0 79.5324531,24.6395849,0 79.5323889,24.639417,0 79.5322704,24.6392742,0 79.5322541571209,24.6392545208575,0 79.5322138610204,24.6392056998799,0 79.5321997673809,24.639188624637,0 79.5321631,24.6391442,0 79.5321567272341,24.6391380969359,0 79.5321201827842,24.6391030990675,0 79.5321143306527,24.6390974945989,0 79.5321084052664,24.6390918199749,0 79.5320590303061,24.6390445345347,0 79.5320355,24.639022,0 79.5320185972373,24.6390062639675,0 79.5319613106182,24.6389529315727,0 79.5319205785012,24.6389150109613,0 79.5319196,24.6389141,0 79.5318637279608,24.638849618753,0 79.531856,24.6388407,0 79.5318458397946,24.6388239852554,0 79.5317906249535,24.638733150198,0 79.5317771,24.6387109,0 79.5317666939144,24.6386993925534,0 79.5317148981521,24.6386421147821,0 79.5316691646742,24.6385915408646,0 79.5316675,24.6385897,0 79.5316502882848,24.6385511879157,0 79.531553,24.6383335,0 79.5315534760746,24.638189059058,0 79.5315535,24.6381818,0 79.5315319,24.6379634,0 79.5315301506325,24.6379179437916,0 79.5315255,24.6377971,0 79.5313840629501,24.6376278807483,0 79.5313463,24.6375827,0 79.531320022057,24.6375547078724,0 79.5313181677743,24.637552732629,0 79.531286546299,24.6375190483721,0 79.5312368403056,24.637466099831,0 79.531234471284,24.6374635762658,0 79.531216,24.6374439,0 79.5311890583633,24.6374077748196,0 79.5311628108386,24.6373725803281,0 79.531101,24.6372897,0 79.5310916494101,24.6372897624919,0 79.5310301890659,24.6372901732295,0 79.530992852631,24.6372904227355,0 79.5308466,24.6372914,0 79.5307958,24.6372799,0 79.5307953999926,24.6372796968986,0 79.5306120595402,24.6371866066984,0 79.5305989125032,24.6371864781991,0 79.530598988644,24.6371799700025,0 79.5305634,24.6371619,0 79.5305008666939,24.6371229608406,0 79.5303082928449,24.637003045814,0 79.5303046924773,24.637003010617,0 79.5303047181126,24.637000819837,0 79.5302867,24.6369896,0 79.5302079981391,24.6368240295669,0 79.530206777586,24.6368214618031,0 79.5301690335512,24.6367420569584,0 79.5300453594757,24.6368198836027,0 79.5300102104639,24.6368420024261,0 79.5300102104639,24.6368420024261,0 79.5299106887643,24.6369046300686,0 79.5299106392305,24.6369088620748,0 79.5299040658135,24.6369087977961,0 79.5297627719551,24.6369977118463,0 79.5297261589924,24.6370207517767,0 79.529711645073,24.6370298851406,0 79.5296214779006,24.6370866257533,0 79.5296208233131,24.6370870376733,0 79.5296121230813,24.63709251257,0 79.5296040748406,24.6370975771798,0 79.5295881228035,24.637086299519,0 79.5295837390252,24.6370832003051,0 79.5295140203177,24.6370339110089,0 79.5294586094945,24.6369947369618,0 79.5294302413912,24.6369746814152,0 79.52941626566,24.6369455863741,0 79.5294013829622,24.636914603171,0 79.5293962084871,24.636903830805,0 79.5293170611577,24.6367390594572,0 79.5293090524689,24.6367223866971,0 79.5292805514764,24.6366630523273,0 79.5291888060448,24.6366016042464,0 79.5291229,24.6365477,0 79.5290256785389,24.6365555595305,0 79.5289089,24.636565,0 79.5288592967843,24.6365373947829,0 79.5286789,24.636437,0 79.5286367870304,24.6363546257648,0 79.5286328791654,24.636354587519,0 79.5286329662655,24.6363471522282,0 79.5285902,24.6362635,0 79.5285387,24.636145,0 79.5284907240153,24.6359920132038,0 79.5284725,24.6359339,0 79.5284882,24.6359076,0 79.5284684,24.6355907,0 79.5284696081478,24.6355403277678,0 79.5284733,24.6353864,0 79.5284741814085,24.6351791895046,0 79.5284744,24.6351278,0 79.5284562,24.6349391,0 79.5283561835153,24.6349974430289,0</coordinates></LinearRing></outerBoundaryIs></Polygon>
  </Placemark>
  
    </Document>
</kml>