<?xml version="1.0" encoding="UTF-8"?>
<kml xmlns="http://www.opengis.net/kml/2.2">
    <Document>
        <Placemark xmlns:ns0="http://www.opengis.net/kml/2.2">
	<Style><LineStyle><color>ff0000ff</color></LineStyle><PolyStyle><fill>0</fill></PolyStyle></Style>
	<ExtendedData><SchemaData schemaUrl="#Wave23_v27MAR2025">
		<SimpleData name="area(ha)">0.678515503198569</SimpleData>
		<SimpleData name="site_id">230041_1.1</SimpleData>
		<SimpleData name="Land_parc">230041</SimpleData>
		<SimpleData name="district">Chhatarpur</SimpleData>
		<SimpleData name="block">Bijawar</SimpleData>
		<SimpleData name="village">Patna</SimpleData>
		<SimpleData name="Land Type">Farmer</SimpleData>
		<SimpleData name="Instance">Wave 2023</SimpleData>
	</SchemaData></ExtendedData>
      <Polygon><outerBoundaryIs><LinearRing><coordinates>79.7809822531613,24.4061721107927,0 79.7809974848465,24.4061641018813,0 79.7811232,24.406098,0 79.7812922,24.4060439,0 79.7814872,24.4059337,0 79.7816538501376,24.4058828068644,0 79.7815451606486,24.4056783974065,0 79.7814813646442,24.405585875122,0 79.7814081173799,24.4054739876176,0 79.7812947022609,24.405325521353,0 79.7811097,24.4054218,0 79.7809807,24.4055102,0 79.7808653,24.4055824,0 79.7808054002171,24.4056283098652,0 79.7808053949379,24.4056288596158,0 79.7808046903456,24.405628853942,0 79.7807604,24.4056628,0 79.7806261,24.4057223,0 79.78052,24.4058079,0 79.7804087778513,24.4058536201137,0 79.7803845,24.4058636,0 79.7804085251922,24.4058799219854,0 79.7804325719451,24.4058962586105,0 79.7804333344016,24.4058967765999,0 79.7804606,24.4059153,0 79.7805061416474,24.4059838472787,0 79.7805085637437,24.405987492909,0 79.7805086934373,24.4059876881179,0 79.7805673,24.4060759,0 79.7806034828098,24.4061164513566,0 79.7806435,24.4061613,0 79.7806542857195,24.4061694697664,0 79.7807985111155,24.4062787147682,0 79.7809367,24.4061952,0 79.7809372,24.4061958,0 79.7809822531613,24.4061721107927,0</coordinates></LinearRing></outerBoundaryIs></Polygon>
  </Placemark>
  
    </Document>
</kml>