<?xml version="1.0" encoding="UTF-8"?>
<kml xmlns="http://www.opengis.net/kml/2.2">
    <Document>
        <Placemark xmlns:ns0="http://www.opengis.net/kml/2.2">
	<Style><LineStyle><color>ff0000ff</color></LineStyle><PolyStyle><fill>0</fill></PolyStyle></Style>
	<ExtendedData><SchemaData schemaUrl="#Wave23_v27MAR2025">
		<SimpleData name="area(ha)">1.681913253261706</SimpleData>
		<SimpleData name="site_id">230082_1.1</SimpleData>
		<SimpleData name="Land_parc">230082</SimpleData>
		<SimpleData name="district">Panna</SimpleData>
		<SimpleData name="block">Shahnagar</SimpleData>
		<SimpleData name="village">Badagaon</SimpleData>
		<SimpleData name="Land Type">Farmer</SimpleData>
		<SimpleData name="Instance">Wave 2023</SimpleData>
	</SchemaData></ExtendedData>
      <Polygon><outerBoundaryIs><LinearRing><coordinates>79.9057883,23.9322684000001,0 79.905791,23.9322464000001,0 79.9057915,23.9321273999999,0 79.9058293,23.9320788,0 79.9058296,23.932072,0 79.9058197000001,23.9320562,0 79.9058106,23.9320373,0 79.9057939,23.9320057,0 79.905793,23.9319448,0 79.9058030972171,23.9319320299902,0 79.905757542561,23.9317839773578,0 79.9057348510271,23.9315576350755,0 79.9057323000001,23.9315445000001,0 79.9057245,23.9315145,0 79.90572,23.9314826000001,0 79.9057128000001,23.9314602,0 79.9057042000001,23.9314310000001,0 79.9056927,23.9314099000001,0 79.9056874999999,23.9313733999999,0 79.9056744000001,23.9313432000001,0 79.9056611000001,23.9313121,0 79.9056622,23.9312799,0 79.905669,23.9311837000001,0 79.9056729,23.9311531,0 79.9056724000001,23.9311293,0 79.9056701000001,23.9310775,0 79.9056617355594,23.9310499265238,0 79.9056521399123,23.9310493267959,0 79.9056374000001,23.9310559,0 79.9054743000001,23.931121,0 79.9054452,23.9311169000001,0 79.9053758000001,23.9311131000001,0 79.905377,23.9311099,0 79.9053686,23.9311107,0 79.9053539000001,23.9311076,0 79.9053326000001,23.9311123,0 79.9052967000001,23.9311018,0 79.9052311,23.9310991,0 79.9051434,23.9311041,0 79.9050719,23.9311327000001,0 79.9050560000001,23.9311607000001,0 79.9050229000001,23.9311669000001,0 79.9049529999999,23.9311721,0 79.9049415000001,23.9311689999999,0 79.9048054,23.9311798000001,0 79.9047391,23.9311571,0 79.9045811104706,23.9315849231321,0 79.9046698591464,23.9315570306911,0 79.9048635941057,23.9315639497967,0 79.9048794747437,23.9315776247905,0 79.9049092602033,23.931566717439,0 79.9049618454065,23.9315777880081,0 79.9049812189025,23.9316732716666,0 79.9050683996342,23.9316691202033,0 79.9050850054877,23.9317479980082,0 79.9050255011789,23.931786745,0 79.9049978247561,23.9317964317481,0 79.9050822378456,23.9319777123171,0 79.9050280999999,23.9319996,0 79.9045825,23.9321244000001,0 79.9044377999999,23.9322692,0 79.9043168905862,23.9325346664136,0 79.9043197523984,23.9326198053252,0 79.9043501964634,23.9326862287399,0 79.9043903272764,23.9326723905284,0 79.9045048365203,23.9326488150959,0 79.9045173133194,23.9326462463431,0 79.9046726267887,23.9326142700406,0 79.9047437207817,23.9326301726531,0 79.9048474195426,23.9326309118495,0 79.905007511504,23.9325838259756,0 79.9051597318293,23.9325755230487,0 79.9052718213416,23.932538159878,0 79.9053839108536,23.932496645244,0 79.9055527682101,23.9324584513577,0 79.9055527946701,23.9324553130332,0 79.9055662200827,23.9324554086664,0 79.905616392805,23.9324440600407,0 79.9057448928195,23.9324161925676,0 79.9057825,23.9323692000001,0 79.9057473000001,23.9323404,0 79.9057883,23.9322684000001,0</coordinates></LinearRing></outerBoundaryIs></Polygon>
  </Placemark>
  
    </Document>
</kml>