<?xml version="1.0" encoding="UTF-8"?>
<kml xmlns="http://www.opengis.net/kml/2.2">
    <Document>
        <Placemark xmlns:ns0="http://www.opengis.net/kml/2.2">
	<Style><LineStyle><color>ff0000ff</color></LineStyle><PolyStyle><fill>0</fill></PolyStyle></Style>
	<ExtendedData><SchemaData schemaUrl="#Wave23_v27MAR2025">
		<SimpleData name="area(ha)">5.402061344305180</SimpleData>
		<SimpleData name="site_id">230066_1.2</SimpleData>
		<SimpleData name="Land_parc">230066</SimpleData>
		<SimpleData name="district">Chhatarpur</SimpleData>
		<SimpleData name="block">Bada Malahara</SimpleData>
		<SimpleData name="village">Manikhera</SimpleData>
		<SimpleData name="Land Type">Community</SimpleData>
		<SimpleData name="Instance">Wave 2023</SimpleData>
	</SchemaData></ExtendedData>
      <Polygon><outerBoundaryIs><LinearRing><coordinates>79.2030105634747,24.580668628181,0 79.2031136734517,24.5806745768335,0 79.2033436880155,24.5806646624127,0 79.2035558566219,24.5806547479919,0 79.2037620765757,24.5806428506868,0 79.2037957856067,24.5806706110652,0 79.2040218344022,24.5807182002853,0 79.2043093526071,24.580726131822,0 79.2044283256574,24.5807201831695,0 79.2046464429162,24.5806527651077,0 79.2048467142176,24.5805932785825,0 79.2049736188045,24.5805774155091,0 79.205025372845,24.5805680828263,0 79.2050254411413,24.5805632919947,0 79.2050502970717,24.580563588293,0 79.205094574739,24.5805556037833,0 79.2052036333684,24.5805218947523,0 79.2052888973878,24.5805080145631,0 79.2053228004424,24.5804820827926,0 79.2053228792944,24.5804765505615,0 79.2053299234824,24.5804766345189,0 79.2053929265961,24.5804284446352,0 79.2054118362065,24.5802978288409,0 79.2054316650481,24.5802343765474,0 79.2054118362065,24.5801967017482,0 79.2053245893029,24.5800995404238,0 79.2052571696899,24.5800200620401,0 79.2052310903395,24.5799893180653,0 79.2052124445204,24.5799673371923,0 79.2051680262661,24.5799289909018,0 79.2051336399313,24.5798993051459,0 79.2050666689719,24.5798414889916,0 79.2050595,24.5798353000002,0 79.2050359674581,24.5798248799362,0 79.2048641219624,24.579748787654,0 79.2048397395006,24.5797379912053,0 79.2046888999999,24.5796712000001,0 79.2045307,24.5795787000001,0 79.2044962406117,24.5795638279213,0 79.2043494601702,24.5795004798847,0 79.2043078000001,24.5794825000002,0 79.2042772137018,24.5794704767884,0 79.2042513002449,24.579460290424,0 79.2041347479437,24.5794144746098,0 79.2039484676878,24.5793916507746,0 79.2037907312627,24.5793496340647,0 79.2037057,24.5793443000001,0 79.2036890293606,24.5793458358875,0 79.2034864556759,24.5793896678904,0 79.2033040303322,24.5794253598055,0 79.2031414338301,24.5795165724774,0 79.2029689229071,24.5796315797593,0 79.2029652903,24.579634119063,0 79.2029652655722,24.5796358517434,0 79.2029628528012,24.5796358229492,0 79.2027646858375,24.5797743474196,0 79.2026873533548,24.5798754745124,0 79.2025069108952,24.5799607385317,0 79.2024667390521,24.5799763609542,0 79.2024300962596,24.5799906109517,0 79.2023674544546,24.5800149716634,0 79.2022570674895,24.5800578998562,0 79.202019121389,24.5801391981072,0 79.201970651963,24.5801458507996,0 79.2018717245675,24.5801594290719,0 79.2018716519131,24.5801645167579,0 79.2018376180874,24.5801641103383,0 79.2018168672035,24.5801669584857,0 79.2016998770373,24.5801907530957,0 79.2015253832302,24.5802185134741,0 79.2013528723073,24.5802185134741,0 79.2011902758052,24.5802125648215,0 79.2010911315967,24.5802046332848,0 79.2010867849226,24.5801976557324,0 79.2010514739133,24.5802125648215,0 79.2008690485695,24.5802145477057,0 79.2007033000001,24.5801423,0 79.2004026900688,24.5800763720107,0 79.2001413300786,24.5800816944662,0 79.1999430416614,24.5800797115821,0 79.1998141541902,24.5800598827404,0 79.1997090613292,24.5800519512037,0 79.1996484451336,24.5800476652376,0 79.1996024608839,24.5800471154312,0 79.1996024994734,24.580044416559,0 79.1995127557962,24.5800380710145,0 79.1995038110294,24.5800412776329,0 79.1995037444317,24.5800459350895,0 79.1994912363872,24.5800457855276,0 79.1994076629351,24.5800757458137,0 79.1994045731328,24.5800765626601,0 79.1992351520121,24.5801213521497,0 79.1989515995756,24.5801273008022,0 79.1987731400002,24.5800935917713,0 79.1986283894557,24.5800955746554,0 79.1986059883337,24.5800658738005,0 79.1985592,24.5800682,0 79.1985161614952,24.5800633976832,0 79.1985010231742,24.580061708518,0 79.1984244891128,24.5801241063502,0 79.1983341,24.5801978000001,0 79.1983331731826,24.5802125069445,0 79.1983328752986,24.5802172338329,0 79.1983785460501,24.5802542053892,0 79.1984995019845,24.5803275721036,0 79.1985198863381,24.5803359954106,0 79.1987394309693,24.5804267163121,0 79.1990408293633,24.5804901686056,0 79.19910222983,24.5805060872932,0 79.1993085187265,24.5805595695516,0 79.1993699881358,24.5805595695516,0 79.199562227229,24.5805883541337,0 79.1995947163769,24.5805887426037,0 79.1995946525092,24.5805932092507,0 79.1996931753465,24.5806079612728,0 79.1996934332595,24.5805899229101,0 79.2006806024321,24.5806017224183,0 79.2009763844713,24.5806310756349,0 79.2011109604384,24.5805793983933,0 79.2011012257988,24.5806067481098,0 79.2011741872543,24.5806076197482,0 79.201272592483,24.5806306221923,0 79.2013484000002,24.5806263,0 79.2013713611044,24.5806281881205,0 79.2014578462182,24.5806352998683,0 79.2014700968442,24.5806280560246,0 79.2014703382232,24.5806111573704,0 79.2014981143825,24.580611489136,0 79.2015590922612,24.5805754326249,0 79.2019715321689,24.5806012101192,0 79.2022866589466,24.5806209055784,0 79.2023514135103,24.5806216786646,0 79.2023924960184,24.5806198924921,0 79.2025941577987,24.5806111245401,0 79.2026550581089,24.5806172145912,0 79.2027469101868,24.5806263997819,0 79.2028523768261,24.5806276585813,0 79.2028521572944,24.5806430395453,0 79.2030105634747,24.580668628181,0</coordinates></LinearRing></outerBoundaryIs></Polygon>
  </Placemark>
  
    </Document>
</kml>