<?xml version="1.0" encoding="UTF-8"?>
<kml xmlns="http://www.opengis.net/kml/2.2">
    <Document>
        <Placemark xmlns:ns0="http://www.opengis.net/kml/2.2">
	<Style><LineStyle><color>ff0000ff</color></LineStyle><PolyStyle><fill>0</fill></PolyStyle></Style>
	<ExtendedData><SchemaData schemaUrl="#Wave23_v27MAR2025">
		<SimpleData name="area(ha)">2.927615355067755</SimpleData>
		<SimpleData name="site_id">230081_1.1</SimpleData>
		<SimpleData name="Land_parc">230081</SimpleData>
		<SimpleData name="district">Panna</SimpleData>
		<SimpleData name="block">Shahnagar</SimpleData>
		<SimpleData name="village">Badagaon</SimpleData>
		<SimpleData name="Land Type">Farmer</SimpleData>
		<SimpleData name="Instance">Wave 2023</SimpleData>
	</SchemaData></ExtendedData>
      <Polygon><outerBoundaryIs><LinearRing><coordinates>79.9086085359756,23.9354191623985,0 79.9085899656505,23.9354799380082,0 79.908632170935,23.9355862953252,0 79.9086220416667,23.9356403180896,0 79.9085718362062,23.9356479493297,0 79.9085134313426,23.9356568268589,0 79.9085162000001,23.9356804000002,0 79.9085262,23.9357042,0 79.9085413540746,23.9357278256274,0 79.9085550000003,23.9357490999999,0 79.9085791000001,23.935787,0 79.9085953000002,23.9358216000001,0 79.9086086000001,23.9358506000002,0 79.9086086000001,23.9358582999999,0 79.9086199999999,23.9358792000002,0 79.9086473349501,23.9358685575073,0 79.9086648000001,23.9358633,0 79.9087200881046,23.9358376513147,0 79.9087383,23.9358149000001,0 79.9087754722826,23.9357986713136,0 79.9088431995665,23.9357939783024,0 79.9088614,23.9357975000003,0 79.9088768143075,23.9357967409896,0 79.9088801241107,23.9357949977415,0 79.9089172,23.9357811,0 79.9089340000002,23.9357718000001,0 79.9089647413601,23.935757361064,0 79.9089938114511,23.9357127676354,0 79.9090013000001,23.9356471000001,0 79.9089977000001,23.9356443,0 79.9089967000001,23.9356426,0 79.9089952000001,23.9356381000001,0 79.9090359000001,23.9356401,0 79.9090451000003,23.9356432000001,0 79.9090713000002,23.9356451000001,0 79.9091249539718,23.9356446692363,0 79.9091551,23.9356454000003,0 79.9091978083136,23.935642536409,0 79.9092188764161,23.9356433800804,0 79.9092414509917,23.935644676134,0 79.9092952126935,23.9356394420748,0 79.9093261415677,23.9356187129799,0 79.9093288000001,23.9356075000002,0 79.9093319000001,23.9355832000003,0 79.9093478,23.9355547,0 79.9093738000001,23.9355488000002,0 79.9093853000001,23.9355233000001,0 79.9093898000001,23.9355059000001,0 79.9093385000001,23.9354354000001,0 79.9093345000001,23.9354156000003,0 79.9093368999999,23.9354044,0 79.90934,23.9354049000003,0 79.9093342,23.9353962000003,0 79.9093106000001,23.9353816,0 79.9093170000001,23.9353652,0 79.9093388000001,23.9353686999999,0 79.9093524000001,23.9353630000002,0 79.9094203000002,23.9353394,0 79.9094432,23.9353288,0 79.9094367,23.9353303999999,0 79.9094334999999,23.9353217999999,0 79.909438,23.9353100000001,0 79.9094962000003,23.9353242,0 79.9095127000001,23.9353185,0 79.9095114,23.9353155000001,0 79.9095018000001,23.9353135,0 79.9094719000001,23.9353092000002,0 79.9094701999999,23.935294,0 79.9094640252988,23.9352828151275,0 79.9094592163422,23.935282780991,0 79.9094592881541,23.9352742342477,0 79.9094474,23.9352526999999,0 79.9094298,23.9352053999999,0 79.9094274090479,23.9351908151934,0 79.9093125201219,23.9351558014228,0 79.9092990144309,23.9350578851626,0 79.9094712119918,23.9349971095528,0 79.9094948469514,23.934975162805,0 79.9094712119918,23.9348485469513,0 79.9093986189024,23.9347556953254,0 79.9093631664635,23.9346780376018,0 79.9094434,23.9345808000001,0 79.9094192,23.9345642,0 79.9094051000003,23.9345414000001,0 79.9094021,23.93454,0 79.9094096000001,23.9345349000001,0 79.9094446000001,23.9345341,0 79.9094497,23.9345293000003,0 79.9094860000002,23.9345007000002,0 79.9094844000002,23.9344692,0 79.9095052,23.9344349,0 79.9094985,23.9343746000001,0 79.9094902,23.9343077000001,0 79.9094238000002,23.9341303000002,0 79.9094041000002,23.9341268,0 79.9093723796293,23.9341081007852,0 79.9093708303601,23.9341080897872,0 79.9093708379043,23.9341071919353,0 79.9093298000003,23.9340830000001,0 79.9092576135436,23.9340877246504,0 79.9092264213416,23.9341968973578,0 79.9090041515127,23.9341639684943,0 79.9089863000001,23.9341804000001,0 79.908949689554,23.9341940632288,0 79.9089394254067,23.9343133839432,0 79.9088448855692,23.9343066310976,0 79.9087916144965,23.9343042877616,0 79.9088042000001,23.9343235999999,0 79.9088117000002,23.9343344999999,0 79.9088277000001,23.9343449,0 79.9088361000001,23.9343512,0 79.9088447000003,23.9343547000001,0 79.9088479,23.9343570000001,0 79.9088556000001,23.9343633000001,0 79.9088021999999,23.9343410000002,0 79.9087487000001,23.9343024,0 79.9086192970291,23.9343101938273,0 79.9086229000002,23.9343205000003,0 79.9086317,23.9343376000001,0 79.9086271,23.9343396000001,0 79.9086162,23.9343437000002,0 79.9085943000001,23.9343453000002,0 79.9085210000003,23.9343426999999,0 79.9085019000001,23.9343503000002,0 79.9084896,23.9343561000002,0 79.908459,23.9343630000001,0 79.908442,23.9343657000001,0 79.9084282000001,23.9343683999999,0 79.9084063,23.93437,0 79.9083989000001,23.9343800000002,0 79.9083995,23.9343864,0 79.9083785,23.9343961000001,0 79.9083734,23.9343991,0 79.9083686999999,23.9344027999999,0 79.9083658000003,23.9343932000002,0 79.9083475000002,23.9343934000002,0 79.9083034,23.9344059000001,0 79.9082606000001,23.9343886000002,0 79.9082472,23.9343813999999,0 79.9082244000001,23.9343628,0 79.9082210000001,23.9343558000001,0 79.9082164000003,23.9343370000002,0 79.9082061,23.9343346,0 79.9081915000001,23.9343217000002,0 79.9081819000001,23.9343121999999,0 79.9081739,23.9343015999999,0 79.9081742000002,23.9342827000002,0 79.9081731999999,23.9342738,0 79.9081798,23.9342647000002,0 79.9081821,23.9342617,0 79.9081817000001,23.9342499000001,0 79.9081811,23.9342451,0 79.9081807,23.9342436999999,0 79.9081820000001,23.9342444000003,0 79.9081852,23.9342445,0 79.9081958000003,23.9342503000001,0 79.9082065000001,23.9342383,0 79.9082270000001,23.9342133000001,0 79.9082348000003,23.9342013000001,0 79.9082465000001,23.9341858000001,0 79.9082539,23.9341292,0 79.9082554000002,23.9341081000001,0 79.9082576000002,23.9340820000001,0 79.9082538,23.9340533000002,0 79.908254,23.9340179000001,0 79.9082445000002,23.9339945000003,0 79.9082472,23.9339644000001,0 79.9082417000001,23.9339215000003,0 79.9082383,23.9338557000002,0 79.9082352000002,23.9338395000001,0 79.9082332000001,23.9338248000002,0 79.9082339000002,23.9338214,0 79.9082297,23.9338215,0 79.9082308000001,23.9338183000003,0 79.9082316000003,23.9338178000002,0 79.9082115000002,23.9338073000002,0 79.9081341000001,23.9338171,0 79.9081105000001,23.9338251000002,0 79.9080958645053,23.9338277522857,0 79.9080958616144,23.9338280959455,0 79.9080940396204,23.9338280829964,0 79.9080647,23.9338334000001,0 79.9080326,23.9338402,0 79.9080093000001,23.9338429,0 79.9079566999999,23.9338359000001,0 79.9078881000003,23.933838,0 79.9078457,23.9338427,0 79.9078216000001,23.9338406999999,0 79.9078045,23.9338307000002,0 79.9077195000002,23.9338027000002,0 79.9076734000001,23.9338176000001,0 79.9076529000002,23.9338337,0 79.9076575000001,23.9338575,0 79.907666,23.9338656000003,0 79.9076782,23.9338820000001,0 79.9076854000001,23.9338862000003,0 79.9076943999999,23.9339078000002,0 79.9077044000001,23.9339342000001,0 79.9077110000001,23.9339583000001,0 79.9077291,23.9340216000002,0 79.9077365000001,23.934047,0 79.9077377,23.9340914000001,0 79.9077345000001,23.9341488000001,0 79.9077379000001,23.9341689,0 79.9077337,23.9341813000001,0 79.9077304000001,23.9342113000001,0 79.9077070000001,23.9342536000001,0 79.9077270831708,23.9343065905343,0 79.9077107000002,23.9343134,0 79.9077044000001,23.9343148000001,0 79.9076896000001,23.9343098,0 79.9076604,23.9343121000003,0 79.9076379,23.9343150000002,0 79.9075706000002,23.9343456000002,0 79.9075552,23.9343535000001,0 79.9075410000002,23.9343662000001,0 79.9075144000001,23.9344106000001,0 79.9074843000001,23.934416,0 79.9074521000002,23.9344303000001,0 79.9074314,23.9344439999999,0 79.9074288,23.9344496000003,0 79.9074202,23.9344582000003,0 79.9074012,23.9344707000002,0 79.9073796,23.9344933000001,0 79.9073629,23.9345012000003,0 79.9073507000003,23.9345140000001,0 79.9073471000002,23.9345403,0 79.9073402000001,23.9345460000001,0 79.9073325,23.9345738000003,0 79.9073289,23.9345853,0 79.9073264,23.9345894000002,0 79.9073096000001,23.9345706,0 79.9072968000003,23.9345980000001,0 79.9072806000001,23.9346542,0 79.9072779000003,23.9346725000001,0 79.9072702,23.9346858000001,0 79.9072869000002,23.9347503000003,0 79.9072935,23.9347856,0 79.9073048,23.9348162000001,0 79.9073187000001,23.9348436000002,0 79.9073300000002,23.9348638000001,0 79.9073558,23.934897,0 79.9073827000001,23.9349128,0 79.9073918000001,23.9349425000002,0 79.9074134000001,23.9349712000001,0 79.9074204,23.9349953999999,0 79.907436,23.9350270000001,0 79.9074482,23.9350574000001,0 79.9074537000001,23.9350665000002,0 79.9074568,23.9350698,0 79.9074604000001,23.9350715000002,0 79.9074671000001,23.9350780000001,0 79.9074718,23.9351106000001,0 79.9074758,23.9351289,0 79.9074769000003,23.9351348000001,0 79.9074759,23.9351724000002,0 79.9074719,23.9351953000001,0 79.9074657,23.9352324,0 79.9074395,23.9352628000001,0 79.9074213000003,23.9353118,0 79.9074013000002,23.9353351,0 79.9073727,23.9353552000002,0 79.9073475,23.9353582,0 79.9073249000001,23.9353550000003,0 79.9073146000001,23.9353566,0 79.9072782000001,23.9353599000001,0 79.9072579,23.9353650000001,0 79.9072506,23.9353659000003,0 79.9072470000002,23.9353783000002,0 79.9072513,23.9353578000001,0 79.9072510883688,23.9353574031915,0 79.9072390728734,23.9353573177257,0 79.9072150000001,23.9353818000001,0 79.9071896000001,23.9353655,0 79.9072603000002,23.9354842000001,0 79.9072822000003,23.9355172000002,0 79.9073036000001,23.9355403000001,0 79.9073258,23.9355682000001,0 79.9073525000001,23.9355895000001,0 79.9073716000001,23.9356108000001,0 79.9073900000003,23.9356240000001,0 79.9073920682521,23.9356275145821,0 79.9074470465447,23.9356133067074,0 79.9076682022358,23.935554219309,0 79.907688366028,23.9355479598188,0 79.907688423437,23.9355411384125,0 79.9077098491884,23.9355412907507,0 79.9077238799101,23.9355369351587,0 79.9079839082718,23.9354562136156,0 79.9079839359269,23.9354529266985,0 79.9079942599886,23.9354530000834,0 79.9080487000001,23.9354361000001,0 79.9080700000001,23.935425,0 79.9080825075117,23.9354154985867,0 79.9080906740184,23.9354092948449,0 79.9080851904472,23.9353870863821,0 79.9081654690632,23.9353639043965,0 79.9084008859756,23.9352959229678,0 79.9083856920733,23.9351980067074,0 79.9083840068592,23.9350042070968,0 79.908380736937,23.9350041838625,0 79.9083807850819,23.93499845945,0 79.9083367339431,23.9349245164634,0 79.9082708936993,23.9347911477642,0 79.90829621687,23.9347607599594,0 79.9086996993904,23.9347219310977,0 79.9087520339434,23.9349886684959,0 79.9087553214916,23.935097157596,0 79.9088244026646,23.9350976482694,0 79.908946178252,23.9350933376017,0 79.9089917599595,23.9353381282519,0 79.9089343607726,23.9353381282519,0 79.9088989083335,23.9352250180895,0 79.9087537221546,23.9352334591464,0 79.9086946347561,23.9352672233742,0 79.9087013876017,23.9354005920734,0 79.9086085359756,23.9354191623985,0</coordinates></LinearRing></outerBoundaryIs></Polygon>
  </Placemark>
  
    </Document>
</kml>