<?xml version="1.0" encoding="UTF-8"?>
<kml xmlns="http://www.opengis.net/kml/2.2">
    <Document>
        <Placemark xmlns:ns0="http://www.opengis.net/kml/2.2">
	<Style><LineStyle><color>ff0000ff</color></LineStyle><PolyStyle><fill>0</fill></PolyStyle></Style>
	<ExtendedData><SchemaData schemaUrl="#Wave23_v27MAR2025">
		<SimpleData name="area(ha)">5.425973980804156</SimpleData>
		<SimpleData name="site_id">230083_1.1</SimpleData>
		<SimpleData name="Land_parc">230083</SimpleData>
		<SimpleData name="district">Panna</SimpleData>
		<SimpleData name="block">Shahnagar</SimpleData>
		<SimpleData name="village">Hardua</SimpleData>
		<SimpleData name="Land Type">Farmer</SimpleData>
		<SimpleData name="Instance">Wave 2023</SimpleData>
	</SchemaData></ExtendedData>
      <Polygon><outerBoundaryIs><LinearRing><coordinates>79.9981914,24.0172992000002,0 79.9981500999999,24.0173107000001,0 79.998141116552,24.01731611827,0 79.9981055,24.0173376000001,0 79.9980904000001,24.0173574,0 79.9980659000001,24.0173967000001,0 79.9980395000001,24.0174109,0 79.9980126000001,24.0174366999999,0 79.9979906000001,24.0174591000001,0 79.9979704,24.0174869000001,0 79.9979491,24.0174978000001,0 79.9979218000001,24.0175008,0 79.9978423000001,24.0175000000001,0 79.9977976000001,24.0174963000001,0 79.9977464906296,24.0174893599536,0 79.9977107,24.0174845,0 79.9976797000001,24.0174868,0 79.9976387000001,24.0174813,0 79.9976033,24.0174795,0 79.9976183,24.0174524000001,0 79.9975982000001,24.0174739000001,0 79.9975822,24.0174835,0 79.9975165000001,24.0175842000001,0 79.9975133064056,24.0176166198226,0 79.9975132,24.0176177,0 79.9975125,24.0176405,0 79.9975137843833,24.0176451086696,0 79.9975485687797,24.0176544624608,0 79.9975936703658,24.0176665906098,0 79.9976460191218,24.0177078013583,0 79.9976464762347,24.0177078043484,0 79.9976464734849,24.0177081590484,0 79.9977081172765,24.0177566871139,0 79.9977304832366,24.017799960447,0 79.9977438819267,24.017825884022,0 79.9978201291463,24.0179734057317,0 79.9978358411175,24.0180702963973,0 79.9978455434757,24.0181301276506,0 79.997878570122,24.018333791748,0 79.9978984839975,24.0186125862659,0 79.9979102256504,24.0187769691464,0 79.997910502302,24.0187932915849,0 79.9979120332072,24.018883614956,0 79.9979175307723,24.0192079713415,0 79.9979271649758,24.0193352806968,0 79.997928825112,24.0193352915538,0 79.9979286709465,24.0193551810448,0 79.9979516213416,24.0196584538618,0 79.9980244863678,24.0196786318929,0 79.9980930505558,24.0196976188841,0 79.9981098989837,24.0197022845935,0 79.9982204985879,24.0197603040804,0 79.9982584364635,24.0197802058944,0 79.998272816108,24.0197891075823,0 79.998309572317,24.0198118614228,0 79.9985409011789,24.0198142964635,0 79.9985920370325,24.0198386468699,0 79.998810175764,24.0197936870584,0 79.9988101840298,24.0197926197517,0 79.9988151952975,24.0197926524959,0 79.9989110273578,24.0197729007724,0 79.9990863502846,24.0196998495529,0 79.9991059580459,24.0196885062521,0 79.9992047229366,24.019631369631,0 79.9993809902032,24.0195293967074,0 79.9994023112759,24.019509497075,0 79.99948132596,24.0194357500862,0 79.9995013490765,24.0194170618362,0 79.9995636182521,24.0193589438618,0 79.9995702734361,24.019346017474,0 79.9995793035266,24.0193284782918,0 79.9996616095822,24.0191686146433,0 79.999690240366,24.0191130047562,0 79.9997584215042,24.0190569988211,0 79.9997989373179,24.0190782696357,0 79.9998558231302,24.019108134675,0 79.9998815714277,24.0191140765898,0 79.9998884000001,24.0190971000002,0 79.9999129000001,24.0190809000001,0 79.9999399000001,24.0190716000001,0 79.9999650000001,24.0190447,0 79.9999909,24.0190344000001,0 80.0000187,24.0190254,0 80.0000362000001,24.0190266000001,0 80.0000468,24.0190290000001,0 80.0000803,24.019037,0 80.0000964000001,24.0190337,0 80.000128,24.0190385,0 80.0001492,24.0190322,0 80.0001846,24.0190291999999,0 80.0002289,24.0190164000002,0 80.0002373,24.019015,0 80.0002551241615,24.0189892337845,0 80.0002667000001,24.0189725000001,0 80.0002668000002,24.0189595,0 80.0002579000001,24.0189363000001,0 80.0002633,24.0189073,0 80.0002665000001,24.0188752,0 80.0002778000001,24.0188469000002,0 80.0002809,24.0188168999999,0 80.0002773000001,24.0187928000001,0 80.0002831000001,24.0187616,0 80.0002901000001,24.0187384,0 80.0003098,24.0187047000001,0 80.000319,24.0186747000001,0 80.000326,24.0186503000001,0 80.0003266000001,24.0186302000002,0 80.0003243921137,24.0186284320915,0 80.0002990000001,24.0186081000002,0 80.0002862000001,24.0185871,0 80.0002583000001,24.0185483999999,0 80.0002407000001,24.0185228999999,0 80.0002227,24.0185016,0 80.0002046000001,24.0184787000001,0 80.0001886000001,24.0184596,0 80.0001475000001,24.0184410000001,0 80.0001162000001,24.0184439,0 80.0001033000001,24.0184337,0 80.0000988795044,24.0184349120721,0 80.0000599000001,24.0184456,0 80.000027,24.0184333,0 80.0000006835864,24.0184186577849,0 80.0000004000001,24.0184185,0 79.9999815,24.0184102000001,0 79.9999573000001,24.0183995000001,0 79.9999486000001,24.0183758000001,0 79.9999428,24.0183561,0 79.9999428,24.0183550019067,0 79.9999428,24.0183472000001,0 79.9999436,24.0183299,0 79.9999332000001,24.0183090000001,0 79.9999084,24.0182912,0 79.9998857,24.0182926000001,0 79.9998688000001,24.0182597,0 79.9998626000001,24.0182319,0 79.9998605000001,24.0182027,0 79.9998614,24.0181718000001,0 79.9998544000001,24.0181424000001,0 79.9998559000001,24.0181213000002,0 79.9998527000001,24.0180864000001,0 79.9998544000001,24.0180651999999,0 79.9998671000001,24.0180301,0 79.9998741000001,24.0180017,0 79.999874448697,24.0179952242016,0 79.9998387778455,24.0179149647561,0 79.9997754667886,24.0179466202846,0 79.9997511163821,24.0177128563822,0 79.9998097180932,24.0176847275615,0 79.9998119923984,24.0176836358943,0 79.9998097998003,24.0176741655448,0 79.9997601000001,24.0174595000002,0 79.9997236000001,24.0174451,0 79.9996842,24.0174329,0 79.9996526000001,24.0174242,0 79.9996184000001,24.0174213999999,0 79.9995807,24.0174032000001,0 79.9995435000002,24.0173925,0 79.9995208000001,24.0173805000001,0 79.9994963000002,24.0173805000001,0 79.9994751,24.0173741,0 79.99945,24.0173810000001,0 79.9994187843728,24.0173810000002,0 79.999418,24.0173810000001,0 79.9993805000002,24.0173932000001,0 79.9993548,24.0173987,0 79.999325,24.0173968,0 79.9993042,24.0173946,0 79.999287,24.0173907000001,0 79.9992775,24.0173906000001,0 79.99928,24.0173892000002,0 79.9992761,24.0173867000001,0 79.9992765000001,24.0173826000001,0 79.9992684999999,24.0173829000002,0 79.9992633000001,24.0173862000001,0 79.9992510000001,24.0173922000001,0 79.9992481000001,24.0173926,0 79.9992501,24.0174014000001,0 79.9992449000002,24.0173916999999,0 79.9992227000001,24.0174030000001,0 79.9992219727351,24.0174029613642,0 79.9991907,24.0174013000001,0 79.9991685,24.0173835000001,0 79.9991442,24.0173570000001,0 79.9991237,24.0173389000001,0 79.9990944000001,24.0173221000001,0 79.9990677,24.0173110000001,0 79.9990511000001,24.0173011000002,0 79.9990451000001,24.0172992000002,0 79.9990495000001,24.0173118000002,0 79.9990368000001,24.0173165000001,0 79.9990260286284,24.0173128584339,0 79.9990087000001,24.0173070000001,0 79.9989694000001,24.0173289000001,0 79.9989436000001,24.0173306000002,0 79.998917,24.0173275,0 79.9988649000002,24.017302,0 79.9988345000001,24.0172839000002,0 79.9988296329419,24.0172811097655,0 79.9988038,24.0172663000001,0 79.9987768000001,24.0172528000001,0 79.9987358000001,24.0172372,0 79.9987082000001,24.0172233000001,0 79.9986841000001,24.0172068,0 79.9986642,24.0171902,0 79.9986337171291,24.0171874143637,0 79.9985876,24.0171831999999,0 79.9985556000001,24.0171828999999,0 79.9985231000001,24.0171902,0 79.9984958000001,24.0171808000001,0 79.9984662,24.0171854000001,0 79.9984348000001,24.0172103000001,0 79.9984154000001,24.0172275000001,0 79.9983733000001,24.0172466000001,0 79.9983544,24.0172542000002,0 79.99833820747,24.0172581085435,0 79.9983381869244,24.0172607605542,0 79.9983275097145,24.0172606907603,0 79.9983109000001,24.0172646999999,0 79.9982907,24.0172750000001,0 79.9982407,24.0172856000002,0 79.9981914,24.0172992000002,0</coordinates></LinearRing></outerBoundaryIs></Polygon>
  </Placemark>
  
    </Document>
</kml>