<?xml version="1.0" encoding="UTF-8"?>
<kml xmlns="http://www.opengis.net/kml/2.2">
    <Document>
        <Placemark xmlns:ns0="http://www.opengis.net/kml/2.2">
	<Style><LineStyle><color>ff0000ff</color></LineStyle><PolyStyle><fill>0</fill></PolyStyle></Style>
	<ExtendedData><SchemaData schemaUrl="#Wave23_v27MAR2025">
		<SimpleData name="area(ha)">4.610313005646718</SimpleData>
		<SimpleData name="site_id">230085_2.3</SimpleData>
		<SimpleData name="Land_parc">230085</SimpleData>
		<SimpleData name="district">Damoh</SimpleData>
		<SimpleData name="block">Batyagarh</SimpleData>
		<SimpleData name="village">Jangupura</SimpleData>
		<SimpleData name="Land Type">Community</SimpleData>
		<SimpleData name="Instance">Wave 2023</SimpleData>
	</SchemaData></ExtendedData>
      <Polygon><outerBoundaryIs><LinearRing><coordinates>79.4679101,24.3155227,0 79.4679103519464,24.3155225974653,0 79.4679106376243,24.3155224387553,0 79.46791115978,24.3155220943548,0 79.4679144704693,24.3155252161793,0 79.4679180031742,24.3155216857161,0 79.4679169034926,24.3155216007669,0 79.467916813028,24.3155215515668,0 79.4679157,24.3155208,0 79.4679155411662,24.3155205481232,0 79.4678756,24.315461,0 79.4678409,24.315377,0 79.4678132,24.3153032,0 79.4678057,24.3152686,0 79.4677776,24.3152345,0 79.4677397,24.3151142,0 79.4677261,24.3150538,0 79.4677188,24.3149667,0 79.4676789,24.3148736,0 79.467642,24.3147962,0 79.4675667,24.3146863,0 79.4675699,24.3145332,0 79.4675406,24.3145162,0 79.4675605,24.3144136,0 79.467548,24.3143474,0 79.4675459,24.3143175,0 79.4675326,24.3141999,0 79.4674577,24.3140745,0 79.4674725,24.313985,0 79.4675067,24.3138854,0 79.4676111,24.3139163,0 79.4677377,24.3139182,0 79.4678025,24.3139318,0 79.4678419,24.313944,0 79.4678636,24.3139588,0 79.4678650005816,24.3139620179889,0 79.4678659,24.3139628,0 79.4678683,24.3139633,0 79.4678683007564,24.3139632996378,0 79.4678683023766,24.3139632993568,0 79.4679279,24.3139415,0 79.468032,24.3139634,0 79.4680679,24.3139637,0 79.4681389,24.3139771,0 79.4682636,24.3139541,0 79.4683569,24.313943,0 79.4684228,24.3139332,0 79.4685224,24.3139232,0 79.4686083,24.3139045,0 79.4686843,24.3138723,0 79.468817,24.3138049,0 79.4689363,24.3138234,0 79.4690546,24.3137881,0 79.4691746,24.3137562,0 79.4692892,24.3137294,0 79.4694231,24.3136845,0 79.4695257,24.3136091,0 79.4696621,24.3135656,0 79.4696601,24.3134607,0 79.4696531,24.313422,0 79.4696477,24.3133919,0 79.4696247,24.3133567,0 79.469628,24.3132556,0 79.469607,24.3131722,0 79.4695986,24.3131391,0 79.4695642,24.3130267,0 79.4695464,24.3129834,0 79.4694875,24.3128427,0 79.4694814,24.3127588,0 79.4694473,24.3126541,0 79.4693842,24.3125535,0 79.4693621,24.3124768,0 79.4693289,24.3123904,0 79.4692407,24.3124235,0 79.4692027,24.3124518,0 79.469141,24.3124634,0 79.469022,24.3124665,0 79.4688825,24.3124546,0 79.4687625,24.3124968,0 79.4686873,24.3125406,0 79.4687073,24.3126434,0 79.4687038,24.3127254,0 79.4686773,24.3127382,0 79.468589,24.3127181,0 79.4684488,24.3126989,0 79.4683944,24.3127123,0 79.4683119,24.3127249,0 79.4682922,24.3127149,0 79.4682061,24.3127248,0 79.4681204,24.3126893,0 79.4680983,24.312692,0 79.4680788,24.3126914,0 79.4679477,24.3126726,0 79.4678632,24.3126661,0 79.4678207,24.3125311,0 79.4678246,24.3124238,0 79.4677792,24.3123018,0 79.467799,24.312202,0 79.4677632,24.3121357,0 79.4677537,24.3120588,0 79.4677086,24.3120515,0 79.4676087,24.3120588,0 79.4675165,24.3120968,0 79.4673948,24.3121081,0 79.4672541,24.3121156,0 79.4671364,24.3121125,0 79.4671446348313,24.312124805423,0 79.4671442962704,24.3121297484117,0 79.4671314,24.3121364,0 79.4670106,24.3121205,0 79.4668835,24.3122025,0 79.4667306,24.3122151,0 79.4667162,24.3123012,0 79.4667547,24.3123649,0 79.4668164,24.3124566,0 79.4668347,24.3125665,0 79.4669246,24.3126746,0 79.4669108,24.312794,0 79.4669745,24.3128932,0 79.4670007,24.3129564,0 79.4670187,24.3130626,0 79.4670718,24.3131584,0 79.4670807,24.3132592,0 79.4671041,24.313335,0 79.4670854,24.3134217,0 79.4671126,24.3134815,0 79.4671426,24.3135749,0 79.4671679,24.3136484,0 79.467204,24.3137491,0 79.4672037,24.3138983,0 79.4672182,24.3139779,0 79.4672651,24.3140143,0 79.4672332,24.3140619,0 79.4672079,24.3141178,0 79.4672371,24.3141876,0 79.4672382,24.3142079,0 79.4672558,24.3142683,0 79.4672771,24.3143248,0 79.4672842,24.314377,0 79.4673057,24.3144435,0 79.4673055,24.3144615,0 79.4672939,24.3144484,0 79.4672761,24.314476,0 79.4673143,24.3145399,0 79.467321,24.314579,0 79.4673337,24.3146337,0 79.4673528,24.3147305,0 79.4674022,24.3148551,0 79.4674575,24.3149889,0 79.4675076,24.3151403,0 79.4675278,24.3152585,0 79.4675273,24.3153627,0 79.467564,24.3154157,0 79.4675643,24.315457,0 79.4675771,24.315521,0 79.4675985,24.3155394,0 79.4676887,24.3155291,0 79.4678052,24.315524,0 79.4678628,24.3155177,0 79.4678886,24.3155191,0 79.4679091917767,24.315523008524,0 79.4679101,24.3155227,0</coordinates></LinearRing></outerBoundaryIs></Polygon>
  </Placemark>
  
    </Document>
</kml>