<?xml version="1.0" encoding="UTF-8"?>
<kml xmlns="http://www.opengis.net/kml/2.2">
    <Document>
        <Placemark xmlns:ns0="http://www.opengis.net/kml/2.2">
	<Style><LineStyle><color>ff0000ff</color></LineStyle><PolyStyle><fill>0</fill></PolyStyle></Style>
	<ExtendedData><SchemaData schemaUrl="#Wave23_v27MAR2025">
		<SimpleData name="area(ha)">3.271455901494514</SimpleData>
		<SimpleData name="site_id">230012_1.1</SimpleData>
		<SimpleData name="Land_parc">230012</SimpleData>
		<SimpleData name="district">Chhatarpur</SimpleData>
		<SimpleData name="block">Bijawar</SimpleData>
		<SimpleData name="village">Gulganj</SimpleData>
		<SimpleData name="Land Type">Farmer</SimpleData>
		<SimpleData name="Instance">Wave 2023</SimpleData>
	</SchemaData></ExtendedData>
      <Polygon><outerBoundaryIs><LinearRing><coordinates>79.3756726327647,24.6926352918413,0 79.3756187098675,24.6927141574522,0 79.3755917,24.6928183,0 79.3755736551257,24.6928342715023,0 79.3755736337924,24.6928359166571,0 79.3755718185994,24.6928358970098,0 79.375536,24.6928676,0 79.3754739112513,24.6929048882793,0 79.3754296,24.6929315,0 79.3752706,24.692986,0 79.3751867339064,24.6930123101047,0 79.3751759897485,24.6930156807107,0 79.3750803,24.6930457,0 79.3750070735924,24.6930944458225,0 79.3749978942878,24.6931005563552,0 79.3749828086568,24.693110598643,0 79.374977052275,24.6931144305827,0 79.3749104,24.6931588,0 79.374877453286,24.6931738368202,0 79.3748438374515,24.6931891790144,0 79.3747877,24.6932148,0 79.3747780447913,24.6932185530782,0 79.3746637,24.693263,0 79.3745312,24.6933252,0 79.3744799584203,24.6933419495741,0 79.3743351,24.6933893,0 79.374281320083,24.6934175700063,0 79.3742708,24.6934231,0 79.3742386823007,24.6934534971167,0 79.3742148,24.6934761,0 79.3741664,24.693509,0 79.374155861526,24.6935197991468,0 79.3741806675829,24.6935581042582,0 79.3743232,24.6937782,0 79.3743219,24.6938195,0 79.3743815,24.6938726,0 79.37443,24.6940671,0 79.374504,24.6941511,0 79.3745195452583,24.6941788658235,0 79.3745559,24.6942438,0 79.3745667704422,24.6942680048629,0 79.3745934,24.6943273,0 79.3746251,24.6944123,0 79.3746609,24.6944999,0 79.3746625918876,24.6944998066618,0 79.3747614920725,24.6944943504933,0 79.3748476,24.6944896,0 79.3749761,24.6944332,0 79.3750593528102,24.6943885450649,0 79.375101844692,24.6943657533441,0 79.375101844692,24.6943657533441,0 79.3751644,24.6943322,0 79.3752575770522,24.694344939086,0 79.3753692,24.6943602,0 79.3755293,24.6943636,0 79.3756148,24.6943272,0 79.3758492,24.694289,0 79.3758512788172,24.6942889478264,0 79.3758513484707,24.6942835758242,0 79.3760008537968,24.6942851937547,0 79.3760524,24.6942839,0 79.3761543,24.6942209,0 79.3761828,24.6941428,0 79.3762247,24.6940504,0 79.3762817,24.6939634,0 79.3763179,24.6938273,0 79.3764321591192,24.6937481153242,0 79.3764355,24.6937458,0 79.3764515180255,24.6937285338508,0 79.3765083325031,24.6936672923373,0 79.3765162717978,24.6936587343987,0 79.3765188160416,24.6936559919025,0 79.3765517470593,24.6936204948217,0 79.3765982172214,24.6935704035455,0 79.3765992032857,24.693569340643,0 79.3766126,24.6935549,0 79.3766520731805,24.6935049504587,0 79.3766719198724,24.693479836345,0 79.3766905918484,24.6934562087109,0 79.3767523664326,24.6933919280674,0 79.3767523860286,24.6933904158267,0 79.3767538049666,24.693390431174,0 79.3768444693843,24.6932960885233,0 79.3768163,24.6932181,0 79.3768048431959,24.6932104014497,0 79.3767551513838,24.6931770103621,0 79.3767282,24.6931589,0 79.3766784359011,24.6931187433422,0 79.3766781421449,24.6931185062984,0 79.3766572990791,24.693101687176,0 79.3765707554235,24.6930318514832,0 79.3765650229395,24.6930272256979,0 79.3765594365082,24.6930271652681,0 79.3765594935496,24.6930227637973,0 79.3765438,24.6930101,0 79.3764176331888,24.6929353404103,0 79.3763855,24.6929163,0 79.3763633594035,24.6929053038345,0 79.3762458849219,24.6928469598452,0 79.3762381283604,24.6928431075248,0 79.3762212,24.6928347,0 79.3760683367225,24.6927925358509,0 79.3760102,24.6927765,0 79.3759699930467,24.6927551706131,0 79.3759600782253,24.6927499108968,0 79.3759598803961,24.6927498059503,0 79.3759556365798,24.6927475546466,0 79.3758718400684,24.6927031013651,0 79.3757919419607,24.6926607160796,0 79.3757861337247,24.6926576348558,0 79.3757736871744,24.6926510320567,0 79.3757305012397,24.6926281222378,0 79.3756726327647,24.6926352918413,0</coordinates></LinearRing></outerBoundaryIs></Polygon>
  </Placemark>
  
    </Document>
</kml>