<?xml version="1.0" encoding="UTF-8"?>
<kml xmlns="http://www.opengis.net/kml/2.2">
    <Document>
        <Placemark xmlns:ns0="http://www.opengis.net/kml/2.2">
	<Style><LineStyle><color>ff0000ff</color></LineStyle><PolyStyle><fill>0</fill></PolyStyle></Style>
	<ExtendedData><SchemaData schemaUrl="#Wave23_v27MAR2025">
		<SimpleData name="area(ha)">0.809279238890388</SimpleData>
		<SimpleData name="site_id">230076_1.1</SimpleData>
		<SimpleData name="Land_parc">230076</SimpleData>
		<SimpleData name="district">Panna</SimpleData>
		<SimpleData name="block">Shahnagar</SimpleData>
		<SimpleData name="village">Badagaon</SimpleData>
		<SimpleData name="Land Type">Farmer</SimpleData>
		<SimpleData name="Instance">Wave 2023</SimpleData>
	</SchemaData></ExtendedData>
      <Polygon><outerBoundaryIs><LinearRing><coordinates>79.9074180390949,23.9325589010575,0 79.9074187563492,23.9325589061581,0 79.9074187434701,23.9325604363094,0 79.9074329950975,23.9325914990641,0 79.9075169965936,23.9325606000756,0 79.90751700497,23.9325596047934,0 79.9075196511957,23.9325596236096,0 79.9075584965847,23.9325453347563,0 79.9076732845303,23.9325187552988,0 79.9077008336373,23.9326327671435,0 79.9077620538749,23.9327027130107,0 79.9078094995591,23.9327740577561,0 79.9078370486661,23.932848200293,0 79.9078615367611,23.9328677851069,0 79.9081247837831,23.9328579927003,0 79.9083589511921,23.932848200293,0 79.9082778343772,23.9326089855401,0 79.9082472242584,23.9325418374596,0 79.9082518157762,23.9325152580014,0 79.9082596796295,23.932490183803,0 79.9082459796088,23.932405683805,0 79.9082227361634,23.9323257043383,0 79.9082257971752,23.9322221841391,0 79.9082090676611,23.9321129611938,0 79.9082085431723,23.9321129574668,0 79.9082085704436,23.9321097149788,0 79.9081936565505,23.9320123456429,0 79.9079149036592,23.9319794697996,0 79.9079089824453,23.9319787714518,0 79.9077023641432,23.9319158198201,0 79.9075875761976,23.9318836445298,0 79.9074850322995,23.9318178949986,0 79.9072814750093,23.9317521454339,0 79.9072723703754,23.9318353644411,0 79.9072692309618,23.9318640595665,0 79.9073074936103,23.9319787714518,0 79.9073245538513,23.9320775304562,0 79.9073258596816,23.9320850896935,0 79.9073381037292,23.9321214617035,0 79.907393201943,23.9323564805977,0 79.9073733053658,23.9324613996088,0 79.9074180390949,23.9325589010575,0</coordinates></LinearRing></outerBoundaryIs><innerBoundaryIs><LinearRing><coordinates>79.9079322950678,23.9320171560071,0 79.9079290886861,23.9320918893662,0 79.9079139209538,23.932096279547,0 79.9078328972341,23.9321197311948,0 79.9078120557529,23.9320274135295,0 79.9079145738922,23.9320186677928,0 79.9079322950678,23.9320171560071,0</coordinates></LinearRing></innerBoundaryIs></Polygon>
  </Placemark>
  
    </Document>
</kml>