<?xml version="1.0" encoding="UTF-8"?>
<kml xmlns="http://www.opengis.net/kml/2.2">
    <Document>
        <Placemark xmlns:ns0="http://www.opengis.net/kml/2.2">
	<Style><LineStyle><color>ff0000ff</color></LineStyle><PolyStyle><fill>0</fill></PolyStyle></Style>
	<ExtendedData><SchemaData schemaUrl="#Wave23_v27MAR2025">
		<SimpleData name="area(ha)">0.537471172039329</SimpleData>
		<SimpleData name="site_id">230051_1.1</SimpleData>
		<SimpleData name="Land_parc">230048</SimpleData>
		<SimpleData name="district">Chhatarpur</SimpleData>
		<SimpleData name="block">Bijawar</SimpleData>
		<SimpleData name="village">Tapran</SimpleData>
		<SimpleData name="Land Type">Farmer</SimpleData>
		<SimpleData name="Instance">Wave 2023</SimpleData>
	</SchemaData></ExtendedData>
      <Polygon><outerBoundaryIs><LinearRing><coordinates>79.7243181343218,24.4471694592549,0 79.7242899946544,24.4471989777883,0 79.7242587163404,24.4472033733137,0 79.7242561975802,24.4472037887731,0 79.7242537057539,24.4472043232813,0 79.724251247571,24.4472049753989,0 79.724248829651,24.4472057433699,0 79.7242464585045,24.4472066251265,0 79.7242441405164,24.4472076182943,0 79.7242418819284,24.447208720199,0 79.7242396888223,24.4472099278734,0 79.7242375671035,24.4472112380656,0 79.7242355224852,24.4472126472477,0 79.724233560473,24.447214151625,0 79.7242316863501,24.4472157471468,0 79.7242299051629,24.4472174295167,0 79.7242282217077,24.4472191942045,0 79.7242266405177,24.4472210364585,0 79.7242251658505,24.4472229513179,0 79.7242238016769,24.4472249336266,0 79.7242225516704,24.4472269780467,0 79.7242214191969,24.4472290790732,0 79.7242204073058,24.4472312310486,0 79.7242195187218,24.4472334281782,0 79.7242187558378,24.4472356645458,0 79.7242181207079,24.4472379341294,0 79.7242176150423,24.4472402308176,0 79.7242172402028,24.4472425484261,0 79.7242171716522,24.4472432063562,0 79.7242170375208,24.4472428663427,0 79.7242160427667,24.4472407036606,0 79.7242149266109,24.447238591212,0 79.7242136920685,24.447236534703,0 79.7242123424742,24.4472345396888,0 79.7242108814737,24.4472326115584,0 79.7242093130134,24.4472307555203,0 79.7242076413302,24.447228976588,0 79.7242058709398,24.4472272795668,0 79.7242040066244,24.447225669041,0 79.7242020534199,24.4472241493608,0 79.7242000166025,24.4472227246313,0 79.7241979016742,24.4472213987011,0 79.7241957143478,24.4472201751518,0 79.7241934605319,24.4472190572886,0 79.7241911463147,24.4472180481311,0 79.7241887779474,24.4472171504052,0 79.7241863618275,24.447216366536,0 79.7241839044817,24.4472156986409,0 79.7241814125477,24.447215148524,0 79.724178892757,24.4472147176713,0 79.7241763519161,24.4472144072466,0 79.7241737968885,24.4472142180886,0 79.7241712345759,24.4472141507082,0 79.7241686718998,24.4472142052873,0 79.7241661157826,24.4472143816785,0 79.724163573129,24.4472146794054,0 79.7241610508074,24.4472150976638,0 79.7241585556312,24.4472156353238,0 79.7241560943404,24.447216290933,0 79.7241536735837,24.4472170627205,0 79.7241512999,24.4472179486015,0 79.7241489797014,24.447218946183,0 79.7241467192552,24.4472200527704,0 79.7241445246675,24.4472212653743,0 79.7241424018664,24.4472225807194,0 79.7241403565861,24.4472239952524,0 79.7241383943515,24.4472255051524,0 79.7241365204629,24.4472271063409,0 79.7241347399824,24.4472287944925,0 79.7241330577194,24.4472305650472,0 79.7241314782181,24.4472324132222,0 79.7241300057451,24.4472343340251,0 79.724128644278,24.4472363222675,0 79.7241273974945,24.4472383725785,0 79.7240977770764,24.4472902082826,0 79.7240749708736,24.4473122465937,0 79.7240699669768,24.4473159835473,0 79.7240657084145,24.4473006054226,0 79.7240650116458,24.4472983391206,0 79.7240641867723,24.4472961091493,0 79.724063236037,24.4472939215722,0 79.7240621620252,24.4472917823377,0 79.7240609676573,24.4472896972629,0 79.7240596561809,24.4472876720173,0 79.7240582311623,24.4472857121081,0 79.7240566964763,24.4472838228644,0 79.7240550562959,24.4472820094236,0 79.7240533150812,24.4472802767166,0 79.7240514775667,24.447278629455,0 79.7240495487491,24.4472770721179,0 79.7240475338731,24.4472756089401,0 79.7240454384174,24.4472742439002,0 79.7240432680801,24.4472729807099,0 79.7240410287626,24.4472718228041,0 79.724038726554,24.4472707733314,0 79.7240363677145,24.4472698351453,0 79.724033958658,24.4472690107971,0 79.7240315059353,24.4472683025282,0 79.7240290162158,24.4472677122646,0 79.7240264962693,24.4472672416113,0 79.7240239529481,24.4472668918481,0 79.7240213931679,24.447266663926,0 79.7240188238892,24.4472665584648,0 79.7240162520983,24.4472665757512,0 79.7240136847883,24.4472667157384,0 79.7240111289402,24.4472669780455,0 79.7240085915037,24.4472673619594,0 79.7240060793787,24.4472678664361,0 79.724003599396,24.4472684901039,0 79.7240011582991,24.447269231267,0 79.7239987627257,24.4472700879098,0 79.7239964191899,24.4472710577032,0 79.7239941340641,24.44727213801,0 79.7239919135619,24.4472733258928,0 79.7239897637214,24.4472746181214,0 79.7239876903883,24.4472760111821,0 79.7239856992002,24.4472775012869,0 79.7239837955717,24.4472790843839,0 79.7239819846791,24.4472807561685,0 79.7239802714464,24.4472825120947,0 79.7239786605322,24.447284347388,0 79.7239771563169,24.4472862570577,0 79.7239757628907,24.4472882359113,0 79.7239554737829,24.4473187690149,0 79.7239097862417,24.4473862029961,0 79.723908432434,24.4473883283726,0 79.7239072071065,24.4473905181016,0 79.7239061138978,24.447392765681,0 79.723905156054,24.4473950644365,0 79.7239043364195,24.4473974075422,0 79.7239036574281,24.4473997880405,0 79.723903121096,24.4474021988625,0 79.7239027290158,24.4474046328496,0 79.7239024823518,24.447407082774,0 79.7239023818365,24.4474095413611,0 79.7239024277684,24.44741200131,0 79.7239043277531,24.44745120131,0 79.723904509299,24.4474535554388,0 79.7239048249712,24.4474558976676,0 79.7239052739071,24.447458221597,0 79.7239058548802,24.4474605208776,0 79.7239065663031,24.447462789227,0 79.7239074062322,24.4474650204479,0 79.7239083723725,24.4474672084439,0 79.7239094620843,24.4474693472371,0 79.7239106723903,24.4474714309837,0 79.7239119999838,24.4474734539906,0 79.7239134412374,24.4474754107304,0 79.7239149922133,24.4474772958569,0 79.723916648674,24.4474791042196,0 79.7239184060936,24.4474808308776,0 79.7239202596706,24.4474824711133,0 79.7239222043404,24.4474840204453,0 79.72392423479,24.4474854746403,0 79.7239263454716,24.4474868297254,0 79.7239285306185,24.447488081998,0 79.7239307842603,24.4474892280367,0 79.7239331002396,24.4474902647102,0 79.7239354722286,24.4474911891863,0 79.7239378937467,24.4474919989389,0 79.7239403581776,24.4474926917557,0 79.723942858788,24.4474932657437,0 79.7239453887457,24.4474937193347,0 79.7239479411383,24.4474940512894,0 79.7239505089922,24.4474942607008,0 79.7239530852914,24.4474943469967,0 79.7239556629969,24.4474943099414,0 79.7239582350658,24.4474941496361,0 79.7239607944708,24.4474938665188,0 79.7239633342188,24.4474934613631,0 79.7239658473709,24.4474929352758,0 79.7239683270606,24.4474922896945,0 79.7239707665128,24.4474915263829,0 79.723971921706,24.447491101997,0 79.7239716830592,24.4474918353536,0 79.7239710812941,24.4474941090135,0 79.7239706089888,24.4474964081553,0 79.7239702674114,24.4474987266061,0 79.723970057479,24.4475010581412,0 79.7239699797552,24.4475033965009,0 79.7239700344486,24.4475057354069,0 79.7239724344306,24.447552135407,0 79.7239726087555,24.447554350682,0 79.7239729018766,24.4475565554288,0 79.7239733130845,24.4475587443122,0 79.7239738413841,24.4475609120351,0 79.7239744854969,24.447563053352,0 79.7239752438644,24.4475651630811,0 79.7239967438461,24.4476203630869,0 79.7239976625386,24.4476225419146,0 79.7239987030807,24.4476246743387,0 79.7239998626879,24.4476267546532,0 79.7240011382574,24.4476287772917,0 79.7240025263762,24.4476307368419,0 79.7240040233297,24.4476326280604,0 79.7240056251125,24.4476344458868,0 79.7240073274384,24.4476361854568,0 79.7240091257525,24.4476378421157,0 79.7240110152428,24.4476394114307,0 79.7240129908533,24.4476408892024,0 79.7240150472977,24.4476422714768,0 79.7240171790734,24.447643554555,0 79.7240193804761,24.4476447350038,0 79.7240216456152,24.4476458096646,0 79.7240239684298,24.4476467756617,0 79.7240263427045,24.4476476304104,0 79.724028762086,24.4476483716235,0 79.7240312201007,24.4476489973176,0 79.7240337101712,24.4476495058185,0 79.7240362256348,24.4476498957656,0 79.7240387597604,24.4476501661155,0 79.7240413057673,24.4476503161446,0 79.7240438568428,24.4476503454517,0 79.7240464061606,24.4476502539582,0 79.7240469515478,24.4476502084404,0 79.7240464870702,24.4476509370586,0 79.7239973870521,24.447732637044,0 79.7239962038704,24.4477347337519,0 79.7239951419834,24.44773688419,0 79.7239942042922,24.4477390824831,0 79.7239933933588,24.4477413226252,0 79.7239927113988,24.447743598496,0 79.7239921602752,24.4477459038777,0 79.7239917414938,24.4477482324716,0 79.7239914561988,24.4477505779159,0 79.7239913051697,24.4477529338026,0 79.7239912888191,24.447755293695,0 79.7239914071916,24.4477576511459,0 79.723991659964,24.4477599997142,0 79.7239920464454,24.4477623329836,0 79.7239925655802,24.4477646445793,0 79.7239932159499,24.4477669281858,0 79.7239939957778,24.4477691775641,0 79.7239949029331,24.4477713865685,0 79.7239959349375,24.4477735491639,0 79.7239970889715,24.4477756594419,0 79.7239983618821,24.4477777116369,0 79.7239997501916,24.4477797001421,0 79.724001250107,24.4477816195248,0 79.7240028575304,24.447783464541,0 79.7240045680701,24.4477852301499,0 79.7240063770528,24.4477869115277,0 79.7240082795362,24.4477885040806,0 79.7240102703224,24.4477900034577,0 79.7240123439724,24.4477914055626,0 79.7240144948209,24.4477927065644,0 79.7240167169915,24.4477939029088,0 79.7240190044129,24.4477949913272,0 79.7240213508357,24.4477959688459,0 79.7240237498493,24.4477968327943,0 79.7240261948992,24.4477975808119,0 79.7240286793054,24.4477982108551,0 79.7240311962802,24.4477987212026,0 79.7240337389469,24.44779911046,0 79.7240363003587,24.4477993775638,0 79.7240388735176,24.4477995217842,0 79.7240414513935,24.4477995427273,0 79.7240440269432,24.4477994403359,0 79.7240465931302,24.4477992148896,0 79.7240491429433,24.4477988670045,0 79.7240516694162,24.4477983976309,0 79.7240541656464,24.4477978080512,0 79.7240566248137,24.4477970998763,0 79.7241256248349,24.44777539987,0 79.724128065144,24.4477745658287,0 79.7241304539475,24.4477736150091,0 79.724132784582,24.4477725500635,0 79.7241350505466,24.4477713739623,0 79.7241372455209,24.4477700899861,0 79.7241393633822,24.4477687017163,0 79.7241413982232,24.4477672130253,0 79.7241433443678,24.4477656280655,0 79.7241451963878,24.447763951258,0 79.7241469491171,24.44776218728,0 79.7241485976667,24.4477603410518,0 79.7241501374384,24.4477584177232,0 79.7241515641371,24.447756422659,0 79.7241528737834,24.4477543614242,0 79.7241529821595,24.4477541680278,0 79.724153558062,24.4477549791387,0 79.7241550625746,24.4477568750201,0 79.7241566725154,24.4477586968894,0 79.7241583835476,24.4477604398389,0 79.724160191062,24.4477620991734,0 79.7241620901896,24.4477636704231,0 79.7241640758145,24.4477651493554,0 79.7241658842705,24.4477664263797,0 79.7241636229852,24.4477664547972,0 79.7241609382662,24.4477665555444,0 79.7241582635249,24.447766789984,0 79.7241556066999,24.4477671574202,0 79.7241529756767,24.4477676567626,0 79.7241503782642,24.447768286529,0 79.7241478221716,24.4477690448503,0 79.7241453149853,24.4477699294757,0 79.7241428641467,24.4477709377798,0 79.7241179641532,24.4477819377765,0 79.7241156874075,24.4477830111481,0 79.7241134745936,24.4477841912557,0 79.7241113316774,24.4477854749176,0 79.7241092644367,24.447786858673,0 79.7241072784447,24.447788338791,0 79.7241053790561,24.4477899112812,0 79.7241035713918,24.4477915719039,0 79.7241018603254,24.4477933161818,0 79.7241002504703,24.4477951394123,0 79.7240987461666,24.4477970366796,0 79.7240973514702,24.4477990028686,0 79.7240960701415,24.4478010326781,0 79.7240949056349,24.4478031206356,0 79.7240938610901,24.4478052611117,0 79.7240929393234,24.4478074483354,0 79.72409214282,24.4478096764097,0 79.7240914737272,24.4478119393276,0 79.7240909338492,24.4478142309878,0 79.7240905246413,24.4478165452119,0 79.724090247207,24.4478188757604,0 79.7240901022943,24.4478212163499,0 79.7240900902937,24.4478235606699,0 79.7240902112378,24.4478259023998,0 79.7240904648004,24.4478282352262,0 79.7240908502979,24.4478305528593,0 79.724091366691,24.4478328490506,0 79.7240920125874,24.4478351176093,0 79.7240927862457,24.4478373524192,0 79.72409368558,24.4478395474548,0 79.7240947081657,24.4478416967982,0 79.7240958512457,24.4478437946545,0 79.7240971117383,24.4478458353675,0 79.7240984862448,24.4478478134354,0 79.7240999710596,24.447849723525,0 79.7241439710512,24.4479033235359,0 79.7241454804536,24.4479050707899,0 79.7241470821608,24.4479067477659,0 79.7241487722739,24.4479083503817,0 79.7241505466787,24.4479098747363,0 79.724152401056,24.4479113171189,0 79.7241627845542,24.4479189980658,0 79.7241621898388,24.4479450569628,0 79.7241622042274,24.4479474416343,0 79.7241623561388,24.447949822284,0 79.7241626451494,24.4479521922704,0 79.7241630704529,24.447954544982,0 79.7241636308627,24.4479568738553,0 79.7241643248155,24.4479591723933,0 79.7241651503753,24.4479614341835,0 79.724166105239,24.4479636529163,0 79.7241671867428,24.4479658224019,0 79.7241683918696,24.4479679365879,0 79.7241697172573,24.4479699895763,0 79.7241711592086,24.4479719756398,0 79.7241727137006,24.4479738892378,0 79.7241743763968,24.4479757250317,0 79.7241761426586,24.4479774779003,0 79.7241780075587,24.4479791429534,0 79.7241799658944,24.4479807155458,0 79.7241820122024,24.4479821912906,0 79.7241841407741,24.4479835660707,0 79.7241863456713,24.4479848360508,0 79.7241886207428,24.447985997688,0 79.7241909596418,24.4479870477417,0 79.7241933558433,24.4479879832823,0 79.7241958026626,24.4479888017001,0 79.7241982932735,24.4479895007117,0 79.724200820728,24.4479900783672,0 79.724203377975,24.4479905330551,0 79.7242059578804,24.4479908635067,0 79.724208553247,24.4479910688004,0 79.7242111568343,24.4479911483634,0 79.7242268568399,24.4479912483636,0 79.7242294650379,24.44799120182,0 79.7242320668994,24.4479910291,0 79.7242346551452,24.447990730687,0 79.7242372225346,24.4479903074158,0 79.7242397618851,24.4479897604704,0 79.7242422660926,24.4479890913811,0 79.7242447281514,24.4479883020197,0 79.7242471411735,24.4479873945944,0 79.7242494984086,24.447986371644,0 79.7242517932618,24.4479852360301,0 79.7242540193132,24.4479839909297,0 79.7242996141599,24.4479569469295,0 79.7243007652032,24.4479579595861,0 79.7243293313793,24.4479818084187,0 79.7243120954381,24.4479821618663,0 79.7243095526189,24.4479822741706,0 79.7243070195173,24.4479825064356,0 79.7243045028822,24.4479828580428,0 79.7243020094185,24.4479833280552,0 79.7242995457695,24.4479839152206,0 79.724297118499,24.4479846179748,0 79.7242947340739,24.4479854344452,0 79.7242923988469,24.4479863624568,0 79.7242901190398,24.4479873995369,0 79.7242879007264,24.4479885429225,0 79.7242857498171,24.4479897895674,0 79.7242836720424,24.4479911361501,0 79.724281672938,24.447992579083,0 79.7242797578301,24.4479941145218,0 79.7242779318211,24.4479957383755,0 79.7242761997759,24.4479974463179,0 79.7242745663092,24.4479992337986,0 79.7242730357729,24.4480010960551,0 79.7242716122449,24.448003028126,0 79.7242702995178,24.4480050248637,0 79.724269101089,24.4480070809483,0 79.7242680201515,24.4480091909019,0 79.7242670595853,24.448011349103,0 79.7242662219494,24.4480135498016,0 79.7242655094757,24.4480157871345,0 79.7242649240622,24.4480180551407,0 79.7242644672689,24.4480203477778,0 79.7242509672395,24.4480996477723,0 79.724250636137,24.4481019958036,0 79.7242504399436,24.4481043564949,0 79.724250379199,24.4481067233551,0 79.72425045407,24.4481090898762,0 79.7242506643508,24.4481114495509,0 79.7242510094633,24.4481137958911,0 79.7242514884584,24.4481161224449,0 79.7242521000192,24.4481184228153,0 79.724252842464,24.4481206906769,0 79.7242537137515,24.4481229197938,0 79.7242547114857,24.4481251040368,0 79.7242558329234,24.4481272373999,0 79.7242570749809,24.4481293140171,0 79.724258434243,24.4481313281783,0 79.7242599069721,24.4481332743454,0 79.7242614891189,24.4481351471669,0 79.7242631763328,24.4481369414932,0 79.7242649639747,24.4481386523906,0 79.7242668471291,24.4481402751546,0 79.724268820618,24.4481418053233,0 79.7242708790149,24.448143238689,0 79.7242730166599,24.4481445713106,0 79.7242752276753,24.4481457995238,0 79.7242775059814,24.4481469199514,0 79.7242798453137,24.4481479295126,0 79.7242822392398,24.4481488254315,0 79.7242846811772,24.4481496052445,0 79.7242871644114,24.4481502668074,0 79.7242896821143,24.4481508083012,0 79.724292227363,24.4481512282369,0 79.7242947931591,24.4481515254599,0 79.7242973724473,24.4481516991529,0 79.7242999581355,24.4481517488382,0 79.7243025431139,24.4481516743793,0 79.7243051202747,24.4481514759809,0 79.7243076825316,24.4481511541886,0 79.7243102228392,24.448150709887,0 79.7243127342124,24.448150144298,0 79.7243152097459,24.4481494589768,0 79.7243176426327,24.4481486558076,0 79.7243200261833,24.4481477369991,0 79.7243223538436,24.4481467050775,0 79.7243246192133,24.4481455628803,0 79.7243268160635,24.4481443135482,0 79.7243289383536,24.4481429605165,0 79.7243309802479,24.4481415075055,0 79.7243329361319,24.4481399585105,0 79.7243348006276,24.4481383177908,0 79.7243365686082,24.4481365898577,0 79.7243382352124,24.4481347794626,0 79.7243397958577,24.4481328915834,0 79.7243412462526,24.4481309314111,0 79.7243425824093,24.4481289043355,0 79.7243438006535,24.4481268159305,0 79.724353020995,24.4481099604945,0 79.7243791702842,24.4481181297008,0 79.7243815974731,24.4481188245521,0 79.7243840605611,24.4481194039513,0 79.7243865529994,24.4481198663579,0 79.7243890681615,24.4481202105425,0 79.7243915993604,24.4481204355901,0 79.7243941398663,24.4481205409023,0 79.724396682925,24.4481205261991,0 79.7243992217752,24.4481203915197,0 79.7244017496669,24.4481201372221,0 79.7244042598792,24.4481197639823,0 79.7244067457383,24.4481192727928,0 79.724409200635,24.4481186649594,0 79.7244116180426,24.4481179420982,0 79.724478618063,24.4480961420918,0 79.7244810608227,24.4480952797734,0 79.7244834501549,24.4480943000104,0 79.724485779327,24.4480932055636,0 79.7244880417758,24.448091999517,0 79.7244902311263,24.4480906852689,0 79.7244923412094,24.4480892665225,0 79.7244943660792,24.4480877472756,0 79.7244963000302,24.4480861318091,0 79.7244981376129,24.4480844246751,0 79.7244998736493,24.4480826306838,0 79.7245015032478,24.4480807548904,0 79.7245030218164,24.4480788025804,0 79.7245034366539,24.4480782044366,0 79.7245399131327,24.4480950232498,0 79.7245412229963,24.4480956051827,0 79.7245737230041,24.4481095051874,0 79.7245761072487,24.4481104556397,0 79.7245785429039,24.4481112897315,0 79.7245810231987,24.4481120051439,0 79.7245835412375,24.448112599888,0 79.7245860900203,24.4481130723106,0 79.7245886624612,24.4481134210981,0 79.7245912514087,24.448113645281,0 79.7246217514194,24.4481155452821,0 79.7246243079139,24.4481156436388,0 79.7246268665403,24.4481156204918,0 79.7246294204121,24.4481154759035,0 79.7246319626556,24.448115210263,0 79.7246344864282,24.4481148242853,0 79.7246369849374,24.4481143190093,0 79.7246394514584,24.4481136957948,0 79.7246418793525,24.4481129563194,0 79.7246442620852,24.4481121025732,0 79.7246465932433,24.4481111368542,0 79.7246488665525,24.4481100617614,0 79.7246510758943,24.4481088801887,0 79.7246532153222,24.448107595316,0 79.7246552790779,24.4481062106017,0 79.7246572616069,24.4481047297728,0 79.7246591575733,24.4481031568147,0 79.7246609618741,24.4481014959612,0 79.7246626696529,24.4480997516825,0 79.7246642763134,24.4480979286731,0 79.7246657775312,24.4480960318398,0 79.7246671692659,24.4480940662879,0 79.7246684477715,24.4480920373075,0 79.7246696096071,24.4480899503597,0 79.7246706516455,24.4480878110616,0 79.7246715710821,24.4480856251709,0 79.7246723654423,24.448083398571,0 79.724673032588,24.4480811372547,0 79.7246735707238,24.4480788473084,0 79.7246739784011,24.4480765348955,0 79.7246742545227,24.4480742062397,0 79.7246743983454,24.4480718676087,0 79.7246744094823,24.4480695252967,0 79.7246742879032,24.4480671856082,0 79.7246740339355,24.4480648548404,0 79.7246736482626,24.4480625392664,0 79.7246731319227,24.4480602451187,0 79.7246724863055,24.4480579785719,0 79.7246717131486,24.4480557457264,0 79.7246708145329,24.4480535525919,0 79.7246697928772,24.4480514050712,0 79.7246686509312,24.4480493089442,0 79.7246673917684,24.4480472698527,0 79.7246660187779,24.448045293285,0 79.724664535655,24.4480433845607,0 79.724622935647,24.4479926845711,0 79.7246209510209,24.4479904211395,0 79.7246188116326,24.4479882791128,0 79.7246090116322,24.4479790791151,0 79.7246072237936,24.4479774836051,0 79.7246053500403,24.4479759729657,0 79.724605187349,24.44797585463,0 79.7246065054431,24.4479744532188,0 79.7246077538026,24.4479729761709,0 79.7246086266964,24.4479741474482,0 79.7246102533049,24.4479760941016,0 79.7246119929078,24.4479779570874,0 79.7246138403793,24.447979730916,0 79.7246157902755,24.4479814103606,0 79.7246178368506,24.4479829904724,0 79.7246199740742,24.4479844665953,0 79.7246221956486,24.4479858343798,0 79.7246244950276,24.4479870897954,0 79.7246286464311,24.4479892187206,0 79.7246453940805,24.4480016119832,0 79.7246474500195,24.4480030533532,0 79.7246495857678,24.4480043939528,0 79.7246517954376,24.4480056300865,0 79.7246540729374,24.4480067583463,0 79.7246564119884,24.448007775622,0 79.7246588061424,24.448008679109,0 79.7246612487992,24.4480094663166,0 79.7246637332248,24.4480101350748,0 79.7246662525703,24.4480106835397,0 79.7246687998902,24.4480111101995,0 79.7246713681621,24.4480114138779,0 79.7246739503058,24.4480115937377,0 79.7246765392028,24.4480116492831,0 79.724679127716,24.4480115803609,0 79.7246817087095,24.4480113871613,0 79.7246842750679,24.4480110702167,0 79.7246868197164,24.4480106304009,0 79.7246893356397,24.4480100689264,0 79.724691815902,24.4480093873411,0 79.7246942536658,24.448008587524,0 79.7246966422105,24.44800767168,0 79.7246989749515,24.448006642334,0 79.7247012454579,24.4480055023235,0 79.7247034474702,24.4480042547915,0 79.724705574918,24.4480029031771,0 79.7247076219364,24.4480014512064,0 79.7247095828821,24.4479999028822,0 79.7247114523492,24.447998262473,0 79.724713225184,24.447996534501,0 79.724714896499,24.4479947237299,0 79.7247164616869,24.4479928351517,0 79.7247179164326,24.4479908739727,0 79.7247192567259,24.4479888455996,0 79.7247204788717,24.4479867556242,0 79.7247215795008,24.4479846098081,0 79.7247225555791,24.4479824140669,0 79.7247234044157,24.4479801744538,0 79.7247241236705,24.447977897143,0 79.7247241892828,24.4479776393864,0 79.7247390079518,24.4479532368897,0 79.7247402084326,24.4479511314455,0 79.7247412863093,24.4479489711265,0 79.7247422385993,24.4479467619105,0 79.7247430626677,24.4479445099104,0 79.724743756234,24.4479422213578,0 79.7247443173794,24.4479399025851,0 79.7247447445509,24.4479375600086,0 79.7247450365666,24.4479352001103,0 79.7247451926185,24.4479328294201,0 79.7247452122749,24.447930454498,0 79.7247450954812,24.4479280819155,0 79.7247448425607,24.4479257182376,0 79.7247402425477,24.4478919182386,0 79.7247398597261,24.44788959841,0 79.7247393457805,24.4478872999179,0 79.7247387020987,24.4478850289686,0 79.7247379304188,24.4478827916944,0 79.7247370328246,24.4478805941366,0 79.7247360117398,24.447878442229,0 79.7247348699217,24.4478763417824,0 79.7247336104534,24.4478742984685,0 79.7247322367358,24.4478723178049,0 79.7247307524783,24.4478704051398,0 79.7247291616889,24.447868565638,0 79.724727468663,24.4478668042665,0 79.7247256779723,24.4478651257816,0 79.7247237944522,24.4478635347155,0 79.7247218231886,24.4478620353646,0 79.7247197695044,24.4478606317775,0 79.7247176389452,24.4478593277443,0 79.7247154372639,24.4478581267862,0 79.7247131704058,24.447857032146,0 79.7247108444919,24.4478560467796,0 79.7247084658028,24.4478551733478,0 79.7247060407616,24.447854414209,0 79.7247035759165,24.4478537714132,0 79.7247010779232,24.4478532466959,0 79.724698553527,24.4478528414742,0 79.7246960095444,24.4478525568421,0 79.7246934528448,24.4478523935683,0 79.724690890332,24.4478523520937,0 79.7246883289254,24.4478524325303,0 79.7246857755414,24.4478526346607,0 79.7246844643082,24.4478528016488,0 79.7246850222634,24.4478517349378,0 79.7246860067477,24.4478495710869,0 79.7246868672266,24.4478473633794,0 79.7246876013809,24.4478451177659,0 79.7246882072317,24.4478428402992,0 79.724688683146,24.4478405371177,0 79.724689027841,24.4478382144296,0 79.7246892403878,24.4478358784953,0 79.7246893202134,24.447833535611,0 79.7246892671026,24.4478311920916,0 79.7246890811987,24.4478288542539,0 79.7246887630026,24.4478265283991,0 79.7246883133721,24.4478242207964,0 79.7246877335192,24.4478219376655,0 79.7246870250066,24.4478196851603,0 79.7246861897442,24.4478174693522,0 79.7246852299833,24.4478152962136,0 79.7246702431631,24.4477837450377,0 79.7246644383293,24.4477707617193,0 79.7246690433674,24.4477587374401,0 79.7246698466002,24.4477564462994,0 79.7246705153518,24.4477541192387,0 79.7246710477228,24.4477517628678,0 79.7246714422011,24.4477493838795,0 79.7246716976661,24.447746989031,0 79.7246718133922,24.4477445851246,0 79.7246717890509,24.4477421789881,0 79.7246716247112,24.447739777456,0 79.7246713208399,24.4477373873493,0 79.7246708783001,24.4477350154568,0 79.7246702983488,24.4477326685156,0 79.7246695826334,24.4477303531917,0 79.7246687331865,24.4477280760616,0 79.7246677524211,24.447725843593,0 79.7246666431229,24.4477236621271,0 79.7246654084425,24.4477215378598,0 79.7246640518871,24.4477194768249,0 79.7246625773096,24.4477174848764,0 79.7246609888984,24.4477155676723,0 79.7246592911652,24.4477137306579,0 79.7246574889322,24.4477119790511,0 79.7246555873182,24.4477103178271,0 79.7246535917246,24.4477087517043,0 79.7246515078195,24.4477072851311,0 79.724649341522,24.4477059222731,0 79.7246136415276,24.4476847222796,0 79.7246114386074,24.4476834878979,0 79.7246091681174,24.4476823607789,0 79.7246068362841,24.4476813440136,0 79.7246044495026,24.4476804403904,0 79.7246020143184,24.4476796523875,0 79.7245995374098,24.4476789821658,0 79.7245970255697,24.4476784315635,0 79.7245944856865,24.4476780020906,0 79.7245919247259,24.4476776949248,0 79.724589349711,24.4476775109085,0 79.7245877153299,24.4476774727,0 79.7245890963709,24.4476759044927,0 79.7245906130115,24.4476739842233,0 79.7245920175074,24.4476719937572,0 79.7245933059901,24.4476699385774,0 79.7245944749103,24.4476678243446,0 79.7245955210483,24.4476656568828,0 79.7245964415225,24.4476634421621,0 79.7245972337974,24.447661186283,0 79.7245978956907,24.4476588954594,0 79.7245984253792,24.4476565760014,0 79.7245988214039,24.4476542342979,0 79.7245990826739,24.4476518767993,0 79.7245992084696,24.4476495099993,0 79.7245991984444,24.4476471404172,0 79.7245990526261,24.4476447745801,0 79.7245987714162,24.4476424190048,0 79.7245983555893,24.4476400801796,0 79.724597806291,24.447637764547,0 79.7245971250342,24.4476354784854,0 79.7245963136954,24.4476332282917,0 79.7245953745095,24.4476310201642,0 79.7245943100636,24.4476288601851,0 79.7245931232896,24.4476267543041,0 79.7245918174566,24.4476247083219,0 79.7245903961615,24.4476227278743,0 79.7245888633192,24.4476208184163,0 79.724587223152,24.4476189852076,0 79.7245805231513,24.4476118852092,0 79.7245787305104,24.4476100860053,0 79.7245768345082,24.4476083778967,0 79.7245748406602,24.4476067658523,0 79.7245727547668,24.4476052545618,0 79.7245705828959,24.4476038484216,0 79.7245683313659,24.4476025515223,0 79.7245660067264,24.4476013676367,0 79.7245636157403,24.4476003002089,0 79.7245611653629,24.447599352344,0 79.7245586627227,24.4475985267995,0 79.7245561151002,24.447597825977,0 79.7245535299064,24.4475972519152,0 79.7245424517979,24.4475950797384,0 79.7245425463376,24.4475948906589,0 79.7245435471448,24.4475927441022,0 79.7245444254426,24.4475905530703,0 79.7245451788841,24.447588323418,0 79.7245458054558,24.4475860611032,0 79.7245463034837,24.4475837721711,0 79.7245466716369,24.447581462738,0 79.7245469089316,24.447579138975,0 79.7245470147338,24.4475768070915,0 79.7245469887607,24.4475744733186,0 79.7245468310819,24.4475721438924,0 79.7245465421185,24.4475698250374,0 79.7245461226429,24.4475675229499,0 79.7245455737758,24.4475652437815,0 79.7245448969839,24.4475629936222,0 79.7245440940757,24.4475607784849,0 79.7245431671967,24.4475586042886,0 79.7245421188237,24.4475564768431,0 79.724540951758,24.4475544018331,0 79.7245396691181,24.4475523848035,0 79.7245382743315,24.4475504311438,0 79.7245367711251,24.4475485460746,0 79.7245351635159,24.447546734633,0 79.7245334557995,24.4475450016594,0 79.724531652539,24.4475433517845,0 79.7245297585532,24.4475417894169,0 79.7245277789029,24.4475403187316,0 79.724525718878,24.4475389436584,0 79.7244950188822,24.4475195436641,0 79.7244929890072,24.4475183273153,0 79.7244908962479,24.4475172038152,0 79.7244887456678,24.4475161758822,0 79.7244865424708,24.4475152460037,0 79.7244842919878,24.4475144164295,0 79.7244819996641,24.447513689167,0 79.7244796710465,24.4475130659759,0 79.7244773117693,24.4475125483641,0 79.7244637507311,24.4475098942171,0 79.7244650609621,24.4475091023733,0 79.7244671750947,24.4475076709575,0 79.7244692028846,24.4475061384296,0 79.7244711385678,24.4475045091459,0 79.724472976642,24.4475027877378,0 79.7244747118824,24.4475009790983,0 79.7244763393565,24.4474990883687,0 79.7244778544381,24.4474971209234,0 79.724496254434,24.4474718209183,0 79.7244976428548,24.4474697977619,0 79.7244989124175,24.4474677102021,0 79.7245000595669,24.4474655640849,0 79.7245010810904,24.4474633654202,0 79.7245019741273,24.4474611203654,0 79.7245027361768,24.4474588352074,0 79.7245033651048,24.4474565163459,0 79.72450385915,24.4474541702744,0 79.724504216929,24.447451803563,0 79.7245044374397,24.4474494228396,0 79.7245045200647,24.4474470347712,0 79.7245044645726,24.4474446460453,0 79.7245042711189,24.4474422633514,0 79.7245039402452,24.4474398933621,0 79.7245034728781,24.4474375427143,0 79.7245028703265,24.4474352179908,0 79.7245021342779,24.447432925702,0 79.7245012667934,24.447430672267,0 79.7245002703024,24.4474284639966,0 79.7244991475954,24.4474263070747,0 79.7244979018167,24.4474242075418,0 79.7244965364548,24.4474221712773,0 79.7244950553333,24.4474202039837,0 79.7244934626001,24.4474183111702,0 79.7244917627154,24.4474164981375,0 79.7244899604398,24.4474147699629,0 79.7244880608202,24.447413131486,0 79.7244860691764,24.4474115872952,0 79.724483991086,24.4474101417148,0 79.7244818323683,24.4474087987932,0 79.7244795990688,24.4474075622911,0 79.7244772974416,24.4474064356712,0 79.7244749339323,24.4474054220885,0 79.7244725151597,24.4474045243814,0 79.7244700478973,24.447403745064,0 79.7244675390545,24.4474030863186,0 79.7244649956572,24.44740254999,0 79.724462424828,24.4474021375802,0 79.7244598337661,24.4474018502441,0 79.7244572297278,24.4474016887863,0 79.7244546200054,24.447401653659,0 79.7243880416491,24.4474023704164,0 79.7243970259695,24.4473991617294,0 79.724399461502,24.4473982223149,0 79.7244018385673,24.4473971648194,0 79.7244041503397,24.4473959922795,0 79.724406390181,24.4473947080619,0 79.7244085516596,24.4473933158544,0 79.724410628569,24.4473918196546,0 79.7244126149454,24.4473902237587,0 79.7244145050849,24.4473885327493,0 79.7244162935601,24.4473867514821,0 79.7244179752355,24.4473848850719,0 79.7244195452823,24.4473829388781,0 79.724420999192,24.4473809184889,0 79.7244325991889,24.4473638184856,0 79.7244338957892,24.4473617912734,0 79.7244350754527,24.4473597050693,0 79.7244361349859,24.447357565521,0 79.7244370715205,24.4473553784204,0 79.7244378825211,24.4473531496885,0 79.7244385657923,24.4473508853586,0 79.7244391194844,24.4473485915606,0 79.7244395420985,24.4473462745041,0 79.7244398324905,24.4473439404617,0 79.7244399898743,24.447341595752,0 79.7244400138238,24.4473392467224,0 79.7244399042743,24.447336899732,0 79.7244397606232,24.4473355158431,0 79.7244406074047,24.4473350622122,0 79.7244427475474,24.4473337747218,0 79.7244448118022,24.4473323872753,0 79.7244467946038,24.4473309036133,0 79.7244486906063,24.4473293277358,0 79.724450494698,24.4473276638915,0 79.7244522020149,24.4473259165664,0 79.7244538079539,24.4473240904713,0 79.7244553081854,24.4473221905294,0 79.7244566986646,24.4473202218632,0 79.7244579756427,24.4473181897804,0 79.7244591356768,24.4473160997596,0 79.7244601756395,24.4473139574356,0 79.7244610927269,24.4473117685843,0 79.7244618844664,24.4473095391071,0 79.7244625487236,24.4473072750147,0 79.7244630837075,24.4473049824113,0 79.7244634879757,24.4473026674779,0 79.7244637604384,24.4473003364558,0 79.724463900361,24.4472979956295,0 79.7244639073662,24.4472956513102,0 79.7244637814352,24.4472933098183,0 79.7244635229075,24.4472909774665,0 79.72446313248,24.4472886605431,0 79.7244630959352,24.4472884996308,0 79.7243181343218,24.4471694592549,0</coordinates></LinearRing></outerBoundaryIs></Polygon>
  </Placemark>
  
    </Document>
</kml>