<?xml version="1.0" encoding="UTF-8"?>
<kml xmlns="http://www.opengis.net/kml/2.2">
    <Document>
        <Placemark xmlns:ns0="http://www.opengis.net/kml/2.2">
	<Style><LineStyle><color>ff0000ff</color></LineStyle><PolyStyle><fill>0</fill></PolyStyle></Style>
	<ExtendedData><SchemaData schemaUrl="#Wave23_v27MAR2025">
		<SimpleData name="area(ha)">0.610677495983540</SimpleData>
		<SimpleData name="site_id">230025_1.1</SimpleData>
		<SimpleData name="Land_parc">230025</SimpleData>
		<SimpleData name="district">Chhatarpur</SimpleData>
		<SimpleData name="block">Bijawar</SimpleData>
		<SimpleData name="village">Matipura</SimpleData>
		<SimpleData name="Land Type">Farmer</SimpleData>
		<SimpleData name="Instance">Wave 2023</SimpleData>
	</SchemaData></ExtendedData>
      <Polygon><outerBoundaryIs><LinearRing><coordinates>79.6891743,24.4468006,0 79.6891576733593,24.4467633213294,0 79.6891458,24.4467367,0 79.6891342,24.4467197,0 79.6891147,24.4466977,0 79.6890798,24.446656,0 79.6890709,24.4466442,0 79.6890559,24.4466211,0 79.689042078355,24.4465949375276,0 79.6890363234226,24.446581665426,0 79.6890242018816,24.4465537105576,0 79.6889812983453,24.4464517279949,0 79.6889193265706,24.4464712565771,0 79.6888835736237,24.4465038042075,0 79.6888359030279,24.4465103137325,0 79.6887870406671,24.4465374367499,0 79.68875367125,24.4465493708757,0 79.6887203018329,24.446554795478,0 79.688684548886,24.4465743240443,0 79.6886716295667,24.4465819991238,0 79.688608,24.4466198,0 79.6885851,24.4466273,0 79.6885595,24.4466454,0 79.6885445,24.4466635,0 79.6885057841515,24.4466546081182,0 79.688477181794,24.4466828160239,0 79.6884390453173,24.4467121088424,0 79.6884593750408,24.4467572661475,0 79.6884688394397,24.4467782888887,0 79.6885165100356,24.4468401292284,0 79.6885415370984,24.4468965449505,0 79.6885677559261,24.4469388567254,0 79.6885832488698,24.4469605550661,0 79.6886663488512,24.4470922805234,0 79.6886692,24.4470968,0 79.6886766,24.4471132,0 79.6887246065678,24.4471765771127,0 79.6887570233024,24.4472113571707,0 79.6887637604922,24.4472114155941,0 79.6887636871119,24.4472185067983,0 79.6887677239254,24.4472228379109,0 79.6887923624154,24.4472690986922,0 79.6888200807167,24.4473181631386,0 79.6888308600561,24.4473504054787,0 79.6889467371633,24.44751386149,0 79.6889580368782,24.4475025952263,0 79.6889967912889,24.4474639555201,0 79.689065913653,24.4474444270917,0 79.6891421866063,24.4474227288343,0 79.68915621045,24.4474171435001,0 79.6892095872139,24.447395884899,0 79.6892184595597,24.4473923512678,0 79.6893018831025,24.4473576340399,0 79.6892790265551,24.4472904105542,0 79.6892568410852,24.4472251607106,0 79.6892399113279,24.4471753684368,0 79.6892409,24.4471361,0 79.6892453,24.4470951,0 79.6892561,24.447075,0 79.6892774519221,24.4470560277205,0 79.6893000954552,24.4470310746473,0 79.6893286978127,24.4470110036936,0 79.6893519372282,24.4469887629033,0 79.6893894778224,24.4469654371922,0 79.6893960325293,24.446924752802,0 79.6893900737049,24.446909021501,0 79.6894067584134,24.4468748465988,0 79.6893769,24.4468497,0 79.6893658,24.4468269,0 79.6892998,24.446812,0 79.6892879,24.4468177,0 79.6892609959161,24.4468234975133,0 79.6892582,24.4468241,0 79.6891743,24.4468006,0</coordinates></LinearRing></outerBoundaryIs></Polygon>
  </Placemark>
  
    </Document>
</kml>