<?xml version="1.0" encoding="UTF-8"?>
<kml xmlns="http://www.opengis.net/kml/2.2">
    <Document>
        <Placemark xmlns:ns0="http://www.opengis.net/kml/2.2">
	<Style><LineStyle><color>ff0000ff</color></LineStyle><PolyStyle><fill>0</fill></PolyStyle></Style>
	<ExtendedData><SchemaData schemaUrl="#Wave23_v27MAR2025">
		<SimpleData name="area(ha)">7.068312336594652</SimpleData>
		<SimpleData name="site_id">230074_1.3</SimpleData>
		<SimpleData name="Land_parc">230074</SimpleData>
		<SimpleData name="district">Panna</SimpleData>
		<SimpleData name="block">Shahnagar</SimpleData>
		<SimpleData name="village">???????</SimpleData>
		<SimpleData name="Land Type">Community</SimpleData>
		<SimpleData name="Instance">Wave 2023</SimpleData>
	</SchemaData></ExtendedData>
      <Polygon><outerBoundaryIs><LinearRing><coordinates>79.9674717706403,23.9377639454161,0 79.9675236992382,23.9377379811172,0 79.9675629623244,23.9377050507868,0 79.9674907689078,23.9376252580632,0 79.9673995772237,23.937534066379,0 79.9672425248788,23.9374416081437,0 79.9671513331946,23.9373668816248,0 79.967094338392,23.9373428171526,0 79.9670690073687,23.9373124199245,0 79.9669626170705,23.9372351603032,0 79.9668676257328,23.937165499989,0 79.9667460368207,23.9371148379422,0 79.9666649775459,23.9370616427931,0 79.9666143154991,23.9370287124628,0 79.9665585872477,23.936970451109,0 79.9664673955636,23.9368944580389,0 79.9662698135812,23.9367779353314,0 79.96589998064,23.9366335484981,0 79.9657277296811,23.9365702209397,0 79.9656314717923,23.936549956121,0 79.9655377470058,23.9365018271766,0 79.9654265,23.9364879,0 79.9653448,23.9364588,0 79.9651757,23.9364544,0 79.9650597,23.9364563,0 79.9648661,23.936428,0 79.9647856,23.9364242,0 79.9647092,23.9364229,0 79.9645603,23.9364526,0 79.9644899,23.9364361,0 79.9642315,23.93642,0 79.9640926,23.9363946,0 79.9638874308331,23.9363979699808,0 79.9637582426139,23.9364030361855,0 79.9636847826461,23.9364005030831,0 79.9635682599386,23.9364081023901,0 79.9634922,23.9364022,0 79.9627728658047,23.9365068933813,0 79.9622479,23.9365429,0 79.9621161,23.9365301,0 79.96205,23.9365323,0 79.9618178862235,23.9365854195537,0 79.9617216283347,23.9365854195537,0 79.9615696421945,23.9365879526561,0 79.9614429870776,23.9369983152347,0 79.9614149275036,23.9371025655048,0 79.9613973912356,23.937226294445,0 79.9614125898496,23.9374264095297,0 79.961429,23.9374716,0 79.9615964,23.9374813,0 79.9617646910745,23.9374390750414,0 79.9619420082381,23.9375378660325,0 79.9620635971503,23.9376569218424,0 79.9620433323316,23.9374745384741,0 79.9621547888344,23.9375327998279,0 79.9623625032261,23.9377050507868,0 79.9624815590359,23.9376594549447,0 79.9625854162317,23.9376189253073,0 79.9626158134598,23.9374720053718,0 79.9627348692696,23.9373554826642,0 79.9627917677714,23.9372715893992,0 79.9629020540239,23.9372769564918,0 79.9630211098337,23.9372060296264,0 79.9631604304623,23.9371325696586,0 79.9632161587137,23.9371604337843,0 79.9632136256114,23.9372946882081,0 79.9632693538628,23.9373453502549,0 79.9632516221464,23.9374188102227,0 79.9631984269974,23.9374669391671,0 79.9631123015179,23.9375024025998,0 79.9630439077548,23.9374669391671,0 79.9630717718805,23.9375783956699,0 79.9630692387781,23.9376746535587,0 79.9631857614857,23.9376923852751,0 79.9632921517838,23.9376771866611,0 79.9633326814212,23.9376797197634,0 79.9633301483189,23.9377379811172,0 79.9632870855792,23.9377607790382,0 79.9632794862721,23.9378393052106,0 79.9633732110586,23.9379684934299,0 79.963383343468,23.9380343540906,0 79.9634416048217,23.938082483035,0 79.9635758592456,23.938074883728,0 79.9636923819531,23.9380267547836,0 79.9637531764092,23.9381103471607,0 79.96381903707,23.9381635423098,0 79.9639507583915,23.9382749988126,0 79.9639659570055,23.9380875492397,0 79.9640090197452,23.9380710840745,0 79.9641123,23.9379951,0 79.9642159,23.9379861,0 79.964313,23.9379132,0 79.9643955,23.9377421,0 79.9644464,23.9375673,0 79.9645265,23.9375064,0 79.9645873,23.9374517,0 79.9646979,23.9373801,0 79.9648225,23.93736,0 79.9649915,23.9372984,0 79.9649966,23.9372889,0 79.964999,23.9372909,0 79.9650121,23.9372784,0 79.9650131,23.937198,0 79.9650042,23.93711,0 79.9651485,23.9370961,0 79.9652081,23.93709,0 79.9652674,23.9370775,0 79.9653875,23.9370548,0 79.9654072,23.9370414,0 79.9654915,23.9370419,0 79.9655524,23.9370622,0 79.9655734,23.9370854,0 79.9656455,23.9371619,0 79.9656924,23.9372382,0 79.9657337,23.9372761,0 79.9657774,23.9373546,0 79.9658351,23.9374213,0 79.9658826,23.9375068,0 79.965925944939,23.9375519564143,0 79.9659886,23.9376876,0 79.9660065,23.9377186,0 79.9660364,23.9377722,0 79.9660537,23.937827,0 79.966065,23.9378843,0 79.9661469,23.9379775,0 79.9662064,23.93806,0 79.9662803,23.9381384,0 79.9663705043992,23.9381592676997,0 79.9664813276264,23.938176999416,0 79.9665611203501,23.9382010638882,0 79.9667001243408,23.9382284530572,0 79.9667316298011,23.938231936073,0 79.9667504697497,23.9382327276674,0 79.9667742175842,23.9382360523643,0 79.9668350120402,23.9382468180492,0 79.9669111,23.9382215,0 79.9669921,23.9381709,0 79.9670445,23.9381363,0 79.9670801,23.938118,0 79.967146,23.9380355,0 79.9671934,23.9379941,0 79.9672208,23.9379738,0 79.9672705,23.9379262,0 79.9673235,23.9378829,0 79.9673801,23.9378255,0 79.9674219,23.9377865,0 79.9674394735855,23.937777877479,0 79.9674559387507,23.9377721779987,0 79.9674717706403,23.9377639454161,0</coordinates></LinearRing></outerBoundaryIs></Polygon>
  </Placemark>
  
    </Document>
</kml>