<?xml version="1.0" encoding="UTF-8"?>
<kml xmlns="http://www.opengis.net/kml/2.2">
    <Document>
        <Placemark xmlns:ns0="http://www.opengis.net/kml/2.2">
	<Style><LineStyle><color>ff0000ff</color></LineStyle><PolyStyle><fill>0</fill></PolyStyle></Style>
	<ExtendedData><SchemaData schemaUrl="#Wave23_v27MAR2025">
		<SimpleData name="area(ha)">0.714808349709038</SimpleData>
		<SimpleData name="site_id">230098_1.1</SimpleData>
		<SimpleData name="Land_parc">230098</SimpleData>
		<SimpleData name="district">Damoh</SimpleData>
		<SimpleData name="block">Hatta</SimpleData>
		<SimpleData name="village">Surajpura</SimpleData>
		<SimpleData name="Land Type">Farmer</SimpleData>
		<SimpleData name="Instance">Wave 2023</SimpleData>
	</SchemaData></ExtendedData>
      <MultiGeometry><Polygon><outerBoundaryIs><LinearRing><coordinates>79.4937801959668,24.3876898862438,0 79.4937710008386,24.3876510828011,0 79.4937702664024,24.3876479834793,0 79.4937654819348,24.3876870566212,0 79.4937801959668,24.3876898862438,0</coordinates></LinearRing></outerBoundaryIs></Polygon><Polygon><outerBoundaryIs><LinearRing><coordinates>79.4930679348967,24.3878594389353,0 79.4932817424179,24.3878647841233,0 79.4932777335269,24.3879543160228,0 79.493460806217,24.3879583249138,0 79.49345946992,24.3876817114332,0 79.4935650373836,24.3876857203242,0 79.4935623647896,24.3876135602858,0 79.493464815108,24.3876095513948,0 79.4934659774225,24.387531676346,0 79.4934106470327,24.3875374003703,0 79.4933231791891,24.3875356594203,0 79.4931754635325,24.3875238717271,0 79.4928909206122,24.387501164823,0 79.4929138,24.387623,0 79.4928980334264,24.3876861244543,0 79.4928767502909,24.3877713353907,0 79.4928766924729,24.3877762096733,0 79.4928755357151,24.3877761981638,0 79.4928599373325,24.3878386490599,0 79.4928328115618,24.3879961032821,0 79.4928645012302,24.3880176971064,0 79.4928674903455,24.3879449619437,0 79.4930625897086,24.3879489708348,0 79.4930679348967,24.3878594389353,0</coordinates></LinearRing></outerBoundaryIs></Polygon><Polygon><outerBoundaryIs><LinearRing><coordinates>79.4937639233477,24.387785034837,0 79.4937807693684,24.3877852023518,0 79.4937867353612,24.3877174824759,0 79.4937813866464,24.38769491091,0 79.4937649936852,24.387694747901,0 79.4937657728669,24.3876290207504,0 79.4937645786753,24.3876239812584,0 79.4937662730797,24.3875868256442,0 79.4937667456239,24.3875469644145,0 79.4936440873876,24.3875478248382,0 79.4935258547299,24.3875254819118,0 79.4934711552551,24.3875311406893,0 79.4934703207652,24.3876015198441,0 79.493568901844,24.3876025002815,0 79.4935678313718,24.3876927872104,0 79.493469250223,24.387691806769,0 79.4934660385649,24.3879626675368,0 79.4932688758631,24.3879607064371,0 79.493269946561,24.3878704195238,0 79.4930727840202,24.3878684581758,0 79.4930717131823,24.3879587450809,0 79.4928745505224,24.3879567834683,0 79.4928737531824,24.3880240015254,0 79.4929330336547,24.3880643961009,0 79.4929090019828,24.3881545854934,0 79.4928072831975,24.3882124570591,0 79.4928058188285,24.3882306417575,0 79.4930465541445,24.3882616643346,0 79.4931641482812,24.3882576554436,0 79.4932710520418,24.3882763636017,0 79.4934033454456,24.3882750273047,0 79.4935663736806,24.3882910628688,0 79.4936692685502,24.3882736910077,0 79.4937803531442,24.3882771090182,0 79.4937825251666,24.3882663207155,0 79.4936827,24.3882346,0 79.4936712,24.3881546,0 79.4936924334216,24.3881182156044,0 79.4937752609435,24.3881043183385,0 79.493771347504,24.3880560013948,0 79.4936621308645,24.3880549153087,0 79.4936632012877,24.3879646283802,0 79.4937605108257,24.3879655960586,0 79.4937601367467,24.3879730241809,0 79.4936679322532,24.3879743604779,0 79.4936679322532,24.3880518657044,0 79.4937710125342,24.3880518657175,0 79.4937672488905,24.3880053981894,0 79.4937708161245,24.3878981812274,0 79.493780489532,24.387788378768,0 79.4937694908258,24.3877872788968,0 79.4937621744282,24.3879325617212,0 79.4937639233477,24.387785034837,0</coordinates></LinearRing></outerBoundaryIs></Polygon></MultiGeometry>
  </Placemark>
  
    </Document>
</kml>