<?xml version="1.0" encoding="UTF-8"?>
<kml xmlns="http://www.opengis.net/kml/2.2">
    <Document>
        <Placemark xmlns:ns0="http://www.opengis.net/kml/2.2">
	<Style><LineStyle><color>ff0000ff</color></LineStyle><PolyStyle><fill>0</fill></PolyStyle></Style>
	<ExtendedData><SchemaData schemaUrl="#Wave23_v27MAR2025">
		<SimpleData name="area(ha)">0.318940465402792</SimpleData>
		<SimpleData name="site_id">230045_1.1</SimpleData>
		<SimpleData name="Land_parc">230045</SimpleData>
		<SimpleData name="district">Chhatarpur</SimpleData>
		<SimpleData name="block">Bijawar</SimpleData>
		<SimpleData name="village">Patna</SimpleData>
		<SimpleData name="Land Type">Farmer</SimpleData>
		<SimpleData name="Instance">Wave 2023</SimpleData>
	</SchemaData></ExtendedData>
      <Polygon><outerBoundaryIs><LinearRing><coordinates>79.7866664994087,24.408388443668,0 79.7866953442498,24.4084462305768,0 79.7867137119143,24.4084830277884,0 79.7867705259725,24.4085906630355,0 79.7867872782038,24.40865696435,0 79.7867919467504,24.4086570017631,0 79.7867917769449,24.4086747692777,0 79.7867956,24.4086899,0 79.7868607825076,24.4088381626163,0 79.7868957551663,24.408917710466,0 79.7869548255408,24.408924165341,0 79.7871060456994,24.4088639198284,0 79.7872837804089,24.4087879961647,0 79.7872923787399,24.4087843231727,0 79.7872840187595,24.4087630464705,0 79.7872374687491,24.4086445734881,0 79.7871881905523,24.4085176447414,0 79.7871389123555,24.4083778947617,0 79.7870825944162,24.4082355804031,0 79.787066372499,24.4082076776058,0 79.7870319082709,24.4081483967528,0 79.7869831793205,24.4081603361782,0 79.7868721270165,24.4082313402107,0 79.7867587118976,24.4083001925677,0 79.7866573939751,24.4083702020977,0 79.7866648149423,24.4083850690557,0 79.7866664994087,24.408388443668,0</coordinates></LinearRing></outerBoundaryIs></Polygon>
  </Placemark>
  
    </Document>
</kml>