<?xml version="1.0" encoding="UTF-8"?>
<kml xmlns="http://www.opengis.net/kml/2.2">
    <Document>
        <Placemark xmlns:ns0="http://www.opengis.net/kml/2.2">
	<Style><LineStyle><color>ff0000ff</color></LineStyle><PolyStyle><fill>0</fill></PolyStyle></Style>
	<ExtendedData><SchemaData schemaUrl="#Wave23_v27MAR2025">
		<SimpleData name="area(ha)">0.482610935504262</SimpleData>
		<SimpleData name="site_id">230031_1.2</SimpleData>
		<SimpleData name="Land_parc">230031</SimpleData>
		<SimpleData name="district">Chhatarpur</SimpleData>
		<SimpleData name="block">Bijawar</SimpleData>
		<SimpleData name="village">Patna</SimpleData>
		<SimpleData name="Land Type">Farmer</SimpleData>
		<SimpleData name="Instance">Wave 2023</SimpleData>
	</SchemaData></ExtendedData>
      <MultiGeometry><Polygon><outerBoundaryIs><LinearRing><coordinates>79.7914001,24.4100756,0 79.7914136364133,24.4100552303158,0 79.7914137001149,24.4100485398635,0 79.7914180593392,24.4100485746659,0 79.7914625,24.4099817,0 79.7914965585499,24.4098685919466,0 79.7915146019845,24.4098086698149,0 79.7915146370105,24.4098049907493,0 79.7914222092352,24.4097776936903,0 79.7914162793458,24.4097776463487,0 79.7914162955239,24.4097759471683,0 79.7914149629371,24.4097755536096,0 79.7913406020453,24.4097582122164,0 79.7912970737183,24.4098094106086,0 79.791282564276,24.4098622605401,0 79.7912553590717,24.4098886854976,0 79.7912417564696,24.4099225424663,0 79.7912236196667,24.4099530963082,0 79.7911909734215,24.4100109008539,0 79.7912401,24.4100544,0 79.7913183,24.4100956,0 79.7914001,24.4100756,0</coordinates></LinearRing></outerBoundaryIs></Polygon><Polygon><outerBoundaryIs><LinearRing><coordinates>79.7977067385587,24.413292708809,0 79.7977041816236,24.4132923992892,0 79.7977016105114,24.4132922126185,0 79.7976990322569,24.4132921493076,0 79.7976964539141,24.4132922095296,0 79.7976938825374,24.4132923931199,0 79.7976913251621,24.4132926995762,0 79.7976887887854,24.4132931280599,0 79.7976862803467,24.4132936773987,0 79.7976838067091,24.4132943460897,0 79.7976813746406,24.4132951323033,0 79.7976789907953,24.4132960338883,0 79.7976766616955,24.4132970483781,0 79.7976743937136,24.413298172997,0 79.7976721930549,24.4132994046679,0 79.7976700657403,24.4133007400211,0 79.7976680175903,24.4133021754031,0 79.7976660542086,24.4133037068864,0 79.7976641809671,24.4133053302811,0 79.797662402991,24.4133070411455,0 79.7976607251448,24.4133088347985,0 79.7976591520192,24.4133107063329,0 79.7976576879183,24.4133126506279,0 79.7976563368479,24.4133146623641,0 79.7976551025045,24.4133167360372,0 79.7976539882654,24.4133188659736,0 79.797652997179,24.4133210463459,0 79.7976521319571,24.4133232711885,0 79.7976513949669,24.4133255344141,0 79.7976507882248,24.4133278298306,0 79.7976503133909,24.4133301511577,0 79.7976499717644,24.4133324920441,0 79.79764976428,24.4133348460852,0 79.7976496915052,24.4133372068402,0 79.7976497536394,24.4133395678502,0 79.7976499505124,24.4133419226553,0 79.7976502815857,24.4133442648128,0 79.7976507459534,24.4133465879144,0 79.7976513423449,24.4133488856042,0 79.7976520691287,24.4133511515956,0 79.7976529243162,24.4133533796888,0 79.7976539055675,24.4133555637878,0 79.7976550101981,24.4133576979167,0 79.7976562351855,24.4133597762365,0 79.7976575771782,24.4133617930611,0 79.7976590325045,24.4133637428722,0 79.7976605971827,24.4133656203351,0 79.7976622669317,24.4133674203132,0 79.797664037183,24.4133691378815,0 79.7976659030932,24.4133707683409,0 79.7976678595573,24.4133723072303,0 79.7976699012221,24.4133737503393,0 79.7977255038183,24.413410968215,0 79.7977320608276,24.413419362861,0 79.7977487029772,24.4134673623734,0 79.797749534004,24.4134695611138,0 79.7977504876256,24.4134717177347,0 79.7977515613095,24.4134738265092,0 79.7977527522047,24.4134758818373,0 79.7977540571487,24.4134778782612,0 79.7977554726761,24.4134798104792,0 79.7977569950281,24.4134816733603,0 79.7977586201619,24.4134834619576,0 79.7977603437621,24.4134851715214,0 79.7977621612515,24.413486797512,0 79.7977640678038,24.4134883356115,0 79.7977660583561,24.4134897817354,0 79.7977681276224,24.4134911320435,0 79.7977702701078,24.4134923829501,0 79.7977724801228,24.4134935311333,0 79.7977747517987,24.4134945735442,0 79.7977770791031,24.4134955074145,0 79.7977794558556,24.4134963302643,0 79.7977818757449,24.4134970399086,0 79.7977843323447,24.4134976344629,0 79.7977868191317,24.4134981123483,0 79.797789329502,24.4134984722959,0 79.7977918567893,24.4134987133496,0 79.7977943942823,24.4134988348695,0 79.7977969352427,24.4134988365328,0 79.7977994729228,24.4134987183351,0 79.7978070703679,24.413498184461,0 79.7978415361774,24.4135100585872,0 79.7978439608335,24.413510828589,0 79.7978464259572,24.4135114820339,0 79.797848924871,24.4135120171516,0 79.7978514508058,24.4135124324928,0 79.7978539969191,24.4135127269323,0 79.797856556314,24.4135128996725,0 79.7978591220576,24.4135129502454,0 79.7978616871996,24.4135128785142,0 79.7978642447917,24.4135126846731,0 79.7978667879055,24.4135123692472,0 79.7978693096525,24.4135119330909,0 79.7978718032014,24.4135113773857,0 79.7978742617978,24.4135107036369,0 79.7978766787817,24.4135099136695,0 79.7978790476059,24.4135090096236,0 79.7978813618538,24.4135079939479,0 79.7978836152563,24.4135068693937,0 79.7978858017095,24.4135056390074,0 79.7978879152905,24.4135043061217,0 79.7978899502741,24.4135028743473,0 79.7978919011478,24.4135013475626,0 79.7978937626271,24.4134997299033,0 79.7978955296695,24.4134980257515,0 79.7978971974885,24.4134962397233,0 79.7978987615661,24.4134943766569,0 79.7979002176657,24.413492441599,0 79.7979015618428,24.4134904397912,0 79.7979027904563,24.4134883766562,0 79.7979039001782,24.4134862577826,0 79.7979048880023,24.4134840889101,0 79.797905751253,24.4134818759138,0 79.7979064875917,24.4134796247883,0 79.7979070950238,24.4134773416315,0 79.797907571904,24.4134750326282,0 79.7979079169404,24.4134727040329,0 79.7979081291985,24.4134703621534,0 79.7979082081032,24.4134680133336,0 79.7979081534409,24.4134656639359,0 79.797907694181,24.4134567849792,0 79.7979079250491,24.4134569865575,0 79.7979098986921,24.4134585364081,0 79.7979119588089,24.4134599888438,0 79.7979140996717,24.4134613398262,0 79.797916315328,24.4134625855991,0 79.7979185996173,24.4134637226987,0 79.7979209461886,24.4134647479635,0 79.7979233485173,24.4134656585429,0 79.7979257999241,24.4134664519049,0 79.797928293593,24.4134671258439,0 79.7979308225908,24.4134676784859,0 79.7979333798858,24.4134681082944,0 79.7979359583678,24.4134684140744,0 79.7979699583796,24.413471614076,0 79.7979726600094,24.4134717998352,0 79.7979753687033,24.4134718494429,0 79.7979780762843,24.4134717627493,0 79.7980077762948,24.4134700627492,0 79.7980108095358,24.413469802784,0 79.7980138194549,24.4134693717935,0 79.7980521194681,24.4134627717917,0 79.7980548306886,24.4134622318479,0 79.7980575044493,24.4134615531182,0 79.7980601322842,24.4134607377516,0 79.7980627058726,24.4134597883298,0 79.7980880058796,24.4134496883268,0 79.7980903418539,24.4134486884325,0 79.7980926175486,24.4134475780847,0 79.79809482674,24.41344636032,0 79.7980969633867,24.4134450384687,0 79.7980990216452,24.4134436161458,0 79.7981009958868,24.4134420972411,0 79.7981028807123,24.4134404859083,0 79.7981046709671,24.4134387865542,0 79.7981063617553,24.4134370038261,0 79.7981079484529,24.4134351425993,0 79.7981094267207,24.413433207964,0 79.798110792516,24.4134312052109,0 79.7981120421036,24.4134291398172,0 79.7981131720661,24.4134270174311,0 79.7981141793134,24.413424843857,0 79.7981150610909,24.4134226250391,0 79.798115814987,24.4134203670455,0 79.7981164389402,24.4134180760511,0 79.798116931244,24.4134157583215,0 79.798117290552,24.4134134201949,0 79.7981175158817,24.4134110680659,0 79.7981176066168,24.4134087083667,0 79.7981175625093,24.4134063475508,0 79.7981173836797,24.4134039920745,0 79.7981172364461,24.4134028898333,0 79.7981297596805,24.413399609937,0 79.7981322369722,24.4133988959832,0 79.7981346697749,24.4133980635842,0 79.7981370513396,24.4133971150493,0 79.7981393750594,24.4133960530097,0 79.798141634488,24.4133948804119,0 79.7981438233575,24.4133936005086,0 79.7981459355955,24.4133922168507,0 79.7981479653424,24.4133907332765,0 79.7981499069673,24.4133891539017,0 79.7981517550839,24.4133874831078,0 79.7981535045653,24.4133857255298,0 79.7981548263342,24.4133842483813,0 79.7981668823646,24.4133876494,0 79.7981693303213,24.4133882771823,0 79.7981718103593,24.4133887886043,0 79.7981743158868,24.4133891823067,0 79.798176840244,24.4133894572429,0 79.798179376721,24.4133896126822,0 79.798181918576,24.4133896482114,0 79.7981844590525,24.4133895637361,0 79.7981869913981,24.4133893594808,0 79.7982357914153,24.4133842594797,0 79.7982384595401,24.4133839127695,0 79.7982411029942,24.4133834331024,0 79.7982437138816,24.4133828219113,0 79.798246284404,24.4133820810217,0 79.7982488068833,24.4133812126467,0 79.7982512737849,24.4133802193799,0 79.7982536777404,24.4133791041882,0 79.7982560115694,24.4133778704026,0 79.7982582683008,24.4133765217084,0 79.7982597148121,24.4133755500589,0 79.7982828667651,24.4133842028071,0 79.7982852873134,24.4133850403074,0 79.7982877525093,24.4133857603818,0 79.798290255564,24.4133863610474,0 79.7982927895845,24.41338684065,0 79.7982953475923,24.4133871978688,0 79.7982979225431,24.4133874317201,0 79.7983005073458,24.4133875415599,0 79.7983030948821,24.4133875270858,0 79.7983056780263,24.4133873883375,0 79.7983082496647,24.4133871256972,0 79.7983108027155,24.4133867398881,0 79.7983133301477,24.4133862319728,0 79.7983158250013,24.4133856033499,0 79.7983182804056,24.4133848557506,0 79.7983206895989,24.4133839912337,0 79.7983230459465,24.41338301218,0 79.7983253429593,24.4133819212856,0 79.7983275743116,24.4133807215548,0 79.7983297338587,24.4133794162914,0 79.7983318156533,24.4133780090899,0 79.7983338139626,24.4133765038256,0 79.7983357232834,24.4133749046439,0 79.7983375383576,24.4133732159487,0 79.7983392541869,24.4133714423903,0 79.798340866046,24.413369588853,0 79.7983423694961,24.4133676604411,0 79.7983437603969,24.4133656624653,0 79.7983450349181,24.4133636004278,0 79.7983461895497,24.413361480007,0 79.7983472211121,24.4133593070424,0 79.7983481267646,24.4133570875181,0 79.7983489040129,24.4133548275462,0 79.7983495507168,24.4133525333505,0 79.7983500650953,24.413350211249,0 79.7983504457319,24.4133478676363,0 79.7983506915783,24.4133455089664,0 79.7983508019576,24.4133431417349,0 79.7983507765657,24.4133407724608,0 79.7983506774674,24.413339317732,0 79.7983569993917,24.4133405780504,0 79.7984031762284,24.4133589210238,0 79.798405609737,24.4133598180433,0 79.7984080919008,24.4133605952864,0 79.7984106156942,24.413361250553,0 79.7984131739739,24.4133617819888,0 79.7984157594991,24.4133621880893,0 79.7984183649516,24.4133624677053,0 79.798420982957,24.4133626200452,0 79.7984236061053,24.413362644678,0 79.7984262269721,24.4133625415338,0 79.7984288381392,24.4133623109047,0 79.798431432216,24.4133619534434,0 79.79843365644,24.413361535126,0 79.7984348505937,24.413362427239,0 79.7984369563606,24.4133638373347,0 79.7984391406261,24.4133651434772,0 79.7984413972762,24.4133663420104,0 79.798443719994,24.4133674295793,0 79.7984461022779,24.4133684031397,0 79.7984485374596,24.4133692599664,0 79.7984510187226,24.4133699976611,0 79.7984535391214,24.4133706141587,0 79.7984560916011,24.4133711077337,0 79.7984586690168,24.4133714770045,0 79.7984612641539,24.4133717209373,0 79.7984638697482,24.4133718388494,0 79.7984664785064,24.4133718304107,0 79.7984690831259,24.4133716956449,0 79.7984716763161,24.4133714349292,0 79.7984742508183,24.4133710489933,0 79.7984767994259,24.4133705389176,0 79.7984793150051,24.4133699061299,0 79.7984817905143,24.4133691524013,0 79.7984842190241,24.4133682798418,0 79.7984865937368,24.4133672908937,0 79.7984889080052,24.4133661883254,0 79.7984911553513,24.4133649752229,0 79.7984933294844,24.4133636549821,0 79.7984954243187,24.4133622312984,0 79.7985071243202,24.4133538312962,0 79.7985091874619,24.413352265335,0 79.7985111546481,24.4133505990533,0 79.7985130200686,24.4133488373728,0 79.7985147782136,24.4133469854968,0 79.7985164238903,24.4133450488949,0 79.798517952238,24.4133430332871,0 79.7985193587425,24.4133409446268,0 79.7985206392496,24.4133387890831,0 79.7985217899771,24.4133365730226,0 79.7985275899738,24.4133245730208,0 79.7985285593648,24.4133224188471,0 79.798529406108,24.4133202217519,0 79.7985301279489,24.4133179875857,0 79.7985307229652,24.4133157222976,0 79.7985311895726,24.4133134319196,0 79.7985315265285,24.4133111225507,0 79.7985317329357,24.4133088003402,0 79.7985318082447,24.4133064714717,0 79.7985317522548,24.4133041421468,0 79.7985315651152,24.4133018185678,0 79.7985312473242,24.413299506922,0 79.798530799728,24.413297213365,0 79.7985302235186,24.413294944004,0 79.7985295202302,24.4132927048821,0 79.7985286917355,24.4132905019614,0 79.7985277402408,24.413288341108,0 79.7985266682797,24.4132862280759,0 79.7985254787066,24.4132841684916,0 79.7985241746891,24.4132821678395,0 79.7985227596996,24.413280231447,0 79.798521237506,24.4132783644702,0 79.7985196121616,24.4132765718806,0 79.7985178879944,24.4132748584515,0 79.7985160695955,24.4132732287455,0 79.7985141618069,24.4132716871022,0 79.7985121697089,24.4132702376267,0 79.7985100986059,24.4132688841786,0 79.798507954013,24.413267630362,0 79.7984942783065,24.4132600825691,0 79.7984715428994,24.4132402735064,0 79.7984726157512,24.4132393542706,0 79.7984743962872,24.4132376611577,0 79.7984760781848,24.4132358854914,0 79.7984776568858,24.4132340320838,0 79.7984791281116,24.413232105958,0 79.7984804638757,24.413230147521,0 79.7984923613956,24.4132403123939,0 79.7984942544724,24.4132418485294,0 79.7984962310876,24.4132432937502,0 79.7984982860399,24.4132446442534,0 79.7985004139217,24.413245896485,0 79.7985026091334,24.4132470471499,0 79.7985048658982,24.4132480932199,0 79.7985071782776,24.4132490319425,0 79.7985095401864,24.4132498608472,0 79.7985119454094,24.4132505777529,0 79.7985143876171,24.4132511807731,0 79.7985168603828,24.4132516683208,0 79.7985193571995,24.4132520391131,0 79.7985218714968,24.4132522921742,0 79.7985243966583,24.4132524268383,0 79.7985269260389,24.4132524427508,0 79.7985294529827,24.4132523398701,0 79.79853197084,24.4132521184667,0 79.798534472985,24.4132517791233,0 79.7985879921733,24.4132432309239,0 79.7985857886323,24.413244110646,0 79.7985834253024,24.4132451957079,0 79.7985811288817,24.4132463951976,0 79.7985789059718,24.413247705667,0 79.7985767629631,24.4132491233487,0 79.7985747060162,24.4132506441673,0 79.7985674060169,24.4132563441658,0 79.7985654908685,24.413257920474,0 79.798563668204,24.4132595861852,0 79.7985619429947,24.4132613367566,0 79.7985603199458,24.4132631674134,0 79.7985588034842,24.4132650731629,0 79.7985573977457,24.4132670488072,0 79.7985561065645,24.413269088958,0 79.798554933462,24.4132711880509,0 79.7985538816379,24.4132733403608,0 79.7985529539609,24.4132755400176,0 79.7985521529612,24.4132777810219,0 79.7985514808233,24.4132800572615,0 79.7985509393806,24.4132823625282,0 79.7985505301097,24.4132846905346,0 79.798550254127,24.4132870349312,0 79.7985501121851,24.4132893893241,0 79.7985501046712,24.4132917472917,0 79.7985502316057,24.413294102403,0 79.7985504926425,24.4132964482345,0 79.7985508870697,24.4132987783883,0 79.7985514138114,24.413301086509,0 79.7985520714311,24.4133033663015,0 79.7985528581352,24.4133056115478,0 79.798553771778,24.4133078161243,0 79.7985548098676,24.4133099740181,0 79.7985559695727,24.4133120793439,0 79.7985572477304,24.4133141263594,0 79.7985586408546,24.4133161094817,0 79.7985601451457,24.413318023302,0 79.7985617565008,24.4133198626005,0 79.7985634705252,24.4133216223607,0 79.7985652825441,24.413323297783,0 79.7985701825441,24.4133275977841,0 79.7985721383905,24.413329224361,0 79.7985741865788,24.4133307526736,0 79.7985763212283,24.4133321783337,0 79.7985785362099,24.4133334972481,0 79.7985808251642,24.4133347056298,0 79.798583181519,24.4133358000095,0 79.798585598509,24.4133367772449,0 79.7985880691943,24.4133376345302,0 79.7985905864812,24.4133383694039,0 79.7985931431423,24.4133389797563,0 79.7985957318367,24.4133394638347,0 79.7985983451319,24.4133398202493,0 79.7986369451452,24.4133441202513,0 79.798639484953,24.4133443422963,0 79.7986420339039,24.4133444437495,0 79.7986445851736,24.4133444243393,0 79.7986471319317,24.4133442841176,0 79.7986496673595,24.4133440234599,0 79.7986521846691,24.413343643064,0 79.7986546771208,24.4133431439484,0 79.7986571380416,24.4133425274493,0 79.7986595608429,24.4133417952173,0 79.798661939038,24.4133409492128,0 79.7986966390478,24.4133276492089,0 79.7986990300298,24.4133266635737,0 79.7987013604111,24.4133255629484,0 79.7987036236017,24.4133243504454,0 79.7987058132017,24.4133230294935,0 79.7987079230192,24.4133216038282,0 79.7987099470881,24.4133200774809,0 79.7987118796844,24.413318454768,0 79.7987137153434,24.4133167402782,0 79.7987154488738,24.4133149388599,0 79.7987286722885,24.4133004378175,0 79.7987701332314,24.413283915788,0 79.7987717149247,24.4132842152802,0 79.7987742382966,24.4132846307531,0 79.7987767818418,24.4132849255638,0 79.7987793386835,24.4132850989152,0 79.7987819019093,24.4132851503388,0 79.7987844645891,24.4132850796954,0 79.7987870197947,24.4132848871761,0 79.7987895606179,24.4132845733013,0 79.7987920801893,24.4132841389197,0 79.7987945716972,24.4132835852056,0 79.7987970284057,24.413282913656,0 79.7988167284118,24.4132770136542,0 79.7988191857572,24.4132762112035,0 79.7988215933113,24.4132752908624,0 79.7988239443341,24.4132742552073,0 79.7988262322441,24.4132731071377,0 79.798828450636,24.4132718498676,0 79.7988305932996,24.4132704869166,0 79.7988326542365,24.4132690221004,0 79.798834627677,24.4132674595197,0 79.7988365080966,24.413265803549,0 79.7988382902309,24.4132640588242,0 79.7988399690909,24.4132622302296,0 79.7988415399766,24.4132603228844,0 79.7988429984904,24.4132583421282,0 79.7988433003825,24.4132578812969,0 79.7988447046019,24.4132597800058,0 79.798846249717,24.4132616518386,0 79.7988478989426,24.4132634476433,0 79.7988496478247,24.4132651625703,0 79.7988514916402,24.4132667919882,0 79.7988534254097,24.4132683314963,0 79.7988554439107,24.4132697769371,0 79.798857541692,24.4132711244069,0 79.7988597130882,24.4132723702668,0 79.7988619522352,24.4132735111521,0 79.7988642530858,24.4132745439816,0 79.7988666094263,24.4132754659661,0 79.798869014893,24.4132762746156,0 79.7988714629897,24.4132769677463,0 79.7988739471049,24.4132775434862,0 79.7988764605298,24.4132780002805,0 79.7988789964767,24.4132783368956,0 79.7988815480968,24.4132785524223,0 79.7988841084991,24.4132786462786,0 79.798886670769,24.4132786182111,0 79.7988892279865,24.4132784682955,0 79.7988917732457,24.4132781969367,0 79.7988942996726,24.4132778048675,0 79.7988968004443,24.4132772931468,0 79.7988992688071,24.4132766631566,0 79.7989016980949,24.4132759165982,0 79.7989040817469,24.4132750554878,0 79.7989064133258,24.413274082151,0 79.7989086865349,24.4132729992164,0 79.798910895235,24.4132718096086,0 79.7989130334612,24.4132705165404,0 79.798915095439,24.4132691235038,0 79.7989170755996,24.4132676342609,0 79.7989189685954,24.4132660528337,0 79.7989681685974,24.4132227528228,0 79.7989701897635,24.4132208667843,0 79.798972086976,24.413218875709,0 79.7989738537368,24.4132167864166,0 79.7989968221338,24.4131879178821,0 79.7990673833946,24.4132436809559,0 79.7990693652554,24.4132451667121,0 79.7990714286993,24.413246556228,0 79.7990735681586,24.4132478457542,0 79.7990757778602,24.4132490318112,0 79.7990780518417,24.4132501111986,0 79.7990803839672,24.4132510810039,0 79.7990827679437,24.4132519386102,0 79.7990851973386,24.4132526817035,0 79.7990876655965,24.4132533082785,0 79.7990901660574,24.4132538166447,0 79.7990926919741,24.4132542054302,0 79.7990952365308,24.4132544735861,0 79.7990977928617,24.4132546203887,0 79.7991003540688,24.4132546454418,0 79.7991029132412,24.4132545486781,0 79.7991054634734,24.4132543303584,0 79.799107997884,24.4132539910719,0 79.7991105096344,24.4132535317341,0 79.7991129919471,24.4132529535845,0 79.799115438124,24.4132522581831,0 79.7991178415645,24.4132514474062,0 79.7991201957832,24.4132505234418,0 79.7991224944279,24.4132494887828,0 79.7991242593598,24.4132485872798,0 79.7991822101657,24.4132398509778,0 79.799184712207,24.4132394127199,0 79.799187186191,24.4132388567243,0 79.7991896255145,24.4132381844749,0 79.799192023667,24.4132373977659,0 79.7991943742478,24.4132364986972,0 79.799196670983,24.4132354896683,0 79.7991989077427,24.4132343733724,0 79.7992010785569,24.4132331527889,0 79.7992031776316,24.4132318311755,0 79.7992051993644,24.4132304120597,0 79.7992071383593,24.4132288992291,0 79.7992089894409,24.4132272967214,0 79.7992107476689,24.4132256088139,0 79.7992124083502,24.4132238400116,0 79.7992139670527,24.4132219950354,0 79.7992154196161,24.4132200788097,0 79.7992167621635,24.4132180964488,0 79.7992179911115,24.4132160532438,0 79.7992244911088,24.4132045532418,0 79.7992256237449,24.4132024130794,0 79.799226631743,24.4132002212762,0 79.7992275123063,24.4131979839132,0 79.7992282629918,24.4131957071979,0 79.7992288817168,24.4131933974468,0 79.7992293667647,24.4131910610683,0 79.7992297167897,24.4131887045444,0 79.7992299308208,24.4131863344131,0 79.7992300082641,24.4131839572504,0 79.7992299489048,24.4131815796513,0 79.7992297529075,24.4131792082126,0 79.7992294208161,24.4131768495134,0 79.799228953552,24.413174510098,0 79.7992283524114,24.4131721964568,0 79.7992276190624,24.4131699150089,0 79.7992267555395,24.413167672084,0 79.7992257642384,24.4131654739051,0 79.7992246479096,24.4131633265707,0 79.7992234096502,24.4131612360385,0 79.7992220528956,24.4131592081087,0 79.7992205814101,24.4131572484074,0 79.7992189992763,24.4131553623719,0 79.7992173108837,24.4131535552347,0 79.7992155209166,24.4131518320097,0 79.7992136343412,24.4131501974778,0 79.7992116563916,24.413148656174,0 79.7992095925555,24.4131472123744,0 79.799207448559,24.4131458700849,0 79.7992052303504,24.4131446330294,0 79.799202944084,24.4131435046402,0 79.7992005961028,24.4131424880478,0 79.7991981929213,24.4131415860728,0 79.7991957412068,24.4131408012175,0 79.7991932477615,24.4131401356596,0 79.7991309849948,24.4131251335251,0 79.7990946216816,24.4130762114798,0 79.7990949208308,24.4130748144023,0 79.7990952862381,24.4130724537548,0 79.7990955150471,24.4130700787361,0 79.7990956066197,24.4130676959688,0 79.7990955607005,24.4130653120975,0 79.7990953774177,24.4130629337694,0 79.7990950572823,24.4130605676166,0 79.7990946011871,24.4130582202371,0 79.7990940104038,24.4130558981766,0 79.7990932865799,24.4130536079101,0 79.7990924317337,24.4130513558241,0 79.7990914482491,24.4130491481986,0 79.7990903388684,24.4130469911894,0 79.7990891066852,24.4130448908114,0 79.7990877551355,24.4130428529215,0 79.7990862879879,24.4130408832025,0 79.7990847093338,24.4130389871468,0 79.7990830235752,24.4130371700416,0 79.7990812354128,24.4130354369539,0 79.7990793498329,24.4130337927164,0 79.7990773720935,24.4130322419141,0 79.7990753077095,24.4130307888715,0 79.7990731624374,24.4130294376402,0 79.7990709422594,24.4130281919883,0 79.7990686533664,24.4130270553892,0 79.7990663021411,24.4130260310124,0 79.7990638951397,24.4130251217143,0 79.7990192951519,24.4130095217199,0 79.799016834452,24.4130087286663,0 79.7990143313917,24.413008055887,0 79.7990117929769,24.413007505265,0 79.7990092263125,24.4130070783414,0 79.7990066385824,24.4130067763112,0 79.7990040370295,24.4130066000198,0 79.7990014289354,24.4130065499605,0 79.7989988216001,24.4130066262735,0 79.7989962223211,24.4130068287452,0 79.7989936383739,24.4130071568089,0 79.7989910769907,24.4130076095463,0 79.7989885453406,24.4130081856903,0 79.7989860505096,24.4130088836283,0 79.7989835994806,24.4130097014068,0 79.7989811991139,24.4130106367368,0 79.7989788561279,24.4130116870005,0 79.7989765770805,24.4130128492582,0 79.7989743683506,24.4130141202569,0 79.7989722361203,24.413015496439,0 79.7989701863576,24.4130169739528,0 79.7989682247998,24.4130185486627,0 79.7989663569369,24.4130202161612,0 79.7989645879972,24.4130219717812,0 79.7989629229318,24.4130238106087,0 79.798961366401,24.413025727497,0 79.7989286258274,24.4130683584388,0 79.7989249522875,24.4130704862296,0 79.7988902764332,24.4130501687871,0 79.7988880146878,24.4130489204517,0 79.798885683198,24.4130477847863,0 79.7988832886513,24.4130467650482,0 79.7988808379164,24.4130458641627,0 79.7988783380228,24.4130450847138,0 79.7988757961415,24.4130444289372,0 79.7988732195635,24.4130438987141,0 79.7988706156794,24.4130434955653,0 79.7988679919584,24.4130432206472,0 79.7988653559263,24.4130430747484,0 79.7988627151443,24.4130430582874,0 79.7988299151559,24.4130436582876,0 79.7987934159048,24.413044344178,0 79.7987882258169,24.4130276427572,0 79.798787461274,24.4130254049546,0 79.7987865708905,24.4130232065134,0 79.7987855570674,24.4130210533626,0 79.7987844225391,24.4130189513089,0 79.7987831703652,24.4130169060215,0 79.7987818039228,24.4130149230162,0 79.798780326897,24.4130130076411,0 79.7987787432711,24.4130111650616,0 79.7987770573161,24.413009400247,0 79.7987752735789,24.413007717957,0 79.7987733968699,24.4130061227283,0 79.7987714322505,24.4130046188632,0 79.7987693850191,24.4130032104175,0 79.7987672606968,24.4130019011896,0 79.7987650650127,24.4130006947104,0 79.7987628038884,24.4129995942335,0 79.7987604834218,24.4129986027269,0 79.7987581098711,24.4129977228646,0 79.7987556896375,24.4129969570195,0 79.798753229248,24.4129963072569,0 79.7987507353382,24.4129957753292,0 79.7987482146337,24.412995362671,0 79.7987456739328,24.4129950703952,0 79.7987431200874,24.4129948992899,0 79.7987405599849,24.4129948498167,0 79.7987380005298,24.412994922109,0 79.7987354486245,24.4129951159718,0 79.7987329111513,24.4129954308822,0 79.7987303949536,24.4129958659911,0 79.7987279068172,24.4129964201249,0 79.7987254534523,24.4129970917893,0 79.7987230414756,24.4129978791727,0 79.7987206773917,24.4129987801518,0 79.7987183675765,24.4129997922966,0 79.7987161182592,24.4130009128775,0 79.798713935506,24.4130021388724,0 79.7987118252036,24.413003466975,0 79.7987097930433,24.4130048936035,0 79.7987078445055,24.4130064149104,0 79.7987059848454,24.4130080267929,0 79.7987042190781,24.4130097249039,0 79.7987025519659,24.4130115046638,0 79.7987009880047,24.4130133612727,0 79.7986995314124,24.4130152897237,0 79.7986981861172,24.4130172848158,0 79.7986969557474,24.4130193411684,0 79.7986958436211,24.4130214532358,0 79.7986948527376,24.4130236153221,0 79.7986939857691,24.4130258215961,0 79.798693245054,24.4130280661079,0 79.7986819435914,24.4130658262485,0 79.7986627738188,24.4130749404467,0 79.7986529693369,24.4130766129758,0 79.7986504463908,24.4130771062207,0 79.7986479550709,24.4130777196185,0 79.7986455021971,24.4130784514901,0 79.7986430944836,24.4130792998322,0 79.7986407385212,24.4130802623226,0 79.798638440759,24.4130813363265,0 79.7986362074868,24.413082518904,0 79.7986340448179,24.4130838068181,0 79.7985956448245,24.4131080068113,0 79.7985933772591,24.4131095247836,0 79.7985912077707,24.413111158527,0 79.7985891433996,24.4131129027398,0 79.7985714782955,24.4131287045895,0 79.7985706470008,24.4131281658536,0 79.7985531055422,24.413056787578,0 79.7985524734242,24.413054496974,0 79.7985517113184,24.4130522397834,0 79.7985508213114,24.4130500221866,0 79.7985498058402,24.4130478502556,0 79.7985486676854,24.4130457299375,0 79.7985474099632,24.413043667038,0 79.7985460361176,24.4130416672055,0 79.7985445499102,24.4130397359158,0 79.7985429554106,24.4130378784569,0 79.7985412569845,24.4130360999149,0 79.7985394592826,24.4130344051596,0 79.798537567227,24.4130327988314,0 79.7985355859987,24.4130312853286,0 79.7985335210222,24.4130298687954,0 79.7985313779519,24.4130285531105,0 79.7985291626556,24.4130273418763,0 79.7985268811992,24.4130262384093,0 79.7985245398294,24.4130252457309,0 79.7985221449574,24.4130243665593,0 79.7985197031404,24.4130236033016,0 79.7985172210645,24.4130229580478,0 79.798514705526,24.4130224325647,0 79.7985121634125,24.4130220282911,0 79.7985096016849,24.4130217463339,0 79.7985070273572,24.4130215874651,0 79.7985044474785,24.4130215521199,0 79.7985018691126,24.4130216403949,0 79.7984992993194,24.4130218520484,0 79.7984967451354,24.413022186501,0 79.7984942135541,24.4130226428367,0 79.7984917115075,24.4130232198063,0 79.7984892458462,24.4130239158297,0 79.7984868233217,24.4130247290013,0 79.798484450567,24.4130256570945,0 79.7984821340791,24.413026697568,0 79.7984798802008,24.4130278475729,0 79.7984608802049,24.41303814757,0 79.7984595916277,24.4130388707617,0 79.7984180916358,24.4130629707548,0 79.7984158073653,24.4130643807226,0 79.7984136126529,24.4130659053022,0 79.7984040876212,24.4130729142876,0 79.7983990084148,24.4130733206239,0 79.7983964603609,24.413073585764,0 79.7983939308073,24.4130739718501,0 79.7983914265961,24.4130744778379,0 79.7983889545009,24.4130751023588,0 79.7983865212083,24.4130758437235,0 79.7983841333,24.4130766999268,0 79.7983817972351,24.4130776686527,0 79.7983795193322,24.4130787472809,0 79.7983773057528,24.413079932894,0 79.7983751624843,24.4130812222849,0 79.798373095324,24.4130826119661,0 79.7983711098633,24.4130840981787,0 79.7983692114725,24.4130856769026,0 79.7983674052866,24.4130873438676,0 79.798365696191,24.4130890945649,0 79.7983640888087,24.4130909242589,0 79.7983625874873,24.4130928280007,0 79.7983611962878,24.4130948006409,0 79.7983599189732,24.4130968368437,0 79.7983587589985,24.4130989311015,0 79.7983577195011,24.4131010777495,0 79.7983568032929,24.4131032709815,0 79.798356012852,24.413105504865,0 79.7983553503166,24.4131077733577,0 79.798354028621,24.4131128212748,0 79.7983515883595,24.4131133748123,0 79.7983491062212,24.4131140665945,0 79.7983466672583,24.4131148769721,0 79.7983442782237,24.4131158037014,0 79.798341945732,24.4131168442163,0 79.7983396762414,24.4131179956361,0 79.7983374760356,24.4131192547727,0 79.7983353512062,24.4131206181399,0 79.7983333076366,24.4131220819628,0 79.7983313509848,24.4131236421885,0 79.7982999509868,24.4131500421818,0 79.7982980781149,24.4131517024835,0 79.7982963036845,24.413153451097,0 79.798294632655,24.4131552831352,0 79.7982930696967,24.4131571934777,0 79.798291619178,24.4131591767852,0 79.7982902851528,24.4131612275147,0 79.7982890713498,24.4131633399345,0 79.7982879811613,24.4131655081407,0 79.7982872054405,24.4131672937641,0 79.7982842427473,24.4131672632517,0 79.7982843085044,24.4131650554596,0 79.7982842448129,24.4131627052045,0 79.7982840476069,24.4131603611712,0 79.798283717421,24.413158029715,0 79.7982832551505,24.4131557171568,0 79.7982826620486,24.4131534297667,0 79.7982819397234,24.4131511737464,0 79.7982810901334,24.4131489552123,0 79.798280115582,24.4131467801796,0 79.7982790187114,24.4131446545451,0 79.7982778024955,24.4131425840722,0 79.7982764702318,24.4131405743742,0 79.7982750255323,24.4131386309,0 79.7982734723141,24.4131367589188,0 79.7982718147882,24.4131349635059,0 79.7982700574485,24.4131332495293,0 79.7982682050598,24.4131316216358,0 79.7982662626442,24.4131300842391,0 79.7982642354682,24.4131286415074,0 79.7982621290278,24.4131272973523,0 79.7982599490341,24.4131260554182,0 79.7982577013976,24.4131249190722,0 79.7982553922123,24.4131238913953,0 79.7982530277388,24.4131229751736,0 79.7982506143878,24.4131221728914,0 79.7982481587024,24.4131214867237,0 79.7982456673407,24.413120918531,0 79.7982431470573,24.4131204698538,0 79.7981564470864,24.4131071698595,0 79.7981538993775,24.4131068413539,0 79.7981513364237,24.4131066349801,0 79.7981487652029,24.4131065513001,0 79.7981461927156,24.4131065905417,0 79.7981436259656,24.4131067525981,0 79.7981410719411,24.413107037028,0 79.7981385375956,24.4131074430571,0 79.7981360298292,24.4131079695798,0 79.7981335554695,24.4131086151628,0 79.7981311212531,24.4131093780483,0 79.7981287338075,24.4131102561594,0 79.7981263996326,24.4131112471052,0 79.7981241250835,24.4131123481878,0 79.7981219163529,24.4131135564095,0 79.7981197794542,24.4131148684807,0 79.7981177202053,24.4131162808292,0 79.7981157442128,24.4131177896097,0 79.7981138568564,24.4131193907145,0 79.7981120632748,24.4131210797844,0 79.7981103683509,24.4131228522208,0 79.7981087766996,24.4131247031979,0 79.7981072926541,24.4131266276765,0 79.798105920255,24.4131286204168,0 79.7981046632387,24.4131306759935,0 79.7981035250276,24.41313278881,0 79.7981025087206,24.4131349531141,0 79.7981016170846,24.4131371630132,0 79.7981008525473,24.4131394124907,0 79.7981002171902,24.413141695422,0 79.7980997127431,24.4131440055918,0 79.7980993405793,24.4131463367104,0 79.7980991017123,24.4131486824311,0 79.7980989967923,24.4131510363674,0 79.7980990261049,24.4131533921105,0 79.7980991895705,24.4131557432467,0 79.7981065578502,24.4132307836571,0 79.7981060869653,24.4132591930526,0 79.7981058335231,24.4132590773484,0 79.7981034561007,24.4132581313648,0 79.7981010276718,24.4132573010925,0 79.7980985549475,24.4132565888263,0 79.7980973480615,24.4132563040551,0 79.7980946047762,24.4132460031206,0 79.7980939388517,24.4132437560062,0 79.7980931473019,24.4132415433146,0 79.7980922322319,24.4132393709302,0 79.798091196075,24.4132372446301,0 79.798090041587,24.4132351700689,0 79.7980887718379,24.4132331527637,0 79.7980873902045,24.4132311980792,0 79.7980859003611,24.4132293112136,0 79.7980843062697,24.4132274971847,0 79.7980826121696,24.4132257608168,0 79.7980808225661,24.4132241067274,0 79.7980789422182,24.4132225393154,0 79.7980769761266,24.4132210627491,0 79.7980749295198,24.4132196809553,0 79.7980728078405,24.4132183976085,0 79.798070616731,24.4132172161218,0 79.7980683620183,24.4132161396371,0 79.7980660496984,24.4132151710171,0 79.7980636859207,24.4132143128378,0 79.7980386859276,24.4132059128408,0 79.798036317008,24.4132051787441,0 79.7980339104868,24.4132045555748,0 79.7980314725547,24.4132040449362,0 79.7980290094832,24.4132036481418,0 79.7980265276083,24.4132033662123,0 79.7980240333146,24.413203199873,0 79.7980215330186,24.4132031495518,0 79.7980190331522,24.4132032153782,0 79.7980165401461,24.4132033971827,0 79.7980140604135,24.4132036944978,0 79.7980116003334,24.4132041065585,0 79.797994900339,24.4132073065576,0 79.7979914970577,24.4132080752416,0 79.7979331970765,24.4132232752372,0 79.7979307327562,24.4132239821175,0 79.7979283122319,24.4132248061671,0 79.7979259421427,24.4132257451258,0 79.7979236289894,24.4132267964182,0 79.7979213791168,24.4132279571607,0 79.7979191986958,24.4132292241695,0 79.7979170937072,24.4132305939694,0 79.7979150699245,24.4132320628033,0 79.7979131328988,24.4132336266423,0 79.797911287943,24.413235281197,0 79.7979095401177,24.4132370219293,0 79.7979078942168,24.4132388440645,0 79.7979063547549,24.4132407426048,0 79.7979049259545,24.4132427123427,0 79.7979036117346,24.4132447478755,0 79.7979024156999,24.41324684362,0 79.797901341131,24.4132489938279,0 79.7979003909753,24.4132511926014,0 79.7978995678389,24.4132534339096,0 79.7978994359664,24.4132538668005,0 79.7978987239711,24.4132532639981,0 79.7978967570981,24.4132517643904,0 79.7978947078963,24.4132503602557,0 79.7978925818867,24.413249055377,0 79.7978903847973,24.4132478532701,0 79.7978881225476,24.4132467571738,0 79.7978858012329,24.4132457700412,0 79.7978834271072,24.4132448945319,0 79.7978810065672,24.4132441330048,0 79.7978785461343,24.4132434875117,0 79.7978760524378,24.4132429597916,0 79.7978735321961,24.4132425512663,0 79.7978709921996,24.4132422630367,0 79.7978684392917,24.4132420958791,0 79.7978658803505,24.413242050244,0 79.7978633222706,24.4132421262544,0 79.7978607719439,24.4132423237054,0 79.797858236242,24.4132426420651,0 79.7978557219965,24.4132430804757,0 79.7978532359814,24.413243637756,0 79.7978507848949,24.4132443124045,0 79.7978483753408,24.4132451026037,0 79.797846013811,24.4132460062244,0 79.7978437066681,24.4132470208321,0 79.7978414601282,24.4132481436932,0 79.797839280244,24.4132493717823,0 79.7977730802564,24.4132888717711,0 79.7977710342301,24.4132901609478,0 79.7977690616909,24.4132915428253,0 79.7977672446774,24.413292954067,0 79.7977494520904,24.4133009781753,0 79.7977092743211,24.413293140331,0 79.7977067385587,24.413292708809,0</coordinates></LinearRing></outerBoundaryIs></Polygon></MultiGeometry>
  </Placemark>
  
    </Document>
</kml>