<?xml version="1.0" encoding="UTF-8"?>
<kml xmlns="http://www.opengis.net/kml/2.2">
    <Document>
        <Placemark xmlns:ns0="http://www.opengis.net/kml/2.2">
	<Style><LineStyle><color>ff0000ff</color></LineStyle><PolyStyle><fill>0</fill></PolyStyle></Style>
	<ExtendedData><SchemaData schemaUrl="#Wave23_v27MAR2025">
		<SimpleData name="area(ha)">0.279507907154085</SimpleData>
		<SimpleData name="site_id">230016_1.1</SimpleData>
		<SimpleData name="Land_parc">230016</SimpleData>
		<SimpleData name="district">Chhatarpur</SimpleData>
		<SimpleData name="block">Bijawar</SimpleData>
		<SimpleData name="village">Matipura</SimpleData>
		<SimpleData name="Land Type">Farmer</SimpleData>
		<SimpleData name="Instance">Wave 2023</SimpleData>
	</SchemaData></ExtendedData>
      <Polygon><outerBoundaryIs><LinearRing><coordinates>79.6830933197875,24.4441997827977,0 79.6829751703169,24.4441869546624,0 79.6829349517556,24.4441825878913,0 79.6828765208391,24.4441876703196,0 79.6828049,24.4441939,0 79.6827778292634,24.4441924363734,0 79.6827356355152,24.4441901550851,0 79.682669067812,24.4441865559468,0 79.6825644577358,24.4441918466874,0 79.6824816414255,24.4443307285467,0 79.6824804339918,24.4443337530405,0 79.6824371,24.4444423,0 79.682435828046,24.4444473553256,0 79.6824097,24.4445512,0 79.6824380538938,24.4445793928269,0 79.682576312817,24.4445995697882,0 79.6826283861157,24.4446071691256,0 79.6827388078627,24.4446111371677,0 79.6829044404833,24.4446283320157,0 79.6829705737076,24.4446292582549,0 79.6829988801354,24.4446296546962,0 79.6830528,24.4444859,0 79.6830562740898,24.4444527599292,0 79.683063,24.4443886,0 79.6830816627437,24.4442723773958,0 79.6830933197875,24.4441997827977,0</coordinates></LinearRing></outerBoundaryIs></Polygon>
  </Placemark>
  
    </Document>
</kml>