<?xml version="1.0" encoding="UTF-8"?>
<kml xmlns="http://www.opengis.net/kml/2.2">
    <Document>
        <Placemark xmlns:ns0="http://www.opengis.net/kml/2.2">
	<Style><LineStyle><color>ff0000ff</color></LineStyle><PolyStyle><fill>0</fill></PolyStyle></Style>
	<ExtendedData><SchemaData schemaUrl="#Wave23_v27MAR2025">
		<SimpleData name="area(ha)">15.111123271699215</SimpleData>
		<SimpleData name="site_id">230085_3.3</SimpleData>
		<SimpleData name="Land_parc">230085</SimpleData>
		<SimpleData name="district">Damoh</SimpleData>
		<SimpleData name="block">Batyagarh</SimpleData>
		<SimpleData name="village">Jangupura</SimpleData>
		<SimpleData name="Land Type">Community</SimpleData>
		<SimpleData name="Instance">Wave 2023</SimpleData>
	</SchemaData></ExtendedData>
      <Polygon><outerBoundaryIs><LinearRing><coordinates>79.4669177,24.3067256,0 79.4669351,24.3067012,0 79.4669822,24.3066341,0 79.4670171,24.3065835,0 79.4670329,24.3065564,0 79.4670337,24.3065156,0 79.4670675,24.3064699,0 79.4670822,24.3064091,0 79.4670842,24.3063397,0 79.4670943,24.3063148,0 79.4671191,24.3062624,0 79.4671263,24.3062292,0 79.4671343,24.3062023,0 79.4671587,24.3061496,0 79.4671652,24.3061199,0 79.4671603,24.3060977,0 79.4671649,24.3060655,0 79.4671732,24.3060146,0 79.4671868,24.3059883,0 79.4671991,24.3059595,0 79.4672097,24.305931,0 79.4672365,24.3058708,0 79.4672604,24.3058127,0 79.4672725,24.3057843,0 79.4673114,24.3057328,0 79.4673196,24.3056759,0 79.4673223,24.3056487,0 79.4673302,24.305603,0 79.4673494,24.3055809,0 79.467362,24.3055606,0 79.4674335,24.305416,0 79.4674465,24.3053847,0 79.4674497,24.3052869,0 79.4674592,24.3052255,0 79.4674786,24.3051729,0 79.4675452,24.3051115,0 79.4676071,24.3050817,0 79.4676131,24.3050589,0 79.4676234,24.3050269,0 79.467627,24.3050174,0 79.4676568,24.3049908,0 79.4676749,24.3049697,0 79.467712,24.3049283,0 79.4677087,24.3048942,0 79.4677241,24.3048477,0 79.4677409,24.3048253,0 79.4677545,24.3047987,0 79.4677544,24.3047653,0 79.4677648,24.3047409,0 79.4677884,24.3047092,0 79.4677877,24.3046755,0 79.467817,24.3046152,0 79.4678293,24.3045865,0 79.4678446,24.3045597,0 79.4678591,24.3045292,0 79.4678775,24.3044976,0 79.4679058,24.3044429,0 79.4679178,24.3043888,0 79.4679342,24.3043401,0 79.467946,24.3043181,0 79.4679805,24.3042674,0 79.4679872,24.3042387,0 79.4679908,24.3042077,0 79.4679999,24.3041356,0 79.4679982,24.3041394,0 79.4679926,24.3041307,0 79.4679914,24.3041162,0 79.4680159,24.3041124,0 79.468026,24.3040219,0 79.4680385,24.3039754,0 79.4680645,24.3039321,0 79.4680688,24.3039029,0 79.4681067,24.303844,0 79.4681393,24.3038397,0 79.4681336,24.3037799,0 79.4681661,24.3037174,0 79.4682062,24.3036373,0 79.4681895,24.3035439,0 79.4682071,24.3035225,0 79.468212,24.3035013,0 79.4682038,24.3034673,0 79.468209,24.303448,0 79.468232,24.3033908,0 79.4682325,24.3033715,0 79.4682121,24.3033435,0 79.4682237,24.3032984,0 79.4682505,24.3032843,0 79.4682571,24.3032052,0 79.4682525,24.3031881,0 79.4682783,24.3031558,0 79.4682764,24.3031003,0 79.4682885,24.3030488,0 79.468297,24.3030193,0 79.4683165,24.3029716,0 79.4683313,24.302953,0 79.4683232,24.3029263,0 79.4683329,24.3028883,0 79.468343,24.3028591,0 79.4683625,24.3028192,0 79.46833,24.3027662,0 79.4683435,24.3026709,0 79.4683425,24.3026536,0 79.4683412,24.3026377,0 79.468391,24.3026014,0 79.4683943,24.3025337,0 79.4683864,24.3024949,0 79.4683678,24.3024373,0 79.46838,24.3024172,0 79.4684159,24.3023601,0 79.4683747,24.3022304,0 79.4683527,24.3021775,0 79.4683321,24.3021301,0 79.468306,24.3020726,0 79.4682898,24.3020555,0 79.4682683,24.3020345,0 79.4682342,24.3020361,0 79.468182,24.3020645,0 79.4681581,24.3020611,0 79.468098,24.302079,0 79.4680676,24.3020892,0 79.4679221,24.3021253,0 79.4678958,24.302127,0 79.4678645,24.3021337,0 79.4678415,24.3021573,0 79.4677633,24.3021817,0 79.4676894,24.3022011,0 79.4676237,24.3022299,0 79.4675395,24.302257,0 79.4674609,24.302311,0 79.4674768,24.3023981,0 79.4674598,24.3024592,0 79.4673266,24.3024439,0 79.4672258,24.3024549,0 79.4672026,24.3024755,0 79.4671277,24.3025308,0 79.4670723,24.3025795,0 79.4670267,24.3026244,0 79.4669458,24.3026582,0 79.4668984,24.3027656,0 79.4668093,24.3027988,0 79.4667748,24.3028398,0 79.4667327,24.302859,0 79.4666585,24.3028605,0 79.4666228,24.3029093,0 79.4665724,24.302948,0 79.466513,24.3029671,0 79.4664473,24.3030072,0 79.4664039,24.3030541,0 79.4662635,24.3031187,0 79.4662287,24.3031593,0 79.4661835,24.3031964,0 79.4661163,24.3032463,0 79.4659968,24.3033229,0 79.4659063,24.3034445,0 79.4658913,24.3034456,0 79.4658628,24.3034678,0 79.4657763,24.3035627,0 79.4657369,24.3035924,0 79.4656887,24.3036186,0 79.4656476,24.3036555,0 79.4655652,24.3037037,0 79.4655594,24.3037075,0 79.4654843,24.3037628,0 79.4654303,24.3038594,0 79.4654273,24.3039348,0 79.4653883,24.3040448,0 79.4652792,24.3040602,0 79.4652837,24.3041703,0 79.4651767,24.3042388,0 79.4651152,24.3042051,0 79.4650884,24.3042151,0 79.4650711,24.304239,0 79.464997,24.3042964,0 79.4649685,24.3043519,0 79.4649042,24.3044235,0 79.464892,24.3044305,0 79.4648755,24.3044783,0 79.4648412,24.3045122,0 79.4647889,24.3045454,0 79.4647773,24.3046281,0 79.4646864,24.3047007,0 79.4646705,24.3047311,0 79.4646739,24.3047862,0 79.4646926,24.3048072,0 79.4647071,24.3048556,0 79.4646983,24.3048601,0 79.4646838,24.3048857,0 79.4646875,24.3049125,0 79.4646226,24.3049503,0 79.464567,24.3049956,0 79.4645138,24.3050617,0 79.4644826,24.3050967,0 79.4644537,24.3051447,0 79.4644326,24.3051676,0 79.4644253,24.3052305,0 79.4643843,24.3053343,0 79.4645021,24.3053325,0 79.4645361,24.3053984,0 79.4643537,24.3056176,0 79.4643226,24.3056976,0 79.4641293,24.3057915,0 79.4640891,24.3057802,0 79.4636471,24.3058602,0 79.4634895,24.3057668,0 79.4632724,24.3058097,0 79.4631928,24.3058365,0 79.4631101,24.3058375,0 79.4633914,24.305916,0 79.4633101,24.3060347,0 79.4634524,24.3061119,0 79.4634894,24.3061125,0 79.4634521,24.3062706,0 79.4633954,24.306297,0 79.4633632,24.3063483,0 79.4635444,24.3063359,0 79.4636086,24.3064054,0 79.4635693,24.3065064,0 79.4635101,24.306563,0 79.463481,24.3065913,0 79.4635216,24.3066461,0 79.4635792,24.306731,0 79.4636144,24.3068485,0 79.4636908,24.3069515,0 79.4637372,24.3069932,0 79.4638104,24.3070866,0 79.4638206,24.3071233,0 79.4638667,24.3071935,0 79.4639364,24.307228,0 79.463932,24.3072578,0 79.4639899,24.3073327,0 79.4640017,24.3073547,0 79.4639937,24.3073751,0 79.4640359,24.3074039,0 79.4641298,24.3074262,0 79.4642923,24.3073896,0 79.4643265,24.3073876,0 79.4643941,24.3073688,0 79.4645143,24.3073356,0 79.464623,24.3072963,0 79.4646884,24.3072839,0 79.4647977,24.3072417,0 79.4648872,24.3072203,0 79.4649952,24.3071956,0 79.4650829,24.3071718,0 79.4651704,24.3071607,0 79.4652652,24.3071188,0 79.465335,24.307109,0 79.4653969,24.3070888,0 79.4654994,24.3070812,0 79.4655563,24.3070685,0 79.4656488,24.307042,0 79.4658098,24.3070047,0 79.4658735,24.3069922,0 79.4659436,24.306983,0 79.4660008,24.3069748,0 79.4661203,24.3069507,0 79.4661415,24.306955,0 79.4661864,24.3069377,0 79.4663159,24.3068809,0 79.4663515,24.3068896,0 79.4664417,24.3068999,0 79.4665363,24.3068809,0 79.4666066,24.3068614,0 79.4666374,24.3068601,0 79.4668539,24.3068245,0 79.4669409,24.3068337,0 79.4669665,24.3068452,0 79.466923,24.3067615,0 79.4669177,24.3067256,0</coordinates></LinearRing></outerBoundaryIs></Polygon>
  </Placemark>
  
    </Document>
</kml>