<?xml version="1.0" encoding="UTF-8"?>
<kml xmlns="http://www.opengis.net/kml/2.2">
    <Document>
        <Placemark xmlns:ns0="http://www.opengis.net/kml/2.2">
	<Style><LineStyle><color>ff0000ff</color></LineStyle><PolyStyle><fill>0</fill></PolyStyle></Style>
	<ExtendedData><SchemaData schemaUrl="#Wave23_v27MAR2025">
		<SimpleData name="area(ha)">0.368502193074172</SimpleData>
		<SimpleData name="site_id">230015_1.1</SimpleData>
		<SimpleData name="Land_parc">230015</SimpleData>
		<SimpleData name="district">Chhatarpur</SimpleData>
		<SimpleData name="block">Bijawar</SimpleData>
		<SimpleData name="village">Matipura</SimpleData>
		<SimpleData name="Land Type">Farmer</SimpleData>
		<SimpleData name="Instance">Wave 2023</SimpleData>
	</SchemaData></ExtendedData>
      <Polygon><outerBoundaryIs><LinearRing><coordinates>79.6702554343668,24.4515539811524,0 79.67025682501,24.451564868053,0 79.6702604646743,24.4515933618123,0 79.6702644889203,24.4516373216041,0 79.6702885503113,24.4516554485126,0 79.6703319627761,24.4516558303264,0 79.6703693142125,24.4516524449477,0 79.6704510033371,24.4516450409528,0 79.670468055662,24.4516434953885,0 79.6705667971008,24.4516345457641,0 79.6706655385289,24.4516255960747,0 79.6707584651183,24.4516171733681,0 79.6707594711798,24.4515658869346,0 79.6707504166262,24.4515283379254,0 79.6707574590568,24.4514541557036,0 79.6707433741957,24.4513781417767,0 79.6707443802572,24.4512636628846,0 79.6707423681342,24.4511592580443,0 79.6707443802572,24.4510768331093,0 79.6707323075192,24.4509733439479,0 79.6706723883322,24.4509727929923,0 79.6706327074304,24.4509724281142,0 79.6705250588496,24.4510026506217,0 79.6704745617196,24.4510235453146,0 79.6704745467242,24.4510249742223,0 79.6704711799644,24.4510249446158,0 79.6704586587909,24.4510301256204,0 79.6703972890387,24.4510365364548,0 79.6703349132255,24.4510603481158,0 79.6702766068613,24.4510865020821,0 79.6702654949818,24.451091486435,0 79.6702292767677,24.4511152980857,0 79.6701970827996,24.4511281197419,0 79.670169919139,24.45118215385,0 79.6701741946457,24.4512029355575,0 79.6701767373766,24.4512029579229,0 79.6701766141652,24.4512146959732,0 79.6701811,24.4512365,0 79.6701920524921,24.4513323502323,0 79.6702121737221,24.4513781417767,0 79.6702182100912,24.4514221016436,0 79.6702312888907,24.4514743039657,0 79.6702373252597,24.4515091055017,0 79.6702554343668,24.4515539811524,0</coordinates></LinearRing></outerBoundaryIs></Polygon>
  </Placemark>
  
    </Document>
</kml>