<?xml version="1.0" encoding="UTF-8"?>
<kml xmlns="http://www.opengis.net/kml/2.2">
    <Document>
        <Placemark xmlns:ns0="http://www.opengis.net/kml/2.2">
	<Style><LineStyle><color>ff0000ff</color></LineStyle><PolyStyle><fill>0</fill></PolyStyle></Style>
	<ExtendedData><SchemaData schemaUrl="#Wave23_v27MAR2025">
		<SimpleData name="area(ha)">2.265050420568871</SimpleData>
		<SimpleData name="site_id">230064_1.1</SimpleData>
		<SimpleData name="Land_parc">230064</SimpleData>
		<SimpleData name="district">Chhatarpur</SimpleData>
		<SimpleData name="block">Bhagwa/Sukyal</SimpleData>
		<SimpleData name="village">Bhagwa/Sukyal</SimpleData>
		<SimpleData name="Land Type">Community</SimpleData>
		<SimpleData name="Instance">Wave 2023</SimpleData>
	</SchemaData></ExtendedData>
      <Polygon><outerBoundaryIs><LinearRing><coordinates>79.1738728,24.5537943,0 79.1738626890897,24.5538250946115,0 79.1738115000001,24.553981,0 79.173729,24.5540944,0 79.1737151119333,24.5541387084248,0 79.1736728,24.5542737000001,0 79.1736262051533,24.5543639450499,0 79.1736190000001,24.5543779,0 79.1736177000001,24.5543869000001,0 79.1736667,24.554472,0 79.1737329,24.5545005,0 79.1737187000001,24.5546419,0 79.1736614000001,24.5548238000001,0 79.1736365,24.5549944,0 79.1736257,24.5551455000001,0 79.1736179815986,24.5551764198341,0 79.1736090000001,24.5552124,0 79.1736007794341,24.5552168748704,0 79.1734017840117,24.5553251979154,0 79.1733869000001,24.5553333,0 79.1733530205062,24.5553537803019,0 79.1733022117654,24.5553844943796,0 79.1732137,24.555438,0 79.1732086988084,24.5554423167969,0 79.1732025843047,24.5554475945524,0 79.1731026207563,24.5555338783425,0 79.1730354,24.5555919000001,0 79.1730028359153,24.5556078223688,0 79.1729777487387,24.555620088859,0 79.172903418144,24.5556564331047,0 79.1728996,24.5556583000001,0 79.1728839903856,24.5557092380658,0 79.1728392000001,24.5558554,0 79.1728827,24.555977,0 79.1728547,24.5560766,0 79.1728685,24.556192,0 79.1728840000001,24.556224,0 79.1729343,24.5562425000001,0 79.1730208000001,24.5562402000001,0 79.173135,24.556276,0 79.1731652000001,24.5562999000001,0 79.1731906764136,24.5562692808019,0 79.1732009211711,24.5562569679855,0 79.1732027096996,24.5562548184151,0 79.1732831000001,24.5561582,0 79.1733790404091,24.5560784533545,0 79.1733360754879,24.5560537159756,0 79.1733438908537,24.5560120340244,0 79.1733647318294,24.5559703520731,0 79.1734194393903,24.5559677469512,0 79.1734525236478,24.5560173733375,0 79.1735029000001,24.5559755,0 79.1736249000001,24.5558088000001,0 79.173655497278,24.5557527320292,0 79.1736148235365,24.5557384962195,0 79.1735993843849,24.5557179106859,0 79.1735935211685,24.5557178396208,0 79.1735936312795,24.5557102398774,0 79.173591377439,24.555707234756,0 79.1735184340245,24.5557489167074,0 79.1734611213416,24.5557202603658,0 79.1732839730489,24.555764547439,0 79.1732657371952,24.5556395015854,0 79.1734741469513,24.5556030298781,0 79.1736825567074,24.5556238708536,0 79.1736906567504,24.5556287308806,0 79.1736935249775,24.5556287656431,0 79.1736935007588,24.5556304372859,0 79.1737151477766,24.5556434254953,0 79.1737192000001,24.555636,0 79.1738027000001,24.5555583,0 79.1738805277162,24.5555407459177,0 79.1739162000001,24.5555326999999,0 79.1739396,24.5555295000001,0 79.1739912063279,24.5555223414415,0 79.1741155,24.5555051,0 79.1741684,24.5554949,0 79.1741764435719,24.5554540456381,0 79.1741906683094,24.5553817962429,0 79.1741909270072,24.5553639350644,0 79.1741941771303,24.5553639744443,0 79.1741962,24.5553537000001,0 79.174208070697,24.5552738567198,0 79.1742192000001,24.5551990000001,0 79.1742169296119,24.5551836779915,0 79.1742035271283,24.5550932295382,0 79.1742009,24.5550755,0 79.1742078161785,24.5550029954385,0 79.1742129000001,24.5549497000001,0 79.1742567,24.5547082,0 79.1743000452941,24.5546454768872,0 79.1743000816141,24.5546429690261,0 79.1743017642818,24.5546429894124,0 79.1743842000001,24.5545237,0 79.1745946,24.5542347000001,0 79.1746025759506,24.5542039576409,0 79.1746027026913,24.5541952046763,0 79.174604840145,24.5541952305679,0 79.1746515418221,24.5540152240865,0 79.1746777,24.5539144,0 79.1746521244096,24.5538346589562,0 79.174609832508,24.5537027986317,0 79.1745953999999,24.5536578000001,0 79.1746113310965,24.5535993000488,0 79.1746448000001,24.5534764,0 79.1746461167746,24.5534734418015,0 79.1746600105685,24.5534422287021,0 79.174686090014,24.5533836398806,0 79.1747028,24.5533461000001,0 79.1747138549378,24.5533360002408,0 79.1747595605863,24.5532942436654,0 79.1747734000001,24.5532816,0 79.1747467,24.5532717,0 79.1746584,24.553185,0 79.1746041000001,24.5531000000001,0 79.1745119,24.5530956000001,0 79.1744384000001,24.5532459,0 79.1743921725314,24.5532897934519,0 79.1742982832817,24.5533789421052,0 79.1742958,24.5533813,0 79.1740826000001,24.5534911,0 79.1739685000001,24.5536413,0 79.1739657035847,24.5536457707647,0 79.173918585135,24.5537211012527,0 79.1738728,24.5537943,0</coordinates></LinearRing></outerBoundaryIs></Polygon>
  </Placemark>
  
    </Document>
</kml>