<?xml version="1.0" encoding="UTF-8"?>
<kml xmlns="http://www.opengis.net/kml/2.2">
    <Document>
        <Placemark xmlns:ns0="http://www.opengis.net/kml/2.2">
	<Style><LineStyle><color>ff0000ff</color></LineStyle><PolyStyle><fill>0</fill></PolyStyle></Style>
	<ExtendedData><SchemaData schemaUrl="#Wave23_v27MAR2025">
		<SimpleData name="area(ha)">0.427001165111283</SimpleData>
		<SimpleData name="site_id">230059_1.1</SimpleData>
		<SimpleData name="Land_parc">230059</SimpleData>
		<SimpleData name="district">Chhatarpur</SimpleData>
		<SimpleData name="block">Bijawar</SimpleData>
		<SimpleData name="village">Surai</SimpleData>
		<SimpleData name="Land Type">Farmer</SimpleData>
		<SimpleData name="Instance">Wave 2023</SimpleData>
	</SchemaData></ExtendedData>
      <Polygon><outerBoundaryIs><LinearRing><coordinates>79.723460018471,24.4387489420901,0 79.7233058740186,24.4388150276594,0 79.7233344637565,24.4389284880128,0 79.7233714657124,24.4390753325539,0 79.7233800698664,24.4391094786239,0 79.7234028729657,24.4391999739248,0 79.7234182,24.4392608,0 79.7234405073831,24.4393303593554,0 79.7234667452731,24.4394089395272,0 79.7234819165349,24.4394543760779,0 79.7234875329005,24.4394715969638,0 79.7235393893202,24.4396305987719,0 79.7235631327979,24.4396325641854,0 79.7236735,24.4396417,0 79.7237482941382,24.4396544032418,0 79.7237601909941,24.4396545036314,0 79.7237601716941,24.4396564205549,0 79.7237942,24.4396622,0 79.7238542093789,24.4396679690541,0 79.7239159306833,24.439657641823,0 79.7238958046098,24.4395381439823,0 79.7238825910849,24.4394382308679,0 79.7238676655675,24.4393845019876,0 79.7238505729378,24.4393229718826,0 79.723841727337,24.4392599788681,0 79.7238274986661,24.4392035573986,0 79.7238123926729,24.4391436569992,0 79.7238046770714,24.4391130619959,0 79.7237688024415,24.4389708066149,0 79.7237602363107,24.4389320813265,0 79.7237212014631,24.4387556144826,0 79.7237075076008,24.4387034285123,0 79.7236725084966,24.438648893155,0 79.7235391293841,24.4387150251799,0 79.7234734496142,24.4387431838132,0 79.7234733904913,24.43874905495,0 79.723460018471,24.4387489420901,0</coordinates></LinearRing></outerBoundaryIs></Polygon>
  </Placemark>
  
    </Document>
</kml>