<?xml version="1.0" encoding="UTF-8"?>
<kml xmlns="http://www.opengis.net/kml/2.2">
    <Document>
        <Placemark xmlns:ns0="http://www.opengis.net/kml/2.2">
	<Style><LineStyle><color>ff0000ff</color></LineStyle><PolyStyle><fill>0</fill></PolyStyle></Style>
	<ExtendedData><SchemaData schemaUrl="#Wave23_v27MAR2025">
		<SimpleData name="area(ha)">1.010058860483897</SimpleData>
		<SimpleData name="site_id">230060_1.1</SimpleData>
		<SimpleData name="Land_parc">230060</SimpleData>
		<SimpleData name="district">Chhatarpur</SimpleData>
		<SimpleData name="block">Bijawar</SimpleData>
		<SimpleData name="village">Surai</SimpleData>
		<SimpleData name="Land Type">Farmer</SimpleData>
		<SimpleData name="Instance">Wave 2023</SimpleData>
	</SchemaData></ExtendedData>
      <Polygon><outerBoundaryIs><LinearRing><coordinates>79.7238631906651,24.4392214101778,0 79.7238672523262,24.439244941259,0 79.7238757664516,24.4392942675006,0 79.7238913762319,24.4393847020448,0 79.7239240499592,24.4395739954152,0 79.7239880535643,24.439877605964,0 79.7240520571694,24.4400156105172,0 79.7247021990526,24.4399634754815,0 79.7248422982398,24.4399455744535,0 79.7250862206832,24.439914407193,0 79.7250448395021,24.4397556412765,0 79.7250414885579,24.4397556130286,0 79.7250416127925,24.4397432614424,0 79.725039060132,24.4397334677138,0 79.7250053740241,24.4395893292988,0 79.7247931515441,24.4395739954152,0 79.724747844864,24.439529448534,0 79.7247089362742,24.4394911924113,0 79.7247021990526,24.4393838551032,0 79.7246752501663,24.4392979851909,0 79.7246396707216,24.4392104081079,0 79.7245842976748,24.4390741097873,0 79.7244738762256,24.4389381014128,0 79.7244578782332,24.4389379664947,0 79.7243978428107,24.4389374601744,0 79.7241679,24.4389516,0 79.7239251,24.4390031,0 79.7238566777434,24.439040375103,0 79.7238519554712,24.439113460917,0 79.7238499405218,24.4391446459163,0 79.7238601566904,24.4392038329547,0 79.7238631906651,24.4392214101778,0</coordinates></LinearRing></outerBoundaryIs></Polygon>
  </Placemark>
  
    </Document>
</kml>