<?xml version="1.0" encoding="UTF-8"?>
<kml xmlns="http://www.opengis.net/kml/2.2">
    <Document>
        <Placemark xmlns:ns0="http://www.opengis.net/kml/2.2">
	<Style><LineStyle><color>ff0000ff</color></LineStyle><PolyStyle><fill>0</fill></PolyStyle></Style>
	<ExtendedData><SchemaData schemaUrl="#Wave23_v27MAR2025">
		<SimpleData name="area(ha)">0.605776970666484</SimpleData>
		<SimpleData name="site_id">230027_1.1</SimpleData>
		<SimpleData name="Land_parc">230027</SimpleData>
		<SimpleData name="district">Chhatarpur</SimpleData>
		<SimpleData name="block">Bijawar</SimpleData>
		<SimpleData name="village">Matipura</SimpleData>
		<SimpleData name="Land Type">Farmer</SimpleData>
		<SimpleData name="Instance">Wave 2023</SimpleData>
	</SchemaData></ExtendedData>
      <Polygon><outerBoundaryIs><LinearRing><coordinates>79.6877842981564,24.4465370965696,0 79.6876940475785,24.4465626572645,0 79.6875948719566,24.4465699776125,0 79.6874956963348,24.4465992589998,0 79.6874179640906,24.4465833982492,0 79.687460850846,24.4466968635753,0 79.6874903354903,24.4467432257222,0 79.6875023973903,24.4468103287993,0 79.6875064180236,24.4468884123349,0 79.6875003,24.4469704,0 79.6875373,24.4470565,0 79.6876283772343,24.4471604842765,0 79.6876874349105,24.4470448083078,0 79.6878540963687,24.4470089691015,0 79.6879013389868,24.4470519761478,0 79.6878737807929,24.4470985670981,0 79.6876958,24.4472546,0 79.68770100668,24.4472924978149,0 79.687708,24.4473434,0 79.6878565,24.4472528,0 79.6879518,24.4471803,0 79.6880656,24.4471264,0 79.6882325,24.4470525,0 79.6883468,24.447015,0 79.688445906009,24.446990896902,0 79.6885330197309,24.4469506351178,0 79.6884351843202,24.4468200892439,0 79.6883842562981,24.4467432257222,0 79.6883413695427,24.4465882784803,0 79.6882824002541,24.4464455316402,0 79.6882012454852,24.4464514796438,0 79.688049203538,24.4464979942044,0 79.6879620897997,24.4465150749928,0 79.6878910586111,24.4465150749928,0 79.687814666578,24.4465284956354,0 79.6877842981564,24.4465370965696,0</coordinates></LinearRing></outerBoundaryIs></Polygon>
  </Placemark>
  
    </Document>
</kml>