<?xml version="1.0" encoding="UTF-8"?>
<kml xmlns="http://www.opengis.net/kml/2.2">
    <Document>
        <Placemark xmlns:ns0="http://www.opengis.net/kml/2.2">
	<Style><LineStyle><color>ff0000ff</color></LineStyle><PolyStyle><fill>0</fill></PolyStyle></Style>
	<ExtendedData><SchemaData schemaUrl="#Wave23_v27MAR2025">
		<SimpleData name="area(ha)">0.493509078688445</SimpleData>
		<SimpleData name="site_id">230019_1.1</SimpleData>
		<SimpleData name="Land_parc">230019</SimpleData>
		<SimpleData name="district">Chhatarpur</SimpleData>
		<SimpleData name="block">Bijawar</SimpleData>
		<SimpleData name="village">Matipura</SimpleData>
		<SimpleData name="Land Type">Farmer</SimpleData>
		<SimpleData name="Instance">Wave 2023</SimpleData>
	</SchemaData></ExtendedData>
      <Polygon><outerBoundaryIs><LinearRing><coordinates>79.6756515850527,24.455300902874,0 79.6755659908354,24.455203055978,0 79.6755261795715,24.4550961490973,0 79.6754744249285,24.4550997730609,0 79.6753702,24.4550982,0 79.6752965,24.4549852,0 79.6753199,24.4549676,0 79.6753665031109,24.4548885032182,0 79.6753665300207,24.4548859299832,0 79.6753490194473,24.4548062316764,0 79.6751866,24.4548581,0 79.6751695156502,24.4548585873979,0 79.6751695128822,24.454858852051,0 79.6751624183321,24.4548587898761,0 79.6750534,24.4548619,0 79.6749411,24.4549105,0 79.6748423,24.4549269,0 79.6747803,24.4549585,0 79.6747000958464,24.4550001140256,0 79.674674677907,24.45501026626,0 79.6746137943885,24.4550345838539,0 79.6745050206535,24.4550780292781,0 79.6746649617994,24.4552156354403,0 79.6746725284066,24.4552157017777,0 79.6746724615873,24.455222087909,0 79.674710725323,24.4552550082319,0 79.6748574,24.4553812,0 79.6749031,24.4553521,0 79.6750076,24.4553496,0 79.6750345104629,24.4554114335354,0 79.6751021896114,24.4555400838553,0 79.6752204,24.4555007,0 79.6752615181107,24.4554942130975,0 79.6752615436717,24.4554917691078,0 79.6752761957721,24.4554918975077,0 79.6753402,24.4554818,0 79.6754124,24.4554504,0 79.6754662,24.4554312,0 79.6756515850527,24.455300902874,0</coordinates></LinearRing></outerBoundaryIs></Polygon>
  </Placemark>
  
    </Document>
</kml>