<?xml version="1.0" encoding="UTF-8"?>
<kml xmlns="http://www.opengis.net/kml/2.2">
    <Document>
        <Placemark xmlns:ns0="http://www.opengis.net/kml/2.2">
	<Style><LineStyle><color>ff0000ff</color></LineStyle><PolyStyle><fill>0</fill></PolyStyle></Style>
	<ExtendedData><SchemaData schemaUrl="#Wave23_v27MAR2025">
		<SimpleData name="area(ha)">0.993979554912347</SimpleData>
		<SimpleData name="site_id">230057_1.1</SimpleData>
		<SimpleData name="Land_parc">230057</SimpleData>
		<SimpleData name="district">Chhatarpur</SimpleData>
		<SimpleData name="block">Bijawar</SimpleData>
		<SimpleData name="village">Surai</SimpleData>
		<SimpleData name="Land Type">Farmer</SimpleData>
		<SimpleData name="Instance">Wave 2023</SimpleData>
	</SchemaData></ExtendedData>
      <Polygon><outerBoundaryIs><LinearRing><coordinates>79.7105735836625,24.4387718178722,0 79.7105751836585,24.4387820178725,0 79.7105756345747,24.438784427019,0 79.7105762272421,24.4387868102951,0 79.7105769599238,24.4387891607155,0 79.7105778304725,24.4387914713917,0 79.7105788363366,24.4387937355515,0 79.7105799745682,24.4387959465588,0 79.7105812418314,24.4387980979337,0 79.7105826344119,24.4388001833708,0 79.7105841482283,24.438802196758,0 79.7105884482274,24.438807596759,0 79.7105899999545,24.438809443395,0 79.7105916536693,24.4388112142902,0 79.7105934049683,24.4388129047289,0 79.7105952491881,24.4388145102096,0 79.7105971814177,24.4388160264573,0 79.7105991965118,24.4388174494344,0 79.7106012891046,24.4388187753516,0 79.7106034536237,24.4388200006782,0 79.7106056843053,24.4388211221514,0 79.7106079752096,24.4388221367848,0 79.7106306752151,24.4388315367881,0 79.7106330576154,24.4388324552594,0 79.7106354893119,24.438833258185,0 79.7106379636238,24.4388339433587,0 79.7106404737527,24.4388345088982,0 79.7106430128023,24.4388349532496,0 79.7106455737966,24.438835275192,0 79.7106481496992,24.4388354738409,0 79.7106507334329,24.4388355486506,0 79.7106533178991,24.4388354994155,0 79.7106558959968,24.4388353262708,0 79.7106581618912,24.4388350642403,0 79.7106582939442,24.4388351510079,0 79.7106604493759,24.4388364174387,0 79.7106626737169,24.4388375797195,0 79.7106649609681,24.4388386347157,0 79.7106673049609,24.4388395795822,0 79.7106696993736,24.4388404117705,0 79.7106721377485,24.4388411290363,0 79.7106746135096,24.4388417294452,0 79.7106771199796,24.4388422113778,0 79.7106796503988,24.4388425735345,0 79.7106821979426,24.4388428149384,0 79.7106847557405,24.4388429349386,0 79.7106873168941,24.4388429332114,0 79.7106898744961,24.4388428097615,0 79.7106924216487,24.4388425649217,0 79.7106949514823,24.4388421993525,0 79.710697457174,24.4388417140397,0 79.7106999319662,24.4388411102922,0 79.7107023691842,24.4388403897383,0 79.7107047622551,24.4388395543214,0 79.7107071047248,24.4388386062944,0 79.7107093902758,24.4388375482143,0 79.7107415879489,24.4388216682817,0 79.7107482947201,24.4388183604924,0 79.71077806575,24.4388036773712,0 79.7107921009166,24.4388043816444,0 79.7107947115839,24.4388044492399,0 79.7107973224991,24.4388043902146,0 79.7107999263401,24.4388042047341,0 79.7108025158042,24.4388038933185,0 79.7108050836294,24.4388034568412,0 79.7108076226142,24.4388028965262,0 79.710810125638,24.4388022139451,0 79.7108125856811,24.4388014110121,0 79.7108464856911,24.4387894110086,0 79.710848880226,24.438788496394,0 79.7108512189052,24.4387874677544,0 79.7108534952557,24.4387863279368,0 79.7108557029767,24.4387850800961,0 79.7108578359578,24.438783727686,0 79.7108598882951,24.4387822744499,0 79.7108618543082,24.4387807244102,0 79.7108637285553,24.4387790818569,0 79.7108655058489,24.4387773513366,0 79.7108671812697,24.4387755376389,0 79.7108687501804,24.4387736457839,0 79.7108702082386,24.438771681008,0 79.7108715514085,24.4387696487494,0 79.7108727759724,24.438767554633,0 79.7108738785411,24.438765404455,0 79.7108748560627,24.4387632041668,0 79.7108757058317,24.4387609598584,0 79.7108764254959,24.4387586777417,0 79.7108770130636,24.4387563641332,0 79.7108774669084,24.4387540254367,0 79.7108777857741,24.4387516681253,0 79.7108779687783,24.4387492987236,0 79.7108780154143,24.4387469237898,0 79.7108779255531,24.4387445498973,0 79.7108776994435,24.4387421836167,0 79.7108773377112,24.4387398314974,0 79.7108768413575,24.4387375000498,0 79.7108762117563,24.4387351957269,0 79.7108754506501,24.4387329249067,0 79.7108745601457,24.4387306938745,0 79.7108735427077,24.4387285088054,0 79.7108724011523,24.4387263757473,0 79.7108711386392,24.4387243006043,0 79.7108697586627,24.4387222891199,0 79.7108682650425,24.4387203468616,0 79.7108666619126,24.4387184792053,0 79.7108649537103,24.4387166913204,0 79.7108631451636,24.4387149881554,0 79.7108612412782,24.4387133744244,0 79.7108592473239,24.4387118545941,0 79.7108571688195,24.4387104328708,0 79.710855011518,24.43870911319,0 79.7108527813905,24.4387078992041,0 79.7108504846096,24.4387067942732,0 79.7108481275325,24.4387058014558,0 79.7108457166831,24.4387049234996,0 79.7108432587343,24.4387041628348,0 79.7108407604893,24.4387035215668,0 79.7108382288628,24.4387030014704,0 79.710835670862,24.4387026039853,0 79.7108330935669,24.4387023302115,0 79.7108305041112,24.4387021809069,0 79.710827909662,24.4387021564847,0 79.7108253174003,24.4387022570125,0 79.7108227345012,24.4387024822121,0 79.7108201681135,24.4387028314601,0 79.7108176253408,24.4387033037899,0 79.7108135043288,24.4387041732024,0 79.7108372590078,24.4386667959726,0 79.7108394412669,24.4386662534003,0 79.7108418444188,24.4386655329461,0 79.7108442040736,24.4386647006683,0 79.7108465140276,24.438663758755,0 79.7108487682076,24.4386627096827,0 79.7108509606873,24.4386615562094,0 79.7108530857022,24.4386603013678,0 79.7108551376655,24.438658948457,0 79.7108712376677,24.4386477484539,0 79.7108738512998,24.4386457977144,0 79.7108848513007,24.4386369977121,0 79.7108867597152,24.4386353879785,0 79.7108885730007,24.4386336885749,0 79.7108902861367,24.4386319042062,0 79.7108918943804,24.4386300398127,0 79.7108933932791,24.4386281005563,0 79.7108947786828,24.4386260918059,0 79.710896046756,24.4386240191232,0 79.7108971939879,24.4386218882464,0 79.7108982172022,24.4386197050753,0 79.7108991135659,24.4386174756541,0 79.7108998805976,24.4386152061554,0 79.7109005161734,24.4386129028625,0 79.7109010185337,24.4386105721524,0 79.7109013862878,24.4386082204778,0 79.7109016184175,24.4386058543498,0 79.71090171428,24.4386034803192,0 79.71090167361,24.4386011049587,0 79.7109014965201,24.438598734845,0 79.7109011835005,24.4385963765398,0 79.710900735418,24.4385940365726,0 79.7109001535131,24.4385917214216,0 79.7108994393969,24.4385894374968,0 79.7108985950465,24.4385871911214,0 79.7108976227996,24.4385849885149,0 79.7108966739838,24.4385831273363,0 79.7108920644949,24.4385619690629,0 79.7108914948697,24.4385596692561,0 79.7108907948569,24.4385573998147,0 79.7108899663661,24.43855516693,0 79.7108890116576,24.4385529766934,0 79.7108879333359,24.43855083508,0 79.7108867343426,24.4385487479322,0 79.7108854179488,24.438546720944,0 79.7108839877456,24.4385447596451,0 79.7108824476348,24.4385428693861,0 79.7108808018179,24.4385410553237,0 79.7108790547847,24.4385393224068,0 79.7108772113013,24.438537675363,0 79.7108752763969,24.4385361186853,0 79.7108732553501,24.4385346566207,0 79.7108711536742,24.4385332931577,0 79.710868977103,24.4385320320158,0 79.7108667315741,24.4385308766356,0 79.7108644232136,24.4385298301691,0 79.7108620583188,24.438528895471,0 79.7108596433414,24.4385280750913,0 79.7108571848694,24.4385273712681,0 79.7108546896099,24.4385267859213,0 79.71085216437,24.4385263206479,0 79.7108496160387,24.4385259767172,0 79.7108470515681,24.4385257550674,0 79.7108444779542,24.4385256563032,0 79.7108419022179,24.4385256806941,0 79.7108393313862,24.4385258281734,0 79.7108367724723,24.4385260983389,0 79.7108342324572,24.4385264904536,0 79.7108317182702,24.4385270034477,0 79.7108292367701,24.4385276359217,0 79.7108267947266,24.4385283861502,0 79.7108243988018,24.4385292520866,0 79.710822055532,24.4385302313685,0 79.7108197713097,24.4385313213243,0 79.7108175523664,24.4385325189806,0 79.7108154047556,24.4385338210702,0 79.7108133343361,24.4385352240407,0 79.7108113467562,24.4385367240649,0 79.710809447438,24.4385383170505,0 79.7108076415631,24.4385399986518,0 79.7108059340579,24.4385417642813,0 79.7108043295808,24.4385436091222,0 79.7108028325088,24.4385455281416,0 79.710801446926,24.4385475161044,0 79.7108001766124,24.4385495675873,0 79.7107990250335,24.4385516769936,0 79.7107841288398,24.4385808439548,0 79.7107497186568,24.4385729259153,0 79.7107477738433,24.4385072082896,0 79.710748640976,24.4384978865754,0 79.7107559274883,24.4384920963985,0 79.7107577659922,24.4384905592516,0 79.7107595174115,24.4384889391156,0 79.7107611772821,24.4384872401199,0 79.7107627413731,24.438485466595,0 79.710764205698,24.4384836230615,0 79.7107655665243,24.4384817142182,0 79.7107668203836,24.4384797449305,0 79.7107679640797,24.438477720218,0 79.7107689946978,24.4384756452412,0 79.7107699096108,24.4384735252892,0 79.7107733096083,24.438465025288,0 79.7107741093105,24.4384628574123,0 79.7107747880148,24.4384606552287,0 79.7107753439779,24.4384584243934,0 79.7107757757718,24.4384561706363,0 79.7107760822875,24.4384538997461,0 79.7107762627378,24.4384516175553,0 79.7107763166591,24.4384493299257,0 79.7107762439129,24.4384470427329,0 79.7107760446862,24.4384447618515,0 79.7107757194907,24.4384424931399,0 79.710774151943,24.4384333581418,0 79.7107797275051,24.4384066601915,0 79.7108265625902,24.4384383918694,0 79.7108287040328,24.4384397638522,0 79.7108309218657,24.4384410300418,0 79.7108332098593,24.4384421868815,0 79.7108355615868,24.4384432311219,0 79.7108379704425,24.4384441598299,0 79.7108404296603,24.4384449703969,0 79.7108429323324,24.4384456605459,0 79.7108454714292,24.4384462283386,0 79.7108480398187,24.43844667218,0 79.7108506302865,24.4384469908235,0 79.7108532355563,24.438447183374,0 79.7108558483102,24.4384472492906,0 79.7108584612093,24.4384471883883,0 79.7108610669142,24.438447000838,0 79.710863658106,24.4384466871665,0 79.7108662275061,24.4384462482551,0 79.7108687678974,24.4384456853364,0 79.7108712721444,24.4384449999917,0 79.7108737332128,24.438444194146,0 79.7108875332168,24.4384392941445,0 79.7108899116984,24.4384383834403,0 79.7108922349445,24.4384373601879,0 79.7108944966059,24.4384362271838,0 79.710896690502,24.4384349875243,0 79.710898810637,24.4384336445972,0 79.710900851217,24.4384322020725,0 79.7109028066654,24.4384306638925,0 79.7109046716382,24.4384290342608,0 79.7109064410388,24.4384273176308,0 79.7109081100317,24.4384255186939,0 79.7109096740557,24.4384236423663,0 79.7109111288366,24.4384216937757,0 79.7109124703987,24.4384196782474,0 79.7109136950758,24.4384176012895,0 79.7109147995209,24.4384154685779,0 79.7109157807159,24.4384132859411,0 79.7109166359792,24.4384110593438,0 79.7109173629736,24.4384087948712,0 79.7109179597122,24.4384064987114,0 79.7109184245644,24.4384041771398,0 79.7109187562598,24.4384018365007,0 79.7109189538918,24.4383994831908,0 79.7109190169204,24.4383971236412,0 79.7109189451733,24.4383947643004,0 79.7109187388467,24.438392411616,0 79.7109183985044,24.4383900720176,0 79.7109179250765,24.4383877518988,0 79.7109173198568,24.4383854576003,0 79.7109165844993,24.438383195392,0 79.7109157210136,24.4383809714562,0 79.7109147317596,24.4383787918706,0 79.7109136194407,24.4383766625916,0 79.7109123870966,24.4383745894382,0 79.7109110380953,24.438372578076,0 79.7109095761233,24.4383706340019,0 79.710908005176,24.4383687625285,0 79.7109063295465,24.4383669687705,0 79.7109045538141,24.4383652576298,0 79.7109026828316,24.4383636337827,0 79.7109007217122,24.438362101667,0 79.7108986758151,24.4383606654697,0 79.7108965507316,24.4383593291157,0 79.7108943522692,24.438358096257,0 79.7108920864361,24.4383569702629,0 79.7108897594242,24.4383559542105,0 79.710887377593,24.4383550508766,0 79.7108782241116,24.4383518332898,0 79.7108677545498,24.4383440335657,0 79.7108689098406,24.4383427390061,0 79.7108858177385,24.4383315560243,0 79.7108865524692,24.4383323069291,0 79.7108884007911,24.4383340052171,0 79.7108903449743,24.4383356112922,0 79.7108923795372,24.4383371206262,0 79.7108944987433,24.4383385289634,0 79.7108966966174,24.438339832333,0 79.7108989669627,24.4383410270601,0 79.7109013033778,24.4383421097761,0 79.7109036992752,24.4383430774284,0 79.7109061478996,24.4383439272887,0 79.7109086423471,24.4383446569606,0 79.7109111755845,24.4383452643869,0 79.7109137404694,24.438345747855,0 79.7109163297699,24.4383461060016,0 79.7109189361856,24.4383463378171,0 79.7109215523676,24.4383464426478,0 79.7109241709394,24.438346420198,0 79.7109267845182,24.4383462705312,0 79.7109293857346,24.4383459940693,0 79.7109319672547,24.4383455915918,0 79.7109345217997,24.4383450642335,0 79.7109370421671,24.4383444134813,0 79.7109483529081,24.4383411939465,0 79.7109486199894,24.4383429817605,0 79.7109424524415,24.4384593567103,0 79.7109407478419,24.4384601351389,0 79.7109385181373,24.4384612894302,0 79.7109363569058,24.4384625481518,0 79.7109342699778,24.438463907908,0 79.7109322629832,24.4384653650305,0 79.7109303413364,24.4384669155884,0 79.7109285102213,24.4384685553988,0 79.7109267745779,24.4384702800379,0 79.7109251390884,24.4384720848531,0 79.7109236081649,24.4384739649756,0 79.7109221859374,24.4384759153333,0 79.7109208762428,24.4384779306646,0 79.710919682614,24.4384800055328,0 79.7109186082714,24.4384821343405,0 79.7109176561131,24.4384843113448,0 79.7109168287078,24.4384865306726,0 79.7109161282876,24.4384887863369,0 79.710915556742,24.4384910722526,0 79.710915115613,24.4384933822529,0 79.7109148060906,24.438495710106,0 79.7109146290097,24.438498049532,0 79.7109145848482,24.4385003942199,0 79.7109146737252,24.4385027378443,0 79.7109148954008,24.4385050740828,0 79.7109152492771,24.4385073966329,0 79.7109157343995,24.438509699229,0 79.7109163494592,24.4385119756592,0 79.710917092797,24.4385142197825,0 79.7109179624075,24.4385164255449,0 79.7109189559448,24.4385185869957,0 79.7109200707287,24.438520698304,0 79.7109213037516,24.4385227537741,0 79.7109226516874,24.438524747861,0 79.7109241108997,24.438526675185,0 79.7109256774518,24.4385285305469,0 79.7109273471178,24.4385303089413,0 79.7109291153932,24.4385320055707,0 79.7109309775079,24.438533615858,0 79.7109329284383,24.4385351354592,0 79.7109349629213,24.4385365602747,0 79.7109370754685,24.4385378864608,0 79.7109392603809,24.4385391104399,0 79.7109415117641,24.4385402289099,0 79.7109438235446,24.4385412388535,0 79.710973723552,24.4385534388578,0 79.7109758495483,24.438554252367,0 79.7109780147309,24.438554974075,0 79.710980214373,24.4385556024064,0 79.7109852063349,24.4385569120266,0 79.7110039810078,24.4386261402716,0 79.7109367578008,24.4386682339487,0 79.7109346803921,24.4386696086606,0 79.7109326838105,24.438671080332,0 79.7109307734497,24.4386726449874,0 79.7109289544705,24.4386742983998,0 79.7109272317868,24.4386760361027,0 79.7109256100524,24.4386778534015,0 79.7109240936483,24.4386797453871,0 79.7109196936475,24.4386855453859,0 79.7109182662397,24.4386875371374,0 79.7109169555686,24.4386895950407,0 79.7109157652829,24.4386917133672,0 79.7109146986961,24.4386938862197,0 79.7109137587774,24.4386961075493,0 79.7109129481435,24.4386983711722,0 79.710912269051,24.4387006707868,0 79.7109117233904,24.4387029999915,0 79.7109113126807,24.4387053523021,0 79.7109110380653,24.43870772117,0 79.7109109003086,24.4387101000009,0 79.7109108997943,24.4387124821725,0 79.7109110365237,24.438714861053,0 79.7109113101162,24.4387172300202,0 79.7109117198101,24.4387195824792,0 79.710912264465,24.4387219118812,0 79.7109129425646,24.4387242117414,0 79.7109137522213,24.4387264756575,0 79.7109160522193,24.4387323756581,0 79.7109169488783,24.4387345042955,0 79.7109179618463,24.4387365887487,0 79.7109190885367,24.4387386236953,0 79.7109203260728,24.4387406039392,0 79.7109216712945,24.4387425244242,0 79.7109231207671,24.4387443802465,0 79.7109246707895,24.4387461666677,0 79.7109263174039,24.4387478791262,0 79.710928056406,24.4387495132495,0 79.7109298833555,24.4387510648652,0 79.7109381833558,24.4387577648669,0 79.7109402359195,24.4387593333013,0 79.7109423783107,24.4387607975978,0 79.7109446042329,24.4387621534527,0 79.7109469071441,24.4387633968813,0 79.7109492802761,24.4387645242292,0 79.7109517166543,24.438765532183,0 79.7109542091182,24.4387664177804,0 79.7109567503426,24.4387671784187,0 79.7109593328587,24.4387678118623,0 79.7109619490766,24.4387683162495,0 79.7109645913073,24.4387686900981,0 79.7109672517853,24.4387689323091,0 79.710977851789,24.4387696323095,0 79.71098017307,24.438769735341,0 79.7109824970755,24.4387697381429,0 79.7109848186449,24.4387696407088,0 79.7109871326226,24.4387694432553,0 79.7110011326276,24.438767943255,0 79.7110040433108,24.4387675505044,0 79.7110069232325,24.4387669995545,0 79.7110097621431,24.4387662923662,0 79.711015862145,24.4387645923657,0 79.7110182708502,24.4387638585631,0 79.7110206351191,24.4387630122617,0 79.7111083351439,24.4387292122518,0 79.7111107441698,24.438728213368,0 79.7111130912439,24.4387270976977,0 79.7111153696172,24.4387258684492,0 79.7111175727379,24.4387245291573,0 79.7111196942709,24.4387230836732,0 79.7111217281157,24.4387215361534,0 79.7111236684235,24.438719891048,0 79.7111255096152,24.4387181530875,0 79.711127246396,24.4387163272697,0 79.711128873772,24.4387144188447,0 79.7111303870633,24.4387124333003,0 79.7111317819185,24.4387103763462,0 79.7111330543265,24.4387082538972,0 79.7111341860758,24.4387060997558,0 79.7111346213023,24.4387065196797,0 79.7111364851038,24.4387081398577,0 79.7111384385729,24.4387096689424,0 79.7111404764041,24.4387111027806,0 79.7111425930628,24.4387124374783,0 79.7111447828,24.4387136694103,0 79.7111470396686,24.4387147952308,0 79.7111493575389,24.4387158118821,0 79.7111517301157,24.4387167166029,0 79.711154150955,24.4387175069362,0 79.711156613482,24.4387181807352,0 79.7111591110085,24.4387187361701,0 79.7111616367513,24.4387191717322,0 79.7111641838505,24.4387194862387,0 79.7111667453882,24.4387196788352,0 79.7111693144073,24.4387197489988,0 79.7111718839306,24.4387196965388,0 79.7111744469791,24.4387195215977,0 79.7111769965918,24.4387192246507,0 79.7111795258439,24.4387188065043,0 79.711182027866,24.4387182682941,0 79.7111844958628,24.4387176114819,0 79.7111869231311,24.4387168378517,0 79.7111893030786,24.4387159495044,0 79.7111916292415,24.438714948853,0 79.7111938953018,24.4387138386151,0 79.7111960951051,24.4387126218061,0 79.7111982226766,24.4387113017308,0 79.7112002722381,24.4387098819746,0 79.711202238223,24.4387083663934,0 79.7112041152915,24.4387067591036,0 79.7112058983458,24.4387050644705,0 79.7112075825431,24.4387032870966,0 79.711209163309,24.4387014318093,0 79.7112106363504,24.4386995036475,0 79.7112119976665,24.4386975078481,0 79.7112132435599,24.4386954498316,0 79.711214370647,24.4386933351874,0 79.7112153758664,24.438691169659,0 79.7112162564882,24.4386889591278,0 79.7112170101204,24.4386867095976,0 79.7112176347164,24.4386844271781,0 79.7112181285798,24.4386821180683,0 79.7112184903691,24.4386797885395,0 79.7112187191019,24.4386774449189,0 79.7112188141568,24.4386750935716,0 79.7112187752758,24.4386727408837,0 79.7112186025644,24.4386703932452,0 79.7112182964917,24.4386680570321,0 79.7112178578891,24.4386657385896,0 79.7112172879477,24.4386634442145,0 79.7112165882155,24.4386611801382,0 79.711215760593,24.43865895251,0 79.711214807328,24.4386567673799,0 79.7112137310095,24.4386546306827,0 79.7112125345607,24.4386525482218,0 79.7111760345458,24.4385928482314,0 79.7111747294882,24.4385908376794,0 79.7111733124582,24.4385888916936,0 79.7111717872581,24.4385870154958,0 79.7111701579804,24.4385852141203,0 79.711168428997,24.4385834924007,0 79.7111666049473,24.438581854957,0 79.7111646907257,24.4385803061828,0 79.7111626914686,24.438578850234,0 79.7111606125406,24.4385774910173,0 79.7111584595202,24.4385762321798,0 79.7111562381844,24.4385750770995,0 79.7111539544938,24.4385740288757,0 79.7111516145762,24.4385730903211,0 79.7111492247103,24.4385722639541,0 79.7111467913088,24.4385715519922,0 79.7111443209011,24.4385709563457,0 79.7111418201162,24.4385704786128,0 79.7111392956644,24.4385701200756,0 79.7111367543194,24.438569881696,0 79.7111342029006,24.4385697641138,0 79.711131648254,24.4385697676443,0 79.7111290972345,24.4385698922782,0 79.7111265566873,24.438570137681,0 79.7111240334293,24.4385705031942,0 79.7111239715806,24.4385705136634,0 79.711086916605,24.4384936667341,0 79.7110855662628,24.4384910902532,0 79.7110831517009,24.4384868340793,0 79.7111161397231,24.4384487555928,0 79.7111177249303,24.4384468215717,0 79.7111191947676,24.4384448126309,0 79.7111205450194,24.4384427345322,0 79.7111217718128,24.4384405932358,0 79.7111228716294,24.4384383948833,0 79.7111238413147,24.4384361457798,0 79.7111246780877,24.438433852376,0 79.7111253795482,24.4384315212496,0 79.7111259436845,24.4384291590867,0 79.7111263688786,24.4384267726621,0 79.7111266539109,24.4384243688204,0 79.711126797964,24.4384219544561,0 79.7111268006247,24.4384195364939,0 79.7111266618854,24.4384171218688,0 79.711126382144,24.4384147175062,0 79.7111259622028,24.4384123303021,0 79.7111254032664,24.4384099671034,0 79.7111227032627,24.4383998671041,0 79.7111220037984,24.4383975251964,0 79.7111211678357,24.4383952210969,0 79.7111201977919,24.4383929614684,0 79.7111190964721,24.438390752845,0 79.7111178670609,24.4383886016133,0 79.7110649670391,24.4383018016272,0 79.7110636214099,24.4382997260831,0 79.7110621565498,24.4382977193371,0 79.7110605766449,24.4382957871243,0 79.7110588862103,24.4382939349663,0 79.7110509862095,24.4382857349682,0 79.7110492349496,24.4382840100527,0 79.7110473878302,24.4382823710802,0 79.7110454498766,24.4382808225096,0 79.7110434263612,24.4382793685539,0 79.7110413227892,24.4382780131687,0 79.7110391448833,24.4382767600415,0 79.7110368985689,24.4382756125815,0 79.7110345899571,24.4382745739104,0 79.7110341048197,24.4382743698447,0 79.7110161202467,24.4382509144487,0 79.7110124432103,24.4382430443065,0 79.7110113754675,24.4382409137028,0 79.7110101883731,24.4382388367059,0 79.711008885127,24.4382368189145,0 79.7110074692426,24.4382348657681,0 79.7110059445363,24.4382329825316,0 79.7110043151184,24.4382311742815,0 79.7110025853813,24.4382294458923,0 79.7110007599876,24.4382278020232,0 79.7109988438581,24.4382262471055,0 79.7109968421579,24.4382247853306,0 79.7109947602831,24.4382234206391,0 79.7109926038456,24.4382221567096,0 79.7109903786583,24.4382209969494,0 79.7109880907198,24.4382199444846,0 79.7109857461975,24.4382190021525,0 79.7109833514114,24.4382181724932,0 79.710980912817,24.4382174577431,0 79.710978436988,24.4382168598291,0 79.7109759305983,24.4382163803628,0 79.7109734004044,24.4382160206368,0 79.7109708532267,24.4382157816208,0 79.7109130262233,24.4382117409161,0 79.7108535652047,24.4381923659855,0 79.7108958291595,24.4381524073195,0 79.7108976064742,24.438150634781,0 79.7108992781191,24.4381487780769,0 79.7109008393465,24.4381468424806,0 79.7109022857223,24.4381448334893,0 79.7109036131389,24.4381427568087,0 79.710904817826,24.4381406183368,0 79.7109058963625,24.438138424147,0 79.7109068456851,24.4381361804711,0 79.7109076630977,24.4381338936812,0 79.7109083462787,24.4381315702721,0 79.7109088932878,24.4381292168426,0 79.7109093025716,24.4381268400764,0 79.7109095729675,24.4381244467239,0 79.7109097037078,24.4381220435825,0 79.710909694421,24.4381196374771,0 79.7109095451335,24.4381172352415,0 79.7109092562694,24.4381148436982,0 79.710908828649,24.4381124696393,0 79.7109082634869,24.4381101198075,0 79.7109075623881,24.4381078008765,0 79.7109067273439,24.4381055194321,0 79.7109057607259,24.438103281954,0 79.7109046652793,24.4381010947968,0 79.7109034441153,24.4380989641722,0 79.7109021007022,24.4380968961314,0 79.7108922765122,24.438082651063,0 79.7108905570422,24.4380800824736,0 79.7109408036335,24.4380782120414,0 79.710943385311,24.4380780537455,0 79.7109459543665,24.438077771706,0 79.7109485037283,24.4380773666994,0 79.7109510263788,24.4380768398403,0 79.7109535153738,24.4380761925791,0 79.710955963862,24.4380754266975,0 79.7109583651034,24.4380745443038,0 79.7109607124881,24.4380735478269,0 79.7109629995546,24.4380724400097,0 79.7109652200073,24.4380712239018,0 79.7109673677339,24.4380699028507,0 79.7109694368224,24.4380684804929,0 79.7109714215773,24.4380669607437,0 79.7109733165351,24.4380653477865,0 79.7109751164797,24.4380636460612,0 79.7109768164563,24.4380618602522,0 79.7109784117855,24.4380599952752,0 79.7109798980758,24.4380580562639,0 79.7109812712359,24.4380560485559,0 79.7109825274859,24.4380539776777,0 79.7109836633678,24.4380518493298,0 79.7109846757549,24.4380496693709,0 79.7109855618604,24.4380474438017,0 79.7109863192451,24.4380451787485,0 79.7109869458242,24.4380428804464,0 79.7109874398729,24.4380405552217,0 79.7109878000312,24.4380382094752,0 79.7109880253078,24.438035849664,0 79.7109881150826,24.4380334822838,0 79.7109880691084,24.4380311138513,0 79.7109878875118,24.4380287508861,0 79.7109875707927,24.4380263998926,0 79.7109871198229,24.4380240673425,0 79.7109865358438,24.4380217596564,0 79.710985820463,24.4380194831868,0 79.7109849756496,24.4380172442,0 79.7109840037292,24.4380150488593,0 79.7109829073771,24.4380129032077,0 79.7109816896113,24.4380108131515,0 79.7109803537839,24.4380087844441,0 79.7109789035721,24.4380068226698,0 79.7109773429677,24.4380049332287,0 79.7109756762668,24.4380031213219,0 79.7109739080571,24.438001391937,0 79.710972043206,24.4379997498345,0 79.7109700868468,24.4379981995345,0 79.7109680443649,24.4379967453045,0 79.7109659213825,24.4379953911475,0 79.7109637237434,24.4379941407912,0 79.7109614574972,24.4379929976773,0 79.7109591288821,24.4379919649526,0 79.710956744308,24.4379910454597,0 79.7109543103389,24.4379902417297,0 79.7109534541715,24.4379900046686,0 79.7109691319461,24.4379766218682,0 79.710970965633,24.437974972754,0 79.7109727029734,24.437973238412,0 79.7109743392474,24.4379714235538,0 79.7109758700101,24.4379695331096,0 79.7109772911028,24.4379675722152,0 79.710978598665,24.4379655461974,0 79.7109797891447,24.4379634605602,0 79.7109808593076,24.4379613209695,0 79.7109818062466,24.4379591332377,0 79.7109826273893,24.4379569033081,0 79.7109833205048,24.4379546372384,0 79.7109838837103,24.4379523411849,0 79.7109843154759,24.4379500213849,0 79.7109846146284,24.4379476841405,0 79.7109847803553,24.4379453358011,0 79.7109848122063,24.4379429827462,0 79.710984710095,24.4379406313682,0 79.7109844742987,24.4379382880548,0 79.710984105458,24.437935959172,0 79.710983604575,24.4379336510463,0 79.7109830410084,24.4379316155454,0 79.710985524882,24.4379316456959,0 79.7109880801849,24.4379315553505,0 79.7109906269373,24.4379313438649,0 79.7109931582917,24.4379310118077,0 79.710995667442,24.4379305600716,0 79.7109981476418,24.4379299898711,0 79.7110005922227,24.4379293027396,0 79.7110029946119,24.4379285005243,0 79.7110053483502,24.4379275853822,0 79.7110076471089,24.4379265597739,0 79.7110092346849,24.4379257556856,0 79.7110114477007,24.4379258425778,0 79.7110139703024,24.437925823418,0 79.7110164885336,24.4379256861882,0 79.7110189958051,24.4379254312475,0 79.7110214855563,24.437925059263,0 79.7110335855605,24.4379229592624,0 79.7110360614889,24.437922468933,0 79.7110385066492,24.437921862858,0 79.7110409145898,24.4379211426364,0 79.7110432789576,24.4379203101686,0 79.7110455935144,24.437919367651,0 79.7110478521533,24.4379183175703,0 79.7110500489151,24.4379171626971,0 79.7110521780036,24.4379159060785,0 79.7110542338014,24.43791455103,0 79.7110562108845,24.4379131011268,0 79.7110581040364,24.4379115601944,0 79.7110599082621,24.4379099322985,0 79.7110616188013,24.4379082217342,0 79.7110632311408,24.4379064330146,0 79.7110647410266,24.4379045708593,0 79.711066144475,24.4379026401815,0 79.7110674377829,24.437900646075,0 79.7110686175381,24.4378985938013,0 79.7110696806279,24.4378964887751,0 79.7110706242475,24.4378943365505,0 79.711071445907,24.4378921428059,0 79.7110721434387,24.4378899133294,0 79.7110727150021,24.4378876540034,0 79.7110731590892,24.437885370789,0 79.711075959083,24.4378684707879,0 79.7110763049705,24.4378658800436,0 79.7110764867566,24.4378632753302,0 79.711076920089,24.437851912279,0 79.7111125439466,24.4378034654912,0 79.7111146207125,24.4378064218297,0 79.7111157754251,24.4378079922272,0 79.7111170010298,24.4378095169295,0 79.7111258541528,24.4378200601985,0 79.7111278826516,24.437823358716,0 79.7111239579216,24.4378312081691,0 79.7111229344352,24.4378334071616,0 79.7111220395037,24.4378356526616,0 79.7111212756356,24.4378379383752,0 79.7111206449719,24.437840257896,0 79.7111201492802,24.4378426047227,0 79.7111197899499,24.4378449722773,0 79.7111195679881,24.4378473539239,0 79.7111194840171,24.4378497429872,0 79.7111195382721,24.4378521327709,0 79.7111197306011,24.4378545165767,0 79.7111200604651,24.4378568877232,0 79.7111205269394,24.4378592395643,0 79.7111211287167,24.4378615655082,0 79.7111218641102,24.4378638590356,0 79.7111227310588,24.4378661137179,0 79.7111237271324,24.4378683232357,0 79.7111248495393,24.437870481396,0 79.7111260951335,24.4378725821496,0 79.7111274604237,24.4378746196086,0 79.7111289415833,24.437876588062,0 79.7111305344607,24.4378784819928,0 79.7111322345913,24.4378802960923,0 79.71113403721,24.4378820252759,0 79.7111359372642,24.437883664697,0 79.7111379294282,24.4378852097605,0 79.7111400081184,24.4378866561357,0 79.7111421675085,24.4378879997687,0 79.7111444015459,24.4378892368934,0 79.711146703969,24.4378903640423,0 79.7111490683243,24.4378913780562,0 79.7111514879849,24.437892276093,0 79.7111539561688,24.4378930556355,0 79.7111564659581,24.4378937144989,0 79.711159010318,24.4378942508363,0 79.7111615821171,24.4378946631445,0 79.711164174147,24.4378949502679,0 79.7111667791426,24.4378951114018,0 79.7111693898024,24.4378951460943,0 79.711171998809,24.4378950542484,0 79.7111745988498,24.4378948361214,0 79.7111771826372,24.4378944923248,0 79.7111797429291,24.4378940238221,0 79.7111845429307,24.4378930238219,0 79.7111869465911,24.437892464509,0 79.7111886360767,24.4378919874185,0 79.7112046146194,24.4379140357385,0 79.7112120248286,24.4379244100362,0 79.7112134762894,24.4379263316355,0 79.7112150343837,24.4379281819248,0 79.7112166949398,24.4379299559497,0 79.7112184535111,24.43793164896,0 79.7112203053889,24.4379332564225,0 79.7112222456146,24.4379347740329,0 79.7112242689927,24.4379361977276,0 79.7112275996334,24.4379384181553,0 79.7112277743199,24.4379386603184,0 79.7112293112815,24.4379405655734,0 79.7112309552655,24.4379423944172,0 79.7112327017476,24.4379441418167,0 79.7112345459215,24.4379458029631,0 79.7112364827119,24.4379473732848,0 79.7112385067888,24.4379488484604,0 79.711240612582,24.43795022443,0 79.7112427942961,24.4379514974071,0 79.7112450459273,24.4379526638883,0 79.7112473612788,24.4379537206636,0 79.7112497339787,24.4379546648245,0 79.7112521574976,24.4379554937729,0 79.7112546251656,24.4379562052273,0 79.7112571301918,24.4379567972299,0 79.7112596656824,24.4379572681515,0 79.7112622246595,24.437957616696,0 79.7112648000809,24.4379578419043,0 79.7112673848589,24.4379579431566,0 79.7112699718802,24.4379579201743,0 79.7112725540252,24.4379577730205,0 79.7112751241879,24.4379575021004,0 79.7112776752951,24.4379571081593,0 79.7112802003262,24.4379565922816,0 79.7112826923321,24.4379559558868,0 79.7112851444549,24.4379552007264,0 79.7112875499463,24.4379543288785,0 79.7112899021863,24.4379533427426,0 79.7112921947016,24.4379522450324,0 79.711294421183,24.4379510387689,0 79.7112965755033,24.4379497272717,0 79.7112986517337,24.4379483141501,0 79.7113006441605,24.4379468032931,0 79.7113025473004,24.4379451988585,0 79.7113043559159,24.4379435052618,0 79.7113060650299,24.4379417271637,0 79.7113076699386,24.4379398694577,0 79.7113091662254,24.4379379372561,0 79.7113105497726,24.4379359358765,0 79.7113118167725,24.4379338708266,0 79.7113201167691,24.4379194708241,0 79.7113210947262,24.4379176789105,0 79.7113219849022,24.4379158490479,0 79.7113262335283,24.4379065667209,0 79.7113294447809,24.4379102526814,0 79.711331115143,24.4379120697923,0 79.7113328875647,24.4379138039776,0 79.7113347571417,24.4379154504386,0 79.7113367187009,24.4379170046199,0 79.7113387668149,24.4379184622209,0 79.7113408958163,24.4379198192085,0 79.7113430998145,24.4379210718279,0 79.711345372711,24.4379222166133,0 79.7113477082166,24.4379232503969,0 79.7113500998692,24.4379241703184,0 79.711352541051,24.4379249738322,0 79.7113550250075,24.4379256587153,0 79.7113575448654,24.4379262230723,0 79.7113600936525,24.4379266653419,0 79.7113626643163,24.4379269843002,0 79.7113652497438,24.4379271790648,0 79.7113678427812,24.4379272490966,0 79.7113704362536,24.4379271942019,0 79.711373022985,24.4379270145327,0 79.7113755958179,24.437926710586,0 79.7113781476333,24.4379262832028,0 79.7113806713705,24.4379257335658,0 79.7113831600462,24.4379250631957,0 79.7113856067745,24.4379242739475,0 79.7113880047851,24.4379233680049,0 79.711390347443,24.4379223478748,0 79.711392628266,24.4379212163798,0 79.7113948409431,24.4379199766506,0 79.7113969793519,24.4379186321177,0 79.7113990375755,24.4379171865013,0 79.7114010099188,24.4379156438013,0 79.7114028909244,24.4379140082865,0 79.7114046753877,24.4379122844822,0 79.7114063583709,24.4379104771582,0 79.7114079352174,24.4379085913153,0 79.711409401564,24.4379066321715,0 79.7114107533535,24.4379046051478,0 79.7114119868454,24.437902515853,0 79.7114130986268,24.437900370068,0 79.7114140856213,24.4378981737301,0 79.711414945098,24.4378959329167,0 79.7114156746787,24.4378936538279,0 79.7114162723446,24.43789134277,0 79.7114167364422,24.4378890061376,0 79.7114170656872,24.4378866503961,0 79.7114172591686,24.4378842820638,0 79.7114173163511,24.4378819076937,0 79.7114172370765,24.4378795338559,0 79.7114170215641,24.4378771671184,0 79.7114168895073,24.4378762822033,0 79.7114363635498,24.4378337870236,0 79.7114375277951,24.4378321091399,0 79.7114388949055,24.4378300160563,0 79.711440136573,24.4378278584465,0 79.7114412491748,24.4378256426055,0 79.7114422294647,24.4378233749982,0 79.7114430745827,24.4378210622407,0 79.711443782063,24.4378187110808,0 79.7114443498414,24.4378163283783,0 79.7114447762615,24.437813921085,0 79.7114450600791,24.4378114962244,0 79.7114451917753,24.4378092116331,0 79.7114461032209,24.4378095788906,0 79.7114484796698,24.4378104054242,0 79.7114508994845,24.4378111187482,0 79.7114533562352,24.4378117169672,0 79.7114558433939,24.4378121984916,0 79.7114583543518,24.4378125620419,0 79.7114641543538,24.4378132620422,0 79.7114666900437,24.4378135072066,0 79.7114692361854,24.4378136320608,0 79.7114717859728,24.4378136362712,0 79.7114743325899,24.4378135198264,0 79.7114768692293,24.4378132830377,0 79.7114793891102,24.4378129265381,0 79.7114818854967,24.4378124512805,0 79.7114843517156,24.4378118585355,0 79.7114867811743,24.4378111498874,0 79.7114891673785,24.4378103272306,0 79.7114915039497,24.4378093927641,0 79.7114937846419,24.437808348986,0 79.7114960033585,24.4378071986863,0 79.7114981541686,24.4378059449399,0 79.7115002313227,24.4378045910984,0 79.7115022292684,24.4378031407806,0 79.7115041426648,24.4378015978636,0 79.7115059663973,24.4377999664716,0 79.7115076955908,24.4377982509656,0 79.7115091132128,24.437796689843,0 79.7115118201976,24.4377954038004,0 79.7115132500272,24.4377954481921,0 79.7115158928791,24.4377954005054,0 79.7115185291438,24.437795223248,0 79.7115211512474,24.4377949169293,0 79.7115237516567,24.4377944824291,0 79.711526322901,24.4377939209958,0 79.7115288575932,24.4377932342424,0 79.7115313484514,24.4377924241419,0 79.7115337883195,24.4377914930215,0 79.7115361701878,24.4377904435565,0 79.7115384872136,24.4377892787618,0 79.71154073274,24.4377880019837,0 79.7115470327412,24.4377842019826,0 79.7115492130074,24.4377828083051,0 79.7115513080513,24.4377813090677,0 79.7115533117819,24.4377797086292,0 79.7115552183737,24.4377780116426,0 79.7115570222837,24.4377762230416,0 79.7115587182674,24.4377743480263,0 79.7115603013938,24.4377723920479,0 79.7115615056534,24.4377707230748,0 79.7115627504177,24.4377710042278,0 79.7115652983799,24.4377714510904,0 79.7115678684846,24.4377717746686,0 79.7115704536198,24.4377719740671,0 79.7115730466316,24.4377720487341,0 79.7115756403446,24.4377719984629,0 79.7115782275812,24.4377718233927,0 79.711580801182,24.4377715240078,0 79.711583354025,24.4377711011369,0 79.711585879046,24.43777055595,0 79.7115883692574,24.4377698899559,0 79.7115908177684,24.4377691049975,0 79.7115932178031,24.437768203247,0 79.7115955627201,24.4377671871998,0 79.7115978460304,24.4377660596676,0 79.7116000614155,24.4377648237705,0 79.7116022027448,24.4377634829286,0 79.7116042640928,24.4377620408523,0 79.7116062397551,24.4377605015323,0 79.7116081242645,24.4377588692282,0 79.7116099124063,24.437757148457,0 79.711611599232,24.4377553439806,0 79.7116131800739,24.4377534607923,0 79.7116146505573,24.4377515041036,0 79.7116160066131,24.437749479329,0 79.7116172444886,24.4377473920716,0 79.7116183607585,24.4377452481074,0 79.7116193523336,24.4377430533693,0 79.7116288523268,24.4377203533661,0 79.7116297175612,24.4377181108233,0 79.7116304526057,24.4377158296799,0 79.7116307776128,24.4377145824049,0 79.711632156553,24.4377136536624,0 79.711634156775,24.4377121523462,0 79.7116360682677,24.4377105570866,0 79.7116361997661,24.4377104351884,0 79.711649827158,24.4377122692328,0 79.7116524115015,24.4377125534845,0 79.7116550086273,24.4377127125089,0 79.7116576113005,24.4377127458629,0 79.7116602122708,24.4377126534537,0 79.7116609341592,24.4377125927635,0 79.7116913311822,24.4377484712304,0 79.7116929756888,24.4377503102222,0 79.7116947236206,24.4377520674416,0 79.711696570134,24.4377537380195,0 79.7116985101123,24.4377553173267,0 79.71170053818,24.437756800987,0 79.7117026487172,24.4377581848891,0 79.7117048358756,24.4377594651984,0 79.7117070935948,24.437760638367,0 79.7117094156187,24.4377617011441,0 79.7117117955128,24.4377626505849,0 79.7117142266826,24.4377634840583,0 79.7117167023914,24.437764199255,0 79.7117192157789,24.437764794193,0 79.7117217598806,24.4377652672238,0 79.7117243276469,24.4377656170367,0 79.7117269119625,24.4377658426623,0 79.7117295056663,24.4377659434754,0 79.7117321015712,24.4377659191967,0 79.711734692484,24.4377657698934,0 79.7117372712252,24.4377654959793,0 79.7117398306493,24.4377650982133,0 79.7117423636642,24.4377645776977,0 79.7117448632507,24.4377639358748,0 79.7117473224828,24.4377631745231,0 79.7117497345457,24.4377622957523,0 79.7117520927558,24.4377613019975,0 79.7117543905786,24.4377601960123,0 79.7117566216467,24.4377589808613,0 79.7117587797779,24.4377576599119,0 79.711760858992,24.4377562368242,0 79.7117628535276,24.4377547155417,0 79.7117647578579,24.4377531002797,0 79.711766566706,24.4377513955143,0 79.7117682750596,24.4377496059692,0 79.7117698781849,24.4377477366032,0 79.7117713716397,24.4377457925964,0 79.7117727512856,24.4377437793355,0 79.7117740132996,24.4377417023993,0 79.7117751541848,24.4377395675428,0 79.7117761707797,24.4377373806819,0 79.7117770602675,24.4377351478762,0 79.7117778201833,24.4377328753128,0 79.7117784484214,24.4377305692889,0 79.7117789432411,24.4377282361945,0 79.7117793032711,24.4377258824945,0 79.711779527514,24.4377235147111,0 79.7117796153482,24.4377211394052,0 79.7117795665304,24.4377187631589,0 79.7117793811959,24.4377163925567,0 79.7117790598583,24.4377140341675,0 79.711778603408,24.4377116945262,0 79.7117780131098,24.4377093801161,0 79.7117772905994,24.4377070973503,0 79.711776437879,24.4377048525544,0 79.7117754573112,24.4377026519486,0 79.7117743516135,24.4377005016307,0 79.7117731238495,24.4376984075592,0 79.7117622105037,24.4376809148881,0 79.7117679834623,24.4376607501604,0 79.7117680121378,24.4376607141845,0 79.7117694704807,24.4376586589542,0 79.7117708048597,24.4376565343056,0 79.7117720113427,24.4376543464991,0 79.7117730863749,24.4376521019814,0 79.7117740267885,24.4376498073659,0 79.7117775267856,24.4376405073648,0 79.7117783117226,24.4376382273938,0 79.7117789637445,24.4376359125837,0 79.7117794810236,24.4376335694238,0 79.7117798621097,24.4376312044829,0 79.7117801059345,24.4376288243911,0 79.7117802118143,24.4376264358206,0 79.7117801794524,24.4376240454677,0 79.7117800089396,24.4376216600334,0 79.7117797007538,24.4376192862053,0 79.7117792557591,24.4376169306381,0 79.7117786752029,24.4376145999355,0 79.7117779607128,24.4376123006313,0 79.7117771142919,24.4376100391715,0 79.7117761383129,24.437607821896,0 79.711775035512,24.4376056550207,0 79.7117738089809,24.4376035446202,0 79.7117724621579,24.4376014966109,0 79.7117709988188,24.4375995167342,0 79.711769423066,24.4375976105405,0 79.711767739317,24.4375957833736,0 79.711765952292,24.437594040356,0 79.7117640670007,24.4375923863739,0 79.7117620887285,24.4375908260643,0 79.7117600230214,24.4375893638012,0 79.7117578756702,24.4375880036841,0 79.711755652695,24.4375867495259,0 79.7117554275764,24.4375866371139,0 79.711753070562,24.437581965943,0 79.7117525826175,24.4375810274547,0 79.7117503168808,24.4375767958613,0 79.7117501691358,24.4375737178667,0 79.7117500177885,24.4375716491753,0 79.7117499209772,24.4375708668091,0 79.71180136311,24.4375435702114,0 79.7118023854773,24.4375455991883,0 79.7118036134509,24.4375477295238,0 79.7118049637792,24.437549796871,0 79.7118064326187,24.4375517953456,0 79.7118080157887,24.437553719259,0 79.7118097087828,24.4375555631353,0 79.7118115067821,24.437557321726,0 79.7118134046691,24.4375589900257,0 79.7118153970416,24.4375605632858,0 79.7118174782286,24.4375620370282,0 79.7118196423064,24.4375634070581,0 79.7118218831152,24.437564669476,0 79.7118241942769,24.4375658206885,0 79.7118265692132,24.4375668574189,0 79.7118290011641,24.4375677767164,0 79.7118314832075,24.4375685759642,0 79.7118340082786,24.4375692528875,0 79.7118365691901,24.4375698055594,0 79.7118528691954,24.4375729055607,0 79.7118555567419,24.4375733460215,0 79.711858266795,24.4375736496444,0 79.7118609910488,24.4375738154988,0 79.7118637211534,24.4375738430763,0 79.7118664487412,24.4375737322923,0 79.7118678009222,24.4375736084549,0 79.7118677856766,24.4375744420129,0 79.7118678807015,24.4375768360198,0 79.7118681142923,24.4375792220425,0 79.7118684857915,24.4375815933638,0 79.7118689941532,24.4375839433077,0 79.7118696379462,24.4375862652584,0 79.7118704153581,24.437588552679,0 79.7118713242003,24.4375907991298,0 79.711872361914,24.4375929982865,0 79.7118761619118,24.4376004982875,0 79.711877289553,24.4376025816197,0 79.7118785328496,24.4376046090432,0 79.7118798885044,24.4376065751813,0 79.7118813529223,24.4376084748197,0 79.7118829222196,24.4376103029206,0 79.7118845922344,24.4376120546358,0 79.7118863585379,24.4376137253197,0 79.7118882164459,24.4376153105417,0 79.711890161031,24.4376168060977,0 79.7118921871364,24.4376182080216,0 79.7118942893886,24.4376195125953,0 79.7118964622126,24.4376207163592,0 79.711898699846,24.4376218161208,0 79.7119009963544,24.4376228089636,0 79.7119033456476,24.4376236922544,0 79.7119057414952,24.4376244636509,0 79.7119081775434,24.4376251211073,0 79.711909601946,24.4376254335642,0 79.7119095920325,24.4376267499878,0 79.7119097050006,24.4376290700215,0 79.7119099481261,24.4376313816681,0 79.7119103207659,24.4376336788117,0 79.7119108219339,24.4376359553745,0 79.7119114503042,24.4376382053334,0 79.7119122042144,24.4376404227356,0 79.7119130816698,24.4376426017143,0 79.7119140803489,24.4376447365045,0 79.7119151976094,24.4376468214581,0 79.7119164304953,24.437648851059,0 79.7119177757448,24.4376508199371,0 79.7119192297987,24.4376527228835,0 79.7119207888098,24.4376545548633,0 79.7119224486535,24.4376563110297,0 79.711944148652,24.4376781110348,0 79.7119457055601,24.4376796050182,0 79.7119589055597,24.4376917050212,0 79.7119608062811,24.437693357122,0 79.7119628001895,24.4376949144446,0 79.7119648816533,24.4376963725905,0 79.7119670447938,24.4376977274412,0 79.7119692835014,24.4376989751703,0 79.7119715914531,24.4377001122535,0 79.7119739621303,24.4377011354794,0 79.7119763888374,24.4377020419579,0 79.7119788647203,24.4377028291289,0 79.7119813827863,24.4377034947689,0 79.7119839359233,24.4377040369981,0 79.7119865169203,24.4377044542849,0 79.7119891184875,24.4377047454507,0 79.7119917332772,24.4377049096733,0 79.7119943539041,24.4377049464887,0 79.7119969729665,24.437704855793,0 79.7119995830673,24.4377046378424,0 79.7120021768344,24.4377042932523,0 79.7120047469421,24.4377038229961,0 79.7120072861314,24.437703228402,0 79.7120097872307,24.4377025111493,0 79.7120122431757,24.4377016732638,0 79.7120550431881,24.4376858732592,0 79.7120573420282,24.4376849618129,0 79.712059587346,24.4376839446697,0 79.7120617733479,24.4376828244542,0 79.7120638943929,24.437681604057,0 79.7120659450081,24.4376802866272,0 79.7120679199021,24.4376788755642,0 79.7120698139788,24.4376773745092,0 79.712071622351,24.4376757873353,0 79.7120733403523,24.4376741181382,0 79.7120749635496,24.437672371225,0 79.7120764877545,24.4376705511033,0 79.7120779090339,24.4376686624698,0 79.7120792237204,24.4376667101978,0 79.7120804284216,24.437664699325,0 79.7120815200289,24.4376626350402,0 79.7120824957257,24.43766052267,0 79.7120888957213,24.4376456226678,0 79.7120897953572,24.4376433515911,0 79.7120905610176,24.4376410397121,0 79.7120911905106,24.4376386936496,0 79.7120916820338,24.4376363201204,0 79.7120920341801,24.43763392592,0 79.7120922459412,24.437631517903,0 79.7120923167109,24.4376291029635,0 79.7120922462865,24.4376266880156,0 79.7120920348698,24.4376242799733,0 79.7120919538665,24.4376237286955,0 79.7120920525695,24.4376237416842,0 79.7120946017853,24.4376239542986,0 79.7120971596173,24.437624045532,0 79.7120997191747,24.4376240151385,0 79.7121022735616,24.4376238632,0 79.7121048158962,24.4376235901259,0 79.7121086158975,24.4376230901258,0 79.7121112343272,24.4376226794166,0 79.7121138248005,24.43762214022,0 79.7121163798006,24.4376214741006,0 79.7121188919135,24.4376206829914,0 79.7121213538497,24.4376197691878,0 79.7121225060796,24.4376192737953,0 79.712161520407,24.4376179011678,0 79.7121615901577,24.4376179329724,0 79.7121639866275,24.4376188842543,0 79.7121664347516,24.4376197180402,0 79.7121689276623,24.437620431991,0 79.7121714583664,24.4376210241039,0 79.7121740197646,24.4376214927178,0 79.7121766046715,24.4376218365183,0 79.7121792058359,24.4376220545407,0 79.7121818159607,24.4376221461737,0 79.7121844277239,24.4376221111599,0 79.7121870337989,24.4376219495978,0 79.7121896268748,24.4376216619405,0 79.7121921996774,24.437621248995,0 79.7121947449895,24.4376207119197,0 79.7121972556706,24.4376200522212,0 79.7121997246777,24.4376192717501,0 79.7122021450847,24.4376183726959,0 79.7122091450866,24.4376155726951,0 79.7122114544403,24.4376145830987,0 79.7122137048385,24.4376134855511,0 79.7122158902654,24.437612282986,0 79.712218004879,24.4376109786182,0 79.7122200430266,24.4376095759346,0 79.7122219992598,24.4376080786847,0 79.7122238683492,24.4376064908709,0 79.7122256452984,24.4376048167378,0 79.7122273253574,24.4376030607607,0 79.712228904035,24.4376012276336,0 79.7122303771112,24.4375993222567,0 79.7122317406481,24.4375973497235,0 79.7122329910007,24.437595315307,0 79.7122341248267,24.4375932244454,0 79.7122351390952,24.4375910827281,0 79.7122360310947,24.4375888958802,0 79.712236798441,24.4375866697476,0 79.7122374390826,24.4375844102811,0 79.7122379513071,24.4375821235208,0 79.7122383337451,24.4375798155794,0 79.7122385853745,24.4375774926267,0 79.7122386517033,24.4375762053603,0 79.7122666114957,24.4375601443074,0 79.7122687909473,24.4375588172841,0 79.7122708904243,24.4375573862685,0 79.7122729040128,24.4375558552915,0 79.7122748260406,24.4375542286658,0 79.7122766510935,24.4375525109734,0 79.7122783740306,24.4375507070528,0 79.7122799899985,24.4375488219857,0 79.7122814944452,24.4375468610819,0 79.7122828831328,24.4375448298653,0 79.7122841521496,24.4375427340574,0 79.7122852979208,24.4375405795621,0 79.7122863172189,24.4375383724483,0 79.7122872071727,24.4375361189333,0 79.7122879652753,24.4375338253649,0 79.7122885893911,24.4375314982039,0 79.7122890777621,24.4375291440058,0 79.7122894290126,24.4375267694021,0 79.7122935289995,24.4374921694002,0 79.7122937415177,24.4374897914081,0 79.712293816522,24.4374874064583,0 79.7122937538027,24.4374850212113,0 79.7122935535352,24.4374826423282,0 79.7122932162787,24.4374802764523,0 79.712292742975,24.4374779301906,0 79.7122921349459,24.4374756100956,0 79.7122913938894,24.4374733226462,0 79.712290521875,24.4374710742307,0 79.712289521338,24.437468871128,0 79.7122883950726,24.4374667194905,0 79.7122871462239,24.4374646253271,0 79.7122857782796,24.4374625944859,0 79.7122842950598,24.4374606326385,0 79.7122827007067,24.4374587452634,0 79.7122809996727,24.4374569376316,0 79.7122791967082,24.437455214791,0 79.7122772968483,24.437453581553,0 79.7122753053985,24.4374520424785,0 79.7122732279203,24.4374506018658,0 79.7122710702154,24.4374492637377,0 79.7122688383094,24.4374480318314,0 79.7122665384352,24.4374469095871,0 79.7122641770157,24.4374459001387,0 79.7122617606452,24.4374450063054,0 79.712259296072,24.4374442305832,0 79.7122567901787,24.4374435751385,0 79.7122542499634,24.4374430418017,0 79.7122516825199,24.4374426320622,0 79.7122490950183,24.4374423470643,0 79.7122464946843,24.4374421876039,0 79.71224388878,24.4374421541262,0 79.7122412845826,24.4374422467249,0 79.7122386893647,24.4374424651412,0 79.7122361103738,24.4374428087652,0 79.7122335548121,24.4374432766373,0 79.7122310298164,24.437443867451,0 79.7122285424381,24.4374445795562,0 79.7122260996235,24.4374454109644,0 79.7122237081945,24.4374463593536,0 79.7122213748297,24.4374474220755,0 79.712219106045,24.4374485961621,0 79.7122169081766,24.4374498783347,0 79.7122147873623,24.4374512650126,0 79.7122127495246,24.4374527523234,0 79.7122108003547,24.4374543361135,0 79.7122089452958,24.43745601196,0 79.7122071895284,24.4374577751828,0 79.7122055379557,24.4374596208578,0 79.7122039951901,24.4374615438309,0 79.7122025655399,24.4374635387317,0 79.7121977729052,24.4374706278344,0 79.7121835958,24.437480500342,0 79.7121838916196,24.437479223965,0 79.7121842917821,24.4374769137131,0 79.7121845607132,24.4374745875881,0 79.7121846976912,24.4374722518336,0 79.7121847023484,24.437469912719,0 79.7121845746722,24.4374675765229,0 79.7121843150054,24.4374652495158,0 79.712183924045,24.4374629379437,0 79.7121834028404,24.4374606480111,0 79.7121827527905,24.4374583858645,0 79.7121819756401,24.4374561575758,0 79.7121810734753,24.4374539691258,0 79.7121800487176,24.4374518263888,0 79.7121789041174,24.437449735116,0 79.7121650654493,24.4374260062309,0 79.712185654095,24.4374148890284,0 79.7121878421011,24.4374136357934,0 79.7121899554946,24.4374122794789,0 79.7121919884873,24.4374108237997,0 79.712193935511,24.4374092727427,0 79.712195791233,24.4374076305561,0 79.7121975505709,24.4374059017375,0 79.7121992087059,24.437404091022,0 79.7122007610968,24.437402203369,0 79.7122022034917,24.4374002439483,0 79.71220353194,24.4373982181267,0 79.7122047428034,24.4373961314527,0 79.7122058327654,24.4373939896412,0 79.7122067988409,24.4373917985585,0 79.7122076383837,24.4373895642056,0 79.7122083490946,24.4373872927022,0 79.7122089290271,24.4373849902696,0 79.7122093765927,24.4373826632139,0 79.7122096905656,24.4373803179085,0 79.712209870086,24.4373779607769,0 79.7122099146621,24.4373755982751,0 79.7122098241719,24.4373732368736,0 79.7122095988632,24.4373708830399,0 79.7122092393531,24.4373685432209,0 79.7122087466263,24.4373662238251,0 79.7122081220323,24.4373639312049,0 79.7122073672817,24.4373616716396,0 79.7122064844419,24.4373594513178,0 79.7122054759306,24.4373572763206,0 79.7121827759172,24.4373116763267,0 79.712181690225,24.4373096332292,0 79.7121804936388,24.4373076427214,0 79.7121791891889,24.4373057098438,0 79.7121777801787,24.4373038394915,0 79.7121762701763,24.4373020364007,0 79.7121746630057,24.4373003051377,0 79.7121729627368,24.4372986500866,0 79.7121711736755,24.4372970754387,0 79.7121693003522,24.4372955851817,0 79.712167347511,24.4372941830894,0 79.7121538475124,24.4372849830921,0 79.7121517524229,24.4372836313438,0 79.7121495834508,24.4372823810734,0 79.7121473464551,24.437281235658,0 79.7121450474779,24.4372801981916,0 79.7121426927292,24.4372792714765,0 79.7121402885696,24.4372784580159,0 79.7121378414928,24.437277760007,0 79.7121353581088,24.4372771793352,0 79.7121328451255,24.437276717569,0 79.7121303093309,24.4372763759558,0 79.7121277575744,24.4372761554181,0 79.7121251967486,24.4372760565519,0 79.7121226337707,24.437276079624,0 79.7121200755637,24.4372762245722,0 79.7121175290375,24.4372764910049,0 79.7121150010707,24.4372768782025,0 79.7121124984916,24.4372773851192,0 79.71211002806,24.4372780103856,0 79.7121075964489,24.4372787523128,0 79.7121052102264,24.4372796088968,0 79.712102875838,24.4372805778238,0 79.7121005995891,24.4372816564767,0 79.7120983876282,24.4372828419419,0 79.7120962459301,24.4372841310173,0 79.7120941802799,24.4372855202208,0 79.712092196257,24.4372870058002,0 79.7120902992206,24.4372885837425,0 79.712088494295,24.4372902497858,0 79.7120867863552,24.4372919994296,0 79.7120851800149,24.437293827948,0 79.7120836796129,24.437295730402,0 79.7120822892019,24.4372977016527,0 79.7120810125378,24.4372997363756,0 79.7120798530689,24.4373018290745,0 79.7120788139271,24.437303974097,0 79.7120778979192,24.4373061656488,0 79.7120771075196,24.4373083978105,0 79.7120764448632,24.4373106645526,0 79.7120759117399,24.4373129597523,0 79.7120756818702,24.4373142844157,0 79.712072382762,24.4373106135779,0 79.7120707473991,24.4373088850931,0 79.7120690185392,24.4373072346305,0 79.7120672006171,24.437305666424,0 79.7120652982964,24.4373041844965,0 79.7120645428644,24.4373036539561,0 79.7120557945242,24.4372863724122,0 79.7120573449142,24.4372834555744,0 79.7120584194663,24.4372812908655,0 79.7120593680462,24.4372790773679,0 79.7120601880229,24.4372768212207,0 79.7120608771223,24.4372745286814,0 79.7120614334331,24.4372722061085,0 79.7120618554125,24.4372698599437,0 79.7120621418899,24.4372674966941,0 79.7120622920709,24.4372651229143,0 79.7120623055389,24.4372627451881,0 79.7120621822566,24.43726037011,0 79.712061922566,24.4372580042676,0 79.7120615271873,24.4372556542224,0 79.7120609972171,24.4372533264924,0 79.7120603341253,24.4372510275337,0 79.7120595397509,24.4372487637224,0 79.7120586162974,24.4372465413374,0 79.7120575663258,24.4372443665423,0 79.7120563927483,24.4372422453692,0 79.7120550988198,24.4372401837011,0 79.7120536881291,24.4372381872561,0 79.7120521645889,24.4372362615715,0 79.7120505324246,24.4372344119881,0 79.7120487961631,24.4372326436358,0 79.7120469606201,24.4372309614192,0 79.7120450308864,24.437229370004,0 79.7120430123142,24.437227873804,0 79.7120383123147,24.4372245738049,0 79.7120362180626,24.4372231817218,0 79.7120340469247,24.4372218921372,0 79.7120318048803,24.4372207086026,0 79.7120294981039,24.4372196343775,0 79.7120271329483,24.4372186724201,0 79.7120247159272,24.4372178253798,0 79.7120083159318,24.4372125253818,0 79.7120080396513,24.4372124369392,0 79.7120039396524,24.4372111369397,0 79.7120014682508,24.4372104193553,0 79.7119989590713,24.4372098216716,0 79.711996419049,24.4372093455405,0 79.7119938552043,24.437208992278,0 79.7119912746236,24.4372087628605,0 79.7119886844392,24.4372086579221,0 79.7119860918104,24.4372086777528,0 79.7119835039029,24.4372088222977,0 79.7119809278694,24.4372090911575,0 79.7119783708299,24.437209483589,0 79.711975839852,24.4372099985075,0 79.7119733419308,24.4372106344898,0 79.7119708839706,24.4372113897782,0 79.711968472765,24.4372122622851,0 79.7119661149783,24.4372132495989,0 79.7119638171271,24.4372143489908,0 79.7119615855628,24.4372155574222,0 79.711959426453,24.437216871553,0 79.7119573457653,24.4372182877511,0 79.7119553492508,24.4372198021023,0 79.711952349251,24.4372222021017,0 79.7119504123421,24.4372238371911,0 79.7119485735778,24.437225564646,0 79.7119468382059,24.4372273795362,0 79.7119452111792,24.4372292766817,0 79.7119436971416,24.4372312506682,0 79.711942300414,24.4372332958616,0 79.7119410249829,24.4372354064249,0 79.7119398744884,24.4372375763344,0 79.7119389632195,24.4372395580021,0 79.7119336136632,24.4372309914866,0 79.7119319786937,24.4372285557017,0 79.7119301786124,24.4372262195336,0 79.7119283855837,24.4372240422853,0 79.7119144468451,24.4371997818367,0 79.7119131725532,24.4371976994571,0 79.7119117798344,24.4371956816412,0 79.7119102725813,24.4371937340286,0 79.7119086550063,24.4371918620626,0 79.7119069316305,24.4371900709751,0 79.7119051072706,24.4371883657722,0 79.7119031870254,24.4371867512196,0 79.7119011762618,24.4371852318299,0 79.7118990805998,24.4371838118496,0 79.7118969058964,24.4371824952474,0 79.7118946582297,24.4371812857031,0 79.7118923438818,24.4371801865972,0 79.711889969321,24.4371792010016,0 79.7118875411839,24.4371783316709,0 79.711885066257,24.4371775810349,0 79.7118825514574,24.4371769511914,0 79.7118800038137,24.4371764439009,0 79.7118685038175,24.4371744439017,0 79.7118659588447,24.4371740641164,0 79.7118633956679,24.4371738066309,0 79.7118608212944,24.4371736721491,0 79.7118582427618,24.4371736610387,0 79.7118556671196,24.4371737733299,0 79.711853101409,24.4371740087159,0 79.7118505526442,24.4371743665532,0 79.7118480277931,24.4371748458634,0 79.7118455337581,24.4371754453362,0 79.7118430773576,24.4371761633329,0 79.7118406653067,24.4371769978904,0 79.7118383041997,24.4371779467273,0 79.7118360004913,24.4371790072497,0 79.7118337604796,24.4371801765582,0 79.7118315902882,24.4371814514562,0 79.7118294958501,24.4371828284584,0 79.7118274828911,24.4371843038002,0 79.7118255569143,24.4371858734484,0 79.7118237231849,24.4371875331118,0 79.711821986716,24.4371892782532,0 79.7118203522548,24.4371911041018,0 79.7118188242696,24.4371930056659,0 79.7118174069377,24.437194977747,0 79.7118161041338,24.4371970149539,0 79.7118149194196,24.4371991117172,0 79.7118138560338,24.4372012623047,0 79.7118129168835,24.4372034608372,0 79.7118121045362,24.4372057013041,0 79.7118114212128,24.4372079775805,0 79.7118108687813,24.4372102834434,0 79.7118104487519,24.4372126125891,0 79.711810162273,24.4372149586501,0 79.7118100101278,24.4372173152127,0 79.7118099927322,24.4372196758344,0 79.7118101101338,24.4372220340618,0 79.7118103620115,24.4372243834478,0 79.7118107476769,24.4372267175698,0 79.7118271287841,24.4373109111416,0 79.7118269684537,24.4373110172057,0 79.7118249372567,24.437312516801,0 79.7118229955406,24.4373141126533,0 79.7118211487412,24.4373158002949,0 79.7118194020287,24.4373175750014,0 79.7118177602931,24.4373194318043,0 79.7118162281306,24.4373213655055,0 79.7118148098304,24.4373233706914,0 79.7118135093632,24.4373254417485,0 79.7118123303696,24.4373275728788,0 79.7118112761504,24.4373297581162,0 79.7118103496568,24.4373319913428,0 79.7118095534825,24.4373342663069,0 79.7118088898566,24.4373365766395,0 79.7118083606369,24.4373389158727,0 79.7118079673049,24.4373412774578,0 79.7118077109619,24.4373436547834,0 79.7118075923254,24.4373460411942,0 79.7118076117276,24.4373484300092,0 79.7118078117254,24.4373538300092,0 79.7118079724226,24.4373562492116,0 79.7118082746894,24.4373586570336,0 79.7118087176548,24.4373610465367,0 79.7118093000425,24.4373634108352,0 79.711810020174,24.437365743116,0 79.7118108759742,24.437368036658,0 79.711811864977,24.4373702848522,0 79.7118129843325,24.4373724812199,0 79.711814230815,24.4373746194319,0 79.7118156008325,24.4373766933266,0 79.7118170664029,24.4373786646003,0 79.7118149183482,24.4373791034332,0 79.7118124615026,24.4373797289975,0 79.7118100432624,24.4373804699919,0 79.7118076700936,24.4373813244351,0 79.7118053483413,24.4373822900424,0 79.7118030842136,24.4373833642322,0 79.7118008837642,24.4373845441322,0 79.7117987528766,24.4373858265876,0 79.7117966972484,24.4373872081694,0 79.7117947223759,24.4373886851836,0 79.7117862223767,24.4373953851819,0 79.7117843476504,24.437396941343,0 79.7117825625855,24.4373985834958,0 79.7117808718819,24.4374003073164,0 79.7117792799914,24.4374021082659,0 79.7117777911056,24.4374039816023,0 79.7117764106821,24.4374059202339,0 79.7117375452574,24.4373933348661,0 79.7117358312747,24.4373928119802,0 79.7117187312797,24.437387911982,0 79.7117162947116,24.4373872762158,0 79.7117138256941,24.4373867558497,0 79.7117113307436,24.4373863522573,0 79.7117004307473,24.437384852258,0 79.7116978291791,24.4373845587356,0 79.7116952142506,24.4373843921758,0 79.7116925933493,24.4373843530489,0 79.7116899738792,24.4373844414658,0 79.7116873632407,24.4373846571764,0 79.711684768809,24.4373849995714,0 79.7116821979135,24.4373854676835,0 79.7116796578172,24.4373860601904,0 79.7116771556961,24.437386775418,0 79.7116746986188,24.4373876113458,0 79.7116722935268,24.4373885656123,0 79.7116716173333,24.437388873954,0 79.711669734851,24.4373878733347,0 79.7116674319091,24.4373867929147,0 79.711665070235,24.4373858245718,0 79.711662656331,24.4373849709722,0 79.7116601968432,24.4373842344658,0 79.7116576985432,24.4373836170807,0 79.7116551683094,24.4373831205166,0 79.7116526131082,24.4373827461406,0 79.7116500399748,24.4373824949835,0 79.7116474559936,24.4373823677369,0 79.7116448682791,24.437382364751,0 79.7116422839557,24.4373824860341,0 79.711639710139,24.4373827312522,0 79.7116371539151,24.4373830997303,0 79.7116069539255,24.4373881997289,0 79.7116043880476,24.437388697975,0 79.7116018547343,24.4373893204095,0 79.7115993611517,24.4373900652718,0 79.7115969143536,24.4373909304548,0 79.7115945212614,24.4373919135111,0 79.7115921886446,24.43739301166,0 79.7115899231016,24.437394221795,0 79.7115795231037,24.4374001217933,0 79.7115785261957,24.4374007025936,0 79.7115678261977,24.4374071025918,0 79.7115655724377,24.4374085340582,0 79.7115634090986,24.4374100780294,0 79.7115544090995,24.4374168780276,0 79.7115524197958,24.4374184648365,0 79.7115505260372,24.4374201467754,0 79.7115487332443,24.43742191903,0 79.7115470465486,24.4374237765277,0 79.7115454707781,24.4374257139516,0 79.7115440104432,24.4374277257561,0 79.7115426697237,24.4374298061829,0 79.7115414524573,24.4374319492771,0 79.7115403621282,24.4374341489044,0 79.7115394018573,24.4374363987687,0 79.7115385743932,24.4374386924302,0 79.7115378821045,24.4374410233238,0 79.7115373269725,24.4374433847776,0 79.7115369105864,24.4374457700322,0 79.711536634138,24.4374481722605,0 79.7115364984186,24.4374505845863,0 79.7115365038166,24.4374530001048,0 79.7115366503167,24.437455411902,0 79.7115369374994,24.4374578130746,0 79.7115373645429,24.4374601967495,0 79.7115382645413,24.4374644967497,0 79.7115388189283,24.4374668142757,0 79.7115395055227,24.4374691019418,0 79.7115403224288,24.4374713534312,0 79.7115412673909,24.4374735625274,0 79.7115423377998,24.4374757231306,0 79.7115435307,24.437477829275,0 79.7115448427978,24.4374798751453,0 79.7115462704701,24.4374818550925,0 79.7115478097749,24.4374837636495,0 79.7115494564621,24.4374855955466,0 79.7115512059847,24.4374873457256,0 79.7115530535122,24.437489009354,0 79.7115549939431,24.4374905818382,0 79.7115554119805,24.4374908862996,0 79.7115553100751,24.4374920387525,0 79.7115537261929,24.4374915392753,0 79.711551225852,24.4374908835654,0 79.7115486912281,24.4374903494478,0 79.7115461293711,24.4374899384079,0 79.7115435474065,24.437489651589,0 79.7115409525157,24.4374894897888,0 79.711538351916,24.4374894534575,0 79.7115357528408,24.437489542696,0 79.7115331625191,24.4374897572561,0 79.7115305881554,24.4374900965411,0 79.7115280369102,24.4374905596073,0 79.7115255158794,24.4374911451667,0 79.7115230320749,24.4374918515907,0 79.7115185320763,24.4374932515903,0 79.7115160628195,24.4374940877532,0 79.7115136458224,24.4374950433634,0 79.7115112879734,24.4374961156973,0 79.7115089959921,24.4374973016989,0 79.7115067764106,24.4374985979882,0 79.7115046355544,24.4375000008708,0 79.7115035399662,24.4375008030888,0 79.7115016309664,24.4374993868728,0 79.7114995337909,24.4374979915872,0 79.7114973594235,24.4374966991231,0 79.7114951138726,24.4374955130521,0 79.7114928033438,24.4374944366517,0 79.7114904342218,24.4374934728965,0 79.7114880130535,24.4374926244496,0 79.7114855465295,24.4374918936558,0 79.7114830414658,24.4374912825344,0 79.7114805047848,24.4374907927742,0 79.7114779434965,24.4374904257287,0 79.7114753646785,24.437490182412,0 79.7114727754574,24.4374900634967,0 79.711470182988,24.4374900693112,0 79.7114625829907,24.4374902693113,0 79.7114605636966,24.4374903710445,0 79.7114604742874,24.4374902852699,0 79.7114585959482,24.4374886625705,0 79.7114566273958,24.4374871321177,0 79.7114545740289,24.4374856981086,0 79.7114524414784,24.4374843644758,0 79.7114502355928,24.4374831348765,0 79.7114479624213,24.4374820126829,0 79.7114456281978,24.4374810009723,0 79.7114432393237,24.4374801025193,0 79.7114408023502,24.4374793197879,0 79.7114383239604,24.4374786549244,0 79.7114343834611,24.4374776996523,0 79.7114341641953,24.4374773747902,0 79.7114327022047,24.4374754415927,0 79.711431132263,24.4374735806981,0 79.7114294586282,24.4374717971532,0 79.7114276858392,24.4374700957956,0 79.7114258187045,24.4374684812395,0 79.7114238622879,24.437466957864,0 79.7114218218958,24.4374655298007,0 79.7114197030619,24.4374642009228,0 79.711417511533,24.4374629748346,0 79.7114152532529,24.4374618548613,0 79.7114129343466,24.4374608440406,0 79.7114105611033,24.4374599451139,0 79.7114081399597,24.4374591605195,0 79.7114056774824,24.4374584923852,0 79.7114031803503,24.437457942523,0 79.7114006553358,24.4374575124245,0 79.7113981092874,24.437457203256,0 79.7113955491104,24.4374570158562,0 79.7113929817485,24.4374569507332,0 79.7113904141649,24.4374570080636,0 79.7113878533234,24.4374571876921,0 79.7113853061694,24.4374574891314,0 79.7113827796113,24.4374579115639,0 79.7113802805017,24.437458453844,0 79.7113778156185,24.4374591145008,0 79.7113765418056,24.4374594891517,0 79.7112655292203,24.437467282843,0 79.7112629886488,24.4374675219245,0 79.7112604650035,24.4374678810958,0 79.7112579650528,24.4374683593937,0 79.711255495501,24.4374689555352,0 79.7112530629714,24.4374696679217,0 79.7112506739876,24.4374704946427,0 79.7112483349567,24.437471433481,0 79.7112460521516,24.4374724819186,0 79.7112438316946,24.4374736371439,0 79.7112416795406,24.4374748960586,0 79.7112396014616,24.4374762552865,0 79.7112376030308,24.4374777111822,0 79.7112356896075,24.4374792598413,0 79.7112338663235,24.4374808971104,0 79.7112321380686,24.4374826185985,0 79.7112305094778,24.4374844196888,0 79.7112289849188,24.437486295551,0 79.7112275684803,24.4374882411542,0 79.7112262639609,24.4374902512806,0 79.7112250748594,24.4374923205391,0 79.7112240043647,24.4374944433804,0 79.7112230553477,24.4374966141111,0 79.7112222303538,24.4374988269096,0 79.7112215315953,24.4375010758415,0 79.7112209609463,24.4375033548753,0 79.7112205199372,24.437505657899,0 79.7112202097508,24.4375079787361,0 79.7112200312189,24.4375103111623,0 79.7112199848204,24.4375126489224,0 79.7112200706797,24.4375149857467,0 79.7112202885666,24.4375173153682,0 79.7112244885533,24.437551715369,0 79.7112248258749,24.4375539644199,0 79.7112252862534,24.4375561951051,0 79.711225868525,24.4375584017849,0 79.7112265712175,24.4375605788805,0 79.7112273925545,24.4375627208879,0 79.7112283304595,24.4375648223915,0 79.7112293825612,24.4375668780785,0 79.7112305461999,24.4375688827518,0 79.7112318184335,24.437570831343,0 79.7112331960457,24.4375727189258,0 79.7112346755536,24.4375745407281,0 79.7112457281058,24.4375874589376,0 79.7112452906105,24.4375886437396,0 79.7112446039099,24.4375908749391,0 79.711244043202,24.4375931354648,0 79.7112436099649,24.4375954193578,0 79.7112433053406,24.4375977205978,0 79.7112420053358,24.4376102205972,0 79.7112418269966,24.4376125999843,0 79.7112417861492,24.4376149846732,0 79.7112418829076,24.4376173680097,0 79.7112421170017,24.4376197433434,0 79.7112424877784,24.437622104046,0 79.7112429942031,24.4376244435302,0 79.7112436348626,24.4376267552679,0 79.7112444079692,24.4376290328085,0 79.7112453113657,24.4376312697966,0 79.7112454356386,24.4376315337521,0 79.7112444299459,24.4376304021692,0 79.7112427063742,24.4376286570354,0 79.7112408858436,24.4376269964688,0 79.7112389732977,24.4376254249785,0 79.71123697393,24.4376239468319,0 79.7112348931696,24.4376225660428,0 79.7112327366668,24.4376212863607,0 79.7112305102773,24.4376201112605,0 79.7112282200469,24.437619043933,0 79.7112258721946,24.4376180872767,0 79.7112234730958,24.4376172438891,0 79.7112210292652,24.4376165160606,0 79.7112185473388,24.4376159057674,0 79.7112160340562,24.4376154146669,0 79.7112134962421,24.4376150440925,0 79.7112109407879,24.4376147950505,0 79.7112083746326,24.4376146682173,0 79.7112058047445,24.4376146639371,0 79.7112032381022,24.4376147822217,0 79.711200681675,24.4376150227497,0 79.711198142405,24.4376153848682,0 79.7111956271873,24.4376158675938,0 79.7111931428519,24.4376164696156,0 79.7111906961449,24.4376171892989,0 79.7111882937101,24.4376180246894,0 79.7111859420713,24.4376189735187,0 79.7111836476142,24.4376200332103,0 79.7111814165693,24.4376212008866,0 79.7111792549949,24.4376224733769,0 79.7111771687607,24.4376238472258,0 79.7111766797318,24.4376242060849,0 79.7111069663688,24.4376360796957,0 79.7110619733706,24.4375885359193,0 79.71106020233,24.4375867621443,0 79.7110583307077,24.4375850771527,0 79.7110563638064,24.4375834857181,0 79.7110543071984,24.4375819923491,0 79.7110521667104,24.4375806012767,0 79.7110499484065,24.4375793164419,0 79.7110476585714,24.4375781414848,0 79.7110453036925,24.4375770797341,0 79.7110428904413,24.4375761341979,0 79.7110404256548,24.437575307555,0 79.711037916316,24.4375746021473,0 79.7110353695341,24.4375740199733,0 79.7110327925244,24.4375735626823,0 79.7110301925878,24.43757323157,0 79.7110275770901,24.4375730275744,0 79.7110249534414,24.4375729512735,0 79.7110223290747,24.4375730028833,0 79.7110197114251,24.4375731822577,0 79.7110171079085,24.4375734888885,0 79.7110145259011,24.437573921907,0 79.7110119727179,24.4375744800864,0 79.7110094555923,24.4375751618453,0 79.7110069816556,24.4375759652523,0 79.7110045579167,24.4375768880311,0 79.7110021912423,24.4375779275676,0 79.7109998883374,24.4375790809165,0 79.7109976557263,24.4375803448103,0 79.7108870557471,24.4376467447916,0 79.7108849023787,24.4376481138817,0 79.710882831525,24.4376495858016,0 79.7108813993728,24.4376507203987,0 79.7108804839453,24.437650529674,0 79.7108779459344,24.4376501271645,0 79.7108753884296,24.4376498465212,0 79.7108728184077,24.4376496885096,0 79.7108702428796,24.437649653561,0 79.7108676688713,24.4376497417705,0 79.7108651034047,24.4376499528976,0 79.7108625534782,24.4376502863663,0 79.710860026048,24.4376507412669,0 79.7108575280088,24.4376513163585,0 79.7108274280186,24.4376590163563,0 79.7108250951471,24.4376596705068,0 79.7108228004697,24.4376604294858,0 79.7108205496028,24.4376612914356,0 79.710796302177,24.4376712289056,0 79.7107953814802,24.4376708444609,0 79.7107929750792,24.437669976108,0 79.7107905222575,24.4376692244564,0 79.7107880297626,24.4376685915739,0 79.7107855044509,24.4376680792014,0 79.710782953269,24.4376676887484,0 79.7107803832348,24.4376674212889,0 79.7107778014182,24.4376672775587,0 79.7107752149213,24.4376672579531,0 79.7107726308591,24.4376673625261,0 79.7107700563399,24.43766759099,0 79.7107674984459,24.4376679427164,0 79.7107649642133,24.4376684167377,0 79.7107624606136,24.4376690117499,0 79.7107599945335,24.4376697261163,0 79.7107575727571,24.4376705578718,0 79.710755201946,24.4376715047283,0 79.7107528886222,24.4376725640812,0 79.7107506391491,24.4376737330163,0 79.7107484597148,24.4376750083182,0 79.7107463563144,24.4376763864787,0 79.7107443347341,24.4376778637066,0 79.710742400535,24.4376794359384,0 79.7107405590377,24.4376810988491,0 79.7107388153079,24.4376828478642,0 79.7107371741423,24.4376846781727,0 79.7107356400555,24.4376865847394,0 79.7107342172676,24.4376885623199,0 79.7107329096923,24.4376906054741,0 79.7107317209267,24.4376927085815,0 79.7107306542408,24.4376948658569,0 79.710729712569,24.437697071366,0 79.7107288985016,24.4376993190418,0 79.710728214278,24.4377016027012,0 79.7107276617804,24.4377039160623,0 79.7107272425287,24.4377062527613,0 79.7107269576761,24.4377086063705,0 79.7107260338275,24.4377186366863,0 79.7107253036723,24.4377170129094,0 79.7107242550036,24.4377148444106,0 79.7107230834082,24.4377127293137,0 79.7107217921185,24.4377106734541,0 79.7107203846973,24.437708682504,0 79.7107188650275,24.4377067619564,0 79.710717237302,24.43770491711,0 79.7107155060115,24.4377031530547,0 79.7107136759328,24.4377014746576,0 79.710711752115,24.4376998865493,0 79.7107097398658,24.4376983931114,0 79.7107076447371,24.4376969984643,0 79.7107054725092,24.4376957064557,0 79.7107032291754,24.4376945206503,0 79.7107009209249,24.4376934443198,0 79.7106985541262,24.4376924804336,0 79.7106961353093,24.4376916316512,0 79.7106936711475,24.4376909003144,0 79.7106911684396,24.4376902884408,0 79.7106886340904,24.4376897977186,0 79.7106860750923,24.4376894295018,0 79.7106834985053,24.4376891848062,0 79.7106809114383,24.4376890643069,0 79.710678321029,24.4376890683364,0 79.7106757344242,24.4376891968836,0 79.7106731587604,24.4376894495938,0 79.7106706011438,24.4376898257698,0 79.7106680686308,24.4376903243737,0 79.7106655682086,24.43769094403,0 79.7106631067758,24.4376916830288,0 79.7106606911235,24.4376925393315,0 79.7106583279163,24.4376935105754,0 79.7106560236745,24.4376945940809,0 79.7106537847552,24.4376957868586,0 79.7106516173358,24.4376970856177,0 79.710649527396,24.4376984867749,0 79.7106475207021,24.4376999864645,0 79.7106456027903,24.4377015805488,0 79.7106437789523,24.4377032646297,0 79.7106420542199,24.4377050340609,0 79.7106310542191,24.4377169340582,0 79.7106294085295,24.4377188138884,0 79.7106278747061,24.4377207714046,0 79.7106264571158,24.4377228010336,0 79.7106251597947,24.4377248969968,0 79.7106239864364,24.4377270533267,0 79.7106229403814,24.4377292638843,0 79.7106220246081,24.4377315223758,0 79.7106212417236,24.4377338223711,0 79.7106205939571,24.4377361573219,0 79.7106200831526,24.4377385205804,0 79.7106197107646,24.4377409054181,0 79.7106194778533,24.4377433050454,0 79.7106193850817,24.4377457126301,0 79.7106194327141,24.4377481213178,0 79.7106196206148,24.4377505242506,0 79.7106199482488,24.4377529145872,0 79.7106204146834,24.437755285522,0 79.7106235789899,24.4377692268398,0 79.7106223840927,24.4377713032587,0 79.7106213066559,24.4377734383211,0 79.7106203521247,24.4377756218521,0 79.7106195230891,24.4377778479264,0 79.7106188217988,24.4377801105035,0 79.7106182501569,24.4377824034439,0 79.7106178097144,24.4377847205254,0 79.7106175016665,24.4377870554607,0 79.7106173268492,24.4377894019138,0 79.7106172857369,24.4377917535175,0 79.7106173784411,24.4377941038905,0 79.7106176047102,24.4377964466551,0 79.7106179639303,24.437798775454,0 79.7106184551266,24.4378010839679,0 79.7106190769662,24.4378033659326,0 79.7106198277619,24.4378056151559,0 79.7106207054761,24.4378078255343,0 79.7106217077273,24.43780999107,0 79.7106228317958,24.4378121058866,0 79.7106240746314,24.4378141642455,0 79.7106254328615,24.4378161605612,0 79.7106269028007,24.4378180894167,0 79.71062848046,24.4378199455778,0 79.7106301615586,24.4378217240079,0 79.7106319415346,24.437823419881,0 79.710633815558,24.4378250285954,0 79.7106507155975,24.4378387965857,0 79.7106539218176,24.4378464915201,0 79.7106548975063,24.4378486620017,0 79.7106559950829,24.4378507831308,0 79.7106572115813,24.4378528491753,0 79.7106585437139,24.4378548545518,0 79.7106599878806,24.4378567938406,0 79.7106615401788,24.4378586618011,0 79.7106631964133,24.4378604533851,0 79.7106649521082,24.4378621637509,0 79.7106668025189,24.4378637882763,0 79.7106687426446,24.437865322571,0 79.7106707672423,24.4378667624888,0 79.7107174366416,24.4378982081889,0 79.7107200439287,24.437902906228,0 79.7107194951581,24.4379031843831,0 79.7107173126591,24.4379044309926,0 79.7107152041323,24.4379057800932,0 79.7107131753145,24.4379072280141,0 79.710711231726,24.437908770816,0 79.7107093786548,24.437910404301,0 79.710707621143,24.4379121240247,0 79.7107059639722,24.4379139253081,0 79.7107044116516,24.4379158032501,0 79.7107029684046,24.4379177527412,0 79.7107016381581,24.4379197684771,0 79.7107004245316,24.4379218449734,0 79.7106993308269,24.4379239765803,0 79.7106983600201,24.437926157498,0 79.7106975147524,24.4379283817926,0 79.7106967973237,24.4379306434122,0 79.7106923492796,24.4379461661609,0 79.7106909921927,24.4379471880722,0 79.7106890992827,24.437948771438,0 79.7106872988207,24.4379504427319,0 79.7106855956734,24.437952197436,0 79.7106839944446,24.4379540308072,0 79.7106824994626,24.4379559378899,0 79.7106811147685,24.4379579135288,0 79.7106798441052,24.4379599523837,0 79.7106786909076,24.4379620489435,0 79.7106776582927,24.4379641975407,0 79.710676749052,24.4379663923676,0 79.7106766978642,24.4379665384102,0 79.7106752459185,24.4379666189725,0 79.7106727140921,24.4379668801393,0 79.7106702003776,24.4379672606655,0 79.7106677114843,24.4379677595356,0 79.710665254055,24.4379683754181,0 79.7106628346489,24.4379691066691,0 79.7106604597234,24.4379699513368,0 79.7106582762519,24.4379708493284,0 79.7106291835757,24.4380016702381,0 79.71061882493,24.4380189173726,0 79.7106060132325,24.4380324069338,0 79.7106031484159,24.4380616182701,0 79.7106069599887,24.4380981003245,0 79.7106078318707,24.4381039768235,0 79.7106082625509,24.4381063883342,0 79.710608835109,24.4381087749818,0 79.710609547868,24.4381111297756,0 79.7106103987401,24.438113445818,0 79.710611385233,24.4381157163254,0 79.7106125044572,24.438117934647,0 79.7106137531345,24.4381200942853,0 79.7106151276073,24.4381221889144,0 79.7106166238496,24.4381242123989,0 79.7106182374789,24.438126158812,0 79.7106199637686,24.4381280224523,0 79.7106217976623,24.4381297978611,0 79.7106275843913,24.4381351047173,0 79.7106271883591,24.4381599409786,0 79.7106272184272,24.438162308504,0 79.7106273840236,24.4381646713308,0 79.7106276846931,24.4381670229612,0 79.7106280231867,24.4381688394817,0 79.7106278977459,24.438168893031,0 79.7106256224998,24.4381700002542,0 79.7106234135279,24.4381712147604,0 79.7106212768604,24.4381725332341,0 79.7106192183302,24.4381739520761,0 79.7106172435567,24.4381754674132,0 79.7106153579309,24.4381770751086,0 79.7106135666002,24.4381787707736,0 79.7106118744547,24.4381805497794,0 79.7106102861137,24.4381824072693,0 79.7106088059133,24.4381843381728,0 79.7106074378941,24.4381863372186,0 79.7106061857907,24.4381883989498,0 79.7106050530211,24.4381905177381,0 79.7106040426777,24.4381926877994,0 79.7106031575185,24.4381949032098,0 79.71060239996,24.4381971579215,0 79.7106017720701,24.4381994457794,0 79.710601275563,24.438201760538,0 79.710600911794,24.4382040958784,0 79.7106006817562,24.4382064454254,0 79.7106005860775,24.438208802765,0 79.7106006250192,24.438211161462,0 79.710600798475,24.4382135150774,0 79.7106011059714,24.4382158571863,0 79.7106015466689,24.438218181395,0 79.7106021193644,24.4382204813587,0 79.7106028224948,24.4382227507988,0 79.7106036541404,24.4382249835201,0 79.710604612031,24.4382271734275,0 79.7106056935517,24.4382293145428,0 79.7106068957501,24.4382314010211,0 79.7106082153445,24.4382334271667,0 79.7106096487323,24.4382353874483,0 79.7106111920008,24.4382372765147,0 79.7106201679201,24.4382476852153,0 79.7106201857132,24.4382481114117,0 79.7106204212863,24.4382504785997,0 79.7106207926158,24.4382528311567,0 79.7106212986726,24.4382551625622,0 79.7106219380539,24.438257466354,0 79.7106227089877,24.4382597361467,0 79.710623609337,24.4382619656488,0 79.7106246366064,24.438264148681,0 79.7106257879485,24.4382662791922,0 79.7106270601721,24.4382683512773,0 79.7106284497509,24.438270359193,0 79.7106299528334,24.4382722973739,0 79.7106315652534,24.4382741604478,0 79.7106331501388,24.4382758057967,0 79.7106313306103,24.4382770736894,0 79.7106293354727,24.4382785403186,0 79.7106274261097,24.4382800997081,0 79.7106256076607,24.4382817476602,0 79.710623885021,24.4382834797388,0 79.7106222628274,24.4382852912816,0 79.7106207454469,24.4382871774121,0 79.7106193369638,24.4382891330531,0 79.7106180411697,24.4382911529404,0 79.7106168615526,24.4382932316366,0 79.7106158012878,24.4382953635463,0 79.7106148632296,24.4382975429307,0 79.7106140499029,24.4382997639233,0 79.7106133634971,24.4383020205453,0 79.71061280586,24.4383043067225,0 79.7106123784926,24.4383066163006,0 79.7106120825454,24.4383089430628,0 79.7106119188149,24.4383112807456,0 79.710611887742,24.4383136230564,0 79.7106124877265,24.4383534230559,0 79.7106126103156,24.4383560417342,0 79.710612898685,24.4383586494871,0 79.710613351863,24.4383612375259,0 79.7106320714857,24.438451325884,0 79.7106319622871,24.438451920686,0 79.7106316633901,24.4384543417649,0 79.710631507591,24.4384567740799,0 79.7106314953437,24.4384592105476,0 79.7106316266837,24.4384616440723,0 79.7106319012285,24.4384640675671,0 79.7106323181787,24.4384664739741,0 79.71063287632,24.4384688562853,0 79.7106347769538,24.4384760202232,0 79.710635533181,24.4384818476382,0 79.7106255929585,24.4385882714155,0 79.7106229220825,24.4385952595913,0 79.7106066335948,24.4386148833328,0 79.7106051266554,24.4386168009821,0 79.7106037313401,24.4386187881656,0 79.7106024514689,24.4386208394431,0 79.7106012905456,24.438622949199,0 79.7106002517485,24.4386251116573,0 79.7105993379215,24.4386273208979,0 79.7105985515663,24.4386295708727,0 79.7105978948357,24.438631855422,0 79.7105761948062,24.438716255414,0 79.7105757129292,24.4387183513628,0 79.7105753401737,24.4387204658754,0 79.7105750773788,24.438722594193,0 79.7105746000754,24.4387274997924,0 79.7105739192954,24.4387290137551,0 79.7105730613779,24.4387312478236,0 79.7105723325915,24.4387335200004,0 79.7105717349413,24.4387358240346,0 79.7105712700714,24.4387381535875,0 79.7105709392608,24.4387405022506,0 79.7105707434194,24.4387428635623,0 79.7105706830862,24.4387452310267,0 79.710570758427,24.4387475981307,0 79.7105709692347,24.4387499583621,0 79.7105733692268,24.4387702583625,0 79.7105735836625,24.4387718178722,0</coordinates></LinearRing></outerBoundaryIs></Polygon>
  </Placemark>
  
    </Document>
</kml>