<?xml version="1.0" encoding="UTF-8"?>
<kml xmlns="http://www.opengis.net/kml/2.2">
    <Document>
        <Placemark xmlns:ns0="http://www.opengis.net/kml/2.2">
	<Style><LineStyle><color>ff0000ff</color></LineStyle><PolyStyle><fill>0</fill></PolyStyle></Style>
	<ExtendedData><SchemaData schemaUrl="#Wave23_v27MAR2025">
		<SimpleData name="area(ha)">2.082512089627734</SimpleData>
		<SimpleData name="site_id">230084_2.6</SimpleData>
		<SimpleData name="Land_parc">230084</SimpleData>
		<SimpleData name="district">Damoh</SimpleData>
		<SimpleData name="block">Batyagarh</SimpleData>
		<SimpleData name="village">Achalpura</SimpleData>
		<SimpleData name="Land Type">Community</SimpleData>
		<SimpleData name="Instance">Wave 2023</SimpleData>
	</SchemaData></ExtendedData>
      <Polygon><outerBoundaryIs><LinearRing><coordinates>79.537492,24.2645883,0 79.5374922,24.2646271,0 79.5374695,24.2646717,0 79.5374215,24.2647137,0 79.5373985,24.2647329,0 79.5373701,24.2647842,0 79.5373698,24.2648727,0 79.5373715,24.2649004,0 79.5373616,24.2649228,0 79.5373601,24.2649508,0 79.5373447,24.2649848,0 79.5373216,24.2650004,0 79.5372617,24.2650194,0 79.5372171,24.2650504,0 79.5372012,24.2650771,0 79.5371907,24.2651022,0 79.5371312,24.2651231,0 79.5371013,24.2651275,0 79.5370787,24.2651456,0 79.5370301,24.2651792,0 79.5369773,24.2652135,0 79.5369543,24.2652616,0 79.536953,24.2653273,0 79.5369727,24.2653538,0 79.5369387,24.2654016,0 79.5370028,24.2654309,0 79.5370111,24.2655202,0 79.5370403,24.2655828,0 79.5370206,24.2655995,0 79.5370683,24.2656582,0 79.5371262,24.2656883,0 79.5371461,24.2656942,0 79.5371588,24.2657044,0 79.5372002,24.2658176,0 79.5372567,24.2658292,0 79.5373294,24.2658377,0 79.537378,24.2658576,0 79.5374401,24.2658762,0 79.5374486,24.2658941,0 79.5374681,24.2659158,0 79.5375392,24.265947,0 79.5376296,24.2659614,0 79.5376756,24.2659907,0 79.5376902,24.2660153,0 79.5377175,24.2660243,0 79.5377418,24.2660329,0 79.5377596,24.2660509,0 79.5377695,24.2660736,0 79.537796,24.2660865,0 79.5378248,24.2660953,0 79.5378428,24.2661399,0 79.5378431,24.2661863,0 79.5378467,24.2662152,0 79.5378669,24.2662645,0 79.5379189,24.2662976,0 79.5379749,24.2663197,0 79.5380007,24.2663318,0 79.5380244,24.2663454,0 79.5380487,24.2663564,0 79.5380764,24.2664033,0 79.538086,24.2664261,0 79.5380995,24.2664478,0 79.5381256,24.2664428,0 79.5381469,24.2664278,0 79.5381732,24.2664053,0 79.5382013,24.2663885,0 79.5382158,24.2663695,0 79.5382325,24.266348,0 79.5382518,24.2663291,0 79.5382789,24.266317,0 79.5382895,24.2662943,0 79.5383019,24.2662727,0 79.538305,24.2662443,0 79.5383256,24.2662313,0 79.5383639,24.2662091,0 79.5383846,24.2661964,0 79.5384069,24.2661865,0 79.53842,24.2661638,0 79.5384403,24.2661422,0 79.5384594,24.2661225,0 79.5384722,24.266099,0 79.5384782,24.2660707,0 79.5384848,24.2660458,0 79.5385015,24.2660255,0 79.5385147,24.2660059,0 79.5385335,24.2659871,0 79.538559,24.2659375,0 79.5385652,24.2659167,0 79.5385761,24.2658973,0 79.5386057,24.2658733,0 79.5386242,24.2658536,0 79.5386455,24.2658326,0 79.5386657,24.2657764,0 79.5386843,24.2657561,0 79.5387149,24.2657185,0 79.5387209,24.2656925,0 79.5387206,24.2656637,0 79.5387138,24.2656193,0 79.5387275,24.2655928,0 79.5387294,24.2655673,0 79.5387035,24.265549,0 79.5386749,24.2655347,0 79.5386702,24.2655065,0 79.5386219,24.265483,0 79.5386023,24.2654279,0 79.5385635,24.2653957,0 79.5385141,24.2653656,0 79.538506,24.265345,0 79.5384801,24.2652962,0 79.5384497,24.2652736,0 79.5384297,24.2652686,0 79.5383788,24.2652309,0 79.538322,24.2651631,0 79.5382869,24.265129,0 79.5382445,24.2650916,0 79.5381973,24.265039,0 79.5381573,24.2650087,0 79.5381086,24.2648961,0 79.5380485,24.2648181,0 79.5379166,24.2646496,0 79.5378421,24.2645682,0 79.5374984,24.2646072,0 79.537492,24.2645883,0</coordinates></LinearRing></outerBoundaryIs></Polygon>
  </Placemark>
  
    </Document>
</kml>