<?xml version="1.0" encoding="UTF-8"?>
<kml xmlns="http://www.opengis.net/kml/2.2">
    <Document>
        <Placemark xmlns:ns0="http://www.opengis.net/kml/2.2">
	<Style><LineStyle><color>ff0000ff</color></LineStyle><PolyStyle><fill>0</fill></PolyStyle></Style>
	<ExtendedData><SchemaData schemaUrl="#Wave23_v27MAR2025">
		<SimpleData name="area(ha)">0.866273368463013</SimpleData>
		<SimpleData name="site_id">230035_1.1</SimpleData>
		<SimpleData name="Land_parc">230035</SimpleData>
		<SimpleData name="district">Chhatarpur</SimpleData>
		<SimpleData name="block">Bijawar</SimpleData>
		<SimpleData name="village">Patna</SimpleData>
		<SimpleData name="Land Type">Farmer</SimpleData>
		<SimpleData name="Instance">Wave 2023</SimpleData>
	</SchemaData></ExtendedData>
      <Polygon><outerBoundaryIs><LinearRing><coordinates>79.7779613,24.4137208,0 79.778088,24.4136474,0 79.7781795,24.4135762,0 79.7783054,24.413489,0 79.778494,24.4133913,0 79.7785471333618,24.4133559276444,0 79.7784869690051,24.4132820871034,0 79.7784331809893,24.4131953096951,0 79.778366861369,24.4130883145862,0 79.7782463115782,24.412893828064,0 79.7780082699928,24.4129891064665,0 79.7779794957352,24.4129605229533,0 79.7778841,24.412874,0 79.777825161081,24.4127842578123,0 79.777760146351,24.4128286592227,0 79.777689137318,24.4128771543362,0 79.7775740402877,24.4129748147107,0 79.7773883155343,24.4131606074096,0 79.7772473650719,24.4133663439862,0 79.7772228,24.4134022,0 79.7772481,24.4134426,0 79.7773331,24.4135262,0 79.7774740679292,24.4136293208621,0 79.7774875691205,24.4136391972385,0 79.7775022,24.4136499,0 79.777689137318,24.4137703866538,0 79.7777456,24.413829,0 79.7778434,24.4137813,0 79.7779613,24.4137208,0</coordinates></LinearRing></outerBoundaryIs><innerBoundaryIs><LinearRing><coordinates>79.7777750815863,24.4130943711401,0 79.7778158126061,24.4130651493188,0 79.7778416234647,24.4131190681727,0 79.7777869651759,24.4131273633789,0 79.7777749073659,24.4131124623454,0 79.7777657091747,24.4131010952239,0 79.7777750815863,24.4130943711401,0</coordinates></LinearRing></innerBoundaryIs></Polygon>
  </Placemark>
  
    </Document>
</kml>