<?xml version="1.0" encoding="UTF-8"?>
<kml xmlns="http://www.opengis.net/kml/2.2">
    <Document>
        <Placemark xmlns:ns0="http://www.opengis.net/kml/2.2">
	<Style><LineStyle><color>ff0000ff</color></LineStyle><PolyStyle><fill>0</fill></PolyStyle></Style>
	<ExtendedData><SchemaData schemaUrl="#Wave23_v27MAR2025">
		<SimpleData name="area(ha)">1.263846460768461</SimpleData>
		<SimpleData name="site_id">230091_1.1</SimpleData>
		<SimpleData name="Land_parc">230091</SimpleData>
		<SimpleData name="district">Damoh</SimpleData>
		<SimpleData name="block">Hatta</SimpleData>
		<SimpleData name="village">Surajpura</SimpleData>
		<SimpleData name="Land Type">Farmer</SimpleData>
		<SimpleData name="Instance">Wave 2023</SimpleData>
	</SchemaData></ExtendedData>
      <Polygon><outerBoundaryIs><LinearRing><coordinates>79.4890840881677,24.3806952223874,0 79.4891002081969,24.3807048419464,0 79.4891116021467,24.3808760918298,0 79.4891136162406,24.3808761119155,0 79.4891133111339,24.3809017777066,0 79.4891163,24.3809467,0 79.4891272424638,24.3809665453303,0 79.4891440408346,24.3809970109625,0 79.4892104029495,24.3810576225849,0 79.4892741,24.3811158,0 79.4892946,24.3811313,0 79.4893217,24.3811455,0 79.4893569,24.3811575,0 79.489393,24.3811645,0 79.4894059373093,24.3811656249837,0 79.4894137,24.3811663,0 79.4894453,24.3811628,0 79.4894693,24.3811589,0 79.4894905,24.3811541,0 79.4894957896718,24.3811508152851,0 79.4895153,24.3811387,0 79.4895491,24.3811298,0 79.4895652,24.3811181,0 79.4895883,24.3811074,0 79.4896038866462,24.3811004810501,0 79.4896088,24.3810983,0 79.489634,24.3810891,0 79.4896527,24.3810793,0 79.489668,24.3810666,0 79.4896762395514,24.3810623167419,0 79.4896932,24.3810535,0 79.4897030785115,24.3810496252396,0 79.4897164,24.3810444,0 79.4897323,24.3810346,0 79.4897357,24.3809892,0 79.4897354982971,24.3809726099312,0 79.4897353,24.3809563,0 79.4897315,24.3809255,0 79.4897448,24.3809102,0 79.4898025,24.3808758,0 79.489831,24.3808467,0 79.4898369,24.3808229,0 79.4898594,24.380812,0 79.489911,24.3808198,0 79.4899411,24.3808255,0 79.4899997,24.3808348,0 79.4900013925789,24.3808348612701,0 79.4900439,24.3808364,0 79.4900619,24.380818,0 79.4900741915649,24.3807953906986,0 79.4900756,24.3807928,0 79.4900835,24.3807648,0 79.4900864,24.3807308,0 79.4900999,24.3806956,0 79.4901136,24.3806718,0 79.4901481,24.3806477,0 79.4901676,24.3806286,0 79.4901884,24.3805927,0 79.490191,24.3805639,0 79.4902011,24.380536,0 79.4901995,24.3805141,0 79.4902288,24.3805008,0 79.4902365,24.3804847,0 79.4902537,24.380453,0 79.4902632,24.3804323,0 79.490262,24.3804089,0 79.4902522,24.3803902,0 79.4902531,24.380356,0 79.4902509,24.3803312,0 79.4902523,24.380308,0 79.4902431,24.3802906,0 79.4902499,24.380257,0 79.4902532,24.380245,0 79.4902454,24.3802286,0 79.4902296,24.3802208,0 79.4902047,24.3802125,0 79.4901827,24.3802058,0 79.4901582,24.3801998,0 79.4901324,24.3801924,0 79.4901021,24.3801751,0 79.490082,24.3801581,0 79.490055,24.380146,0 79.4900278,24.3801276,0 79.4899888,24.3800503,0 79.4899293,24.3800178,0 79.4898873650128,24.3800144255197,0 79.4898795937738,24.3800302475112,0 79.4898727367982,24.3800535641265,0 79.4898754795884,24.3800981155045,0 79.4898832508275,24.3801576561067,0 79.4898741081933,24.3801730617126,0 79.4898136,24.3801712,0 79.4897901,24.380177,0 79.489764,24.3801783,0 79.4897394,24.3801828,0 79.4897102,24.3801774,0 79.4896867,24.3801633,0 79.4896305,24.3801413,0 79.4895698,24.3801234,0 79.4894847399728,24.3801023546387,0 79.4894187910118,24.3800841350126,0 79.4890643451297,24.379986212177,0 79.4889388243946,24.3799462881812,0 79.4888755,24.3799351,0 79.48882127323,24.3799036420808,0 79.4887435699177,24.3800724116705,0 79.4887395851325,24.3801250387008,0 79.4887279637934,24.3801446966121,0 79.4887279021054,24.3801498847058,0 79.4887249143208,24.380149854903,0 79.4887116916358,24.3801722215369,0 79.488726286629,24.3802401661159,0 79.4887268285649,24.3802401715217,0 79.4887268002012,24.3802425569651,0 79.4887296231694,24.3802556988193,0 79.4888113112669,24.3803028816066,0 79.4888245573791,24.3803123378871,0 79.4889587483242,24.3804081354552,0 79.4890583679518,24.3805034082564,0 79.4890703223076,24.3805941441926,0 79.4890424288109,24.3806703623286,0 79.4890840881677,24.3806952223874,0</coordinates></LinearRing></outerBoundaryIs></Polygon>
  </Placemark>
  
    </Document>
</kml>