<?xml version="1.0" encoding="UTF-8"?>
<kml xmlns="http://www.opengis.net/kml/2.2">
    <Document>
        <Placemark xmlns:ns0="http://www.opengis.net/kml/2.2">
	<Style><LineStyle><color>ff0000ff</color></LineStyle><PolyStyle><fill>0</fill></PolyStyle></Style>
	<ExtendedData><SchemaData schemaUrl="#Wave23_v27MAR2025">
		<SimpleData name="area(ha)">9.411083568994490</SimpleData>
		<SimpleData name="site_id">230072_2.2</SimpleData>
		<SimpleData name="Land_parc">230072</SimpleData>
		<SimpleData name="district">Panna</SimpleData>
		<SimpleData name="block">Shahnagar</SimpleData>
		<SimpleData name="village">Kachori</SimpleData>
		<SimpleData name="Land Type">Community</SimpleData>
		<SimpleData name="Instance">Wave 2023</SimpleData>
	</SchemaData></ExtendedData>
      <Polygon><outerBoundaryIs><LinearRing><coordinates>80.3520908000001,23.9836992,0 80.3520155000001,23.9836467000002,0 80.3519312,23.9835535000003,0 80.3518075508185,23.9834170524399,0 80.3518099000001,23.9833981,0 80.3517657917289,23.9833435450329,0 80.3516442999999,23.9832171999999,0 80.3516455,23.9832061999999,0 80.3516205508931,23.9831227827403,0 80.3515748729428,23.9830534486223,0 80.3514781033544,23.9828929790851,0 80.3513747,23.9827739,0 80.3512766000002,23.9826178,0 80.3512115000002,23.9823701,0 80.3511613203829,23.9821841595566,0 80.3510958000001,23.9819875,0 80.3511139000001,23.9819848000001,0 80.3510355,23.9819243000001,0 80.3510064072235,23.9819323317486,0 80.3510029,23.9819333000002,0 80.3509683999999,23.9819435000003,0 80.350953651326,23.9819485761035,0 80.3509315000001,23.9819562000001,0 80.3509015000003,23.9819797000001,0 80.3508888000001,23.9820092000001,0 80.3508407,23.982048,0 80.3508043000001,23.9820448,0 80.3507769000001,23.9820568,0 80.3507408,23.98206,0 80.3506884146345,23.9820377729386,0 80.3506126812092,23.9820374523878,0 80.3506126831521,23.9820370648965,0 80.350582,23.9820366000002,0 80.3505485000002,23.9820324,0 80.3504929000001,23.982015,0 80.3504736,23.9819948000001,0 80.3503967000001,23.9819964,0 80.3503637,23.9819944000001,0 80.3502873000001,23.9819835,0 80.3502476,23.9819708000002,0 80.3502125000001,23.9819759000003,0 80.3501760000001,23.9819817000001,0 80.3501433000001,23.9819951000003,0 80.3501196000001,23.9820057000001,0 80.3501151,23.9820045,0 80.3500743000002,23.9820196000001,0 80.3500401000001,23.982035,0 80.3500100000001,23.9820443000001,0 80.3499676999999,23.9820527000001,0 80.3499369,23.9820682999999,0 80.3499050000003,23.9820782000001,0 80.3498466,23.9820814000001,0 80.3498134000001,23.9821,0 80.3497873000001,23.9821042000001,0 80.3497538,23.9820934,0 80.3497291000003,23.9820851000001,0 80.3497048,23.9820703000001,0 80.3496793,23.9820581000002,0 80.3496532,23.9820448,0 80.3495843,23.9820447000001,0 80.3495403812585,23.9820329097365,0 80.3495314063417,23.9820328716839,0 80.3495314182352,23.9820305035544,0 80.3495247000002,23.9820287000001,0 80.3494587999999,23.9820196000001,0 80.3494317000002,23.9820223,0 80.3493655000002,23.9820197,0 80.3493361000001,23.9820198,0 80.3493058000001,23.9820307,0 80.3492720000001,23.9820365,0 80.3492306000001,23.9820386,0 80.3491978,23.98202,0 80.3491618000002,23.9820064,0 80.3491332,23.9819944000001,0 80.3491016000001,23.9819908999999,0 80.3490613000001,23.9819932,0 80.3490183000001,23.9819989000001,0 80.3489827,23.9820038999999,0 80.3489181,23.9820113,0 80.3488823000002,23.9820138000002,0 80.3488076,23.9819859,0 80.3487728,23.9819777000001,0 80.3487354000001,23.981971,0 80.3486487000001,23.9819504000001,0 80.3486115000002,23.9819442,0 80.3485701000003,23.9819187,0 80.3485355000001,23.9819276,0 80.3484946000003,23.9819234,0 80.3484154000001,23.9819415000003,0 80.3483885,23.9819396000003,0 80.3483642,23.9819067000001,0 80.3482817000003,23.9819068000001,0 80.3483382872151,23.982061897064,0 80.3483563250833,23.9822633199237,0 80.3483743629512,23.9824587301605,0 80.3484134449986,23.982584995237,0 80.3483482169441,23.9827467608462,0 80.3483481986151,23.9827504036262,0 80.3483467505596,23.9827503974753,0 80.3483382872151,23.9827713865397,0 80.3482360726299,23.9829968598901,0 80.3481729400916,23.9833155288919,0 80.3481278454216,23.9835259706854,0 80.3481278454216,23.9836822988751,0 80.3481436923207,23.9837430453253,0 80.3481466016805,23.9837430576877,0 80.3481465519168,23.9837529443734,0 80.3482691420546,23.9840280246786,0 80.3483112304132,23.9841362518868,0 80.3483202493474,23.9842565043405,0 80.3483563250833,23.9843587189261,0 80.3483683503286,23.9844729587567,0 80.3482160581374,23.9844667001737,0 80.3482265000001,23.9844916000001,0 80.3482273000002,23.9844938000003,0 80.3482236,23.9845067000003,0 80.3482280000001,23.9845232,0 80.3482339000002,23.9845398,0 80.3482461999999,23.9845371999999,0 80.3482885000001,23.9845967,0 80.3483218000002,23.9846208000001,0 80.3483669,23.9846313000001,0 80.3484519999999,23.9846302000002,0 80.3484941,23.9846200000001,0 80.3485242,23.9846121000001,0 80.3485559000002,23.9846026,0 80.3485878,23.9846065,0 80.348652,23.9845936,0 80.3486808000002,23.9845833000001,0 80.3487214,23.9845703,0 80.3487964,23.9845377,0 80.3488263,23.9845456000001,0 80.3488527000003,23.9845485000002,0 80.3488790000001,23.9845362,0 80.3489670000001,23.9845067999999,0 80.3490183000001,23.9845054,0 80.3490214,23.9845538000002,0 80.3490488000001,23.9845668000001,0 80.3491110000003,23.9845763000002,0 80.3491559000001,23.9845614000002,0 80.3491620019873,23.9845632753156,0 80.3491740417669,23.9844579272001,0 80.349519591584,23.9843851799381,0 80.3495196119783,23.9843811197172,0 80.3495384971631,23.9843811997949,0 80.3495738811749,23.9843737504826,0 80.3502085920824,23.9842079251895,0 80.3502086147807,23.9842034014497,0 80.3502256310536,23.9842034735262,0 80.3502412822919,23.984199384425,0 80.3506022568638,23.9841164019808,0 80.3506022651516,23.9841147492074,0 80.3506093165573,23.9841147790574,0 80.3507006716886,23.9840937777751,0 80.3507643804647,23.9840791319714,0 80.3507990315954,23.9840821020765,0 80.3508696013615,23.9840881509055,0 80.3509447591449,23.9845060281814,0 80.3512333650333,23.9845150471154,0 80.3513231986335,23.9845097627862,0 80.3513390000001,23.9844921000001,0 80.3513801000001,23.9844677,0 80.3514020000001,23.9844437000002,0 80.3514346,23.9844278999999,0 80.3514586,23.9844228,0 80.3514660000001,23.9844234000001,0 80.3515281000001,23.9843826999999,0 80.3515315,23.9843698000001,0 80.3515296,23.9843662,0 80.351523,23.9843321,0 80.3515241000001,23.9843194000002,0 80.3515192,23.9843095000001,0 80.3515411000001,23.9843183999999,0 80.3515823000001,23.9843483999999,0 80.3516059,23.9843794,0 80.3516039999999,23.9844003,0 80.3516253000001,23.9844375000003,0 80.3516305000001,23.9844742000002,0 80.3516473,23.9845112000001,0 80.3516687,23.9845473000003,0 80.3516915000001,23.9845702,0 80.3517162,23.9845920000002,0 80.3517517999999,23.9846388000002,0 80.3517681000001,23.9846661999999,0 80.3517995,23.9846804000001,0 80.3518283000001,23.9846771,0 80.351877440081,23.9846628822565,0 80.3518774442111,23.9846620570306,0 80.3518802512761,23.9846620688903,0 80.3518836,23.9846611000003,0 80.3519065999999,23.9846571000001,0 80.3519663999999,23.9846360000001,0 80.3519768000001,23.9846312000001,0 80.3520099,23.9846118000003,0 80.3520261000001,23.9846033000001,0 80.3520482000001,23.9845949000003,0 80.3520855000002,23.9845826,0 80.3521101999999,23.9845782,0 80.3521363,23.9845629000003,0 80.3521696000003,23.9845515000002,0 80.3521992,23.9845462,0 80.3522258000003,23.9845245,0 80.3522628000001,23.9845067999999,0 80.3522909000001,23.9844922999999,0 80.3523119000003,23.9844643000001,0 80.3523442000003,23.9844590000001,0 80.3523673000001,23.9844412,0 80.3524027000001,23.9844367000002,0 80.352421,23.9844251000001,0 80.3524556000001,23.9844303000002,0 80.3524833000002,23.984433,0 80.3525010000001,23.9844386000001,0 80.3525503999999,23.984446,0 80.3525875,23.9844534000003,0 80.3526197,23.9844590000001,0 80.3526558999999,23.9844416,0 80.3526732000001,23.9844252000001,0 80.3527311000001,23.9843727,0 80.3527386000002,23.9843407,0 80.3527235000003,23.9843022,0 80.3527395999999,23.9842753999999,0 80.3528187000003,23.9841871000001,0 80.3528581,23.9841612000001,0 80.3528537,23.9841650000003,0 80.3528528000001,23.9841653000001,0 80.3528528000001,23.9841661000001,0 80.352882053501,23.9841658783825,0 80.3527701297693,23.9840913497295,0 80.3526918006635,23.9839944242982,0 80.3526213518605,23.9839543761959,0 80.3525012000001,23.9839467000001,0 80.3521913000001,23.9837145000001,0 80.3521752,23.9837220000002,0 80.3520908000001,23.9836992,0</coordinates></LinearRing></outerBoundaryIs><innerBoundaryIs><LinearRing><coordinates>80.3505877422061,23.983255041829,0 80.3505674374723,23.9832188740218,0 80.3505636303347,23.9831953966732,0 80.3505464982154,23.9831871478749,0 80.3505192137292,23.9831808026457,0 80.3505008125642,23.9831624014804,0 80.3504862185367,23.9831566907741,0 80.3504646447568,23.9831617669577,0 80.3504405328853,23.9831700157557,0 80.350413248399,23.9831700157557,0 80.3503973853257,23.9831820716915,0 80.3503815222523,23.9831947621502,0 80.3503523341973,23.983167477664,0 80.3503180699587,23.9831325789027,0 80.350267308124,23.9831281372421,0 80.350263140748,23.9831198024914,0 80.3502533486195,23.9831002182329,0 80.3502533486195,23.9830811825449,0 80.3502539831424,23.9830183647743,0 80.3503574103807,23.9829644303247,0 80.3503904055734,23.9829409529763,0 80.3503944285118,23.9829397201409,0 80.3504297459954,23.9829288970405,0 80.3504773352156,23.9829047851689,0 80.3504627411879,23.9828749625911,0 80.3504684518945,23.9828590995177,0 80.3505006031771,23.9828498505204,0 80.3505147720687,23.9828457745361,0 80.3505382494172,23.982826738848,0 80.3505972600503,23.9828203936186,0 80.3506416766556,23.9828235662333,0 80.3506784789859,23.9828032614994,0 80.3507457384169,23.9828311805086,0 80.3507869824077,23.9829174756277,0 80.3508047771415,23.9829359355953,0 80.3508548763618,23.9829879076734,0 80.3508904096461,23.98298283149,0 80.3509024655818,23.983031055233,0 80.3508656632516,23.9830926039577,0 80.3508174395085,23.9831649395724,0 80.3507730229032,23.9832023764254,0 80.350745495863,23.9832121638176,0 80.3507444693711,23.9832125287924,0 80.350737826542,23.9832121313596,0 80.3507051017586,23.9832101734696,0 80.3507050926373,23.9832119928194,0 80.3506653792634,23.9832118247306,0 80.3506315242886,23.9832379097098,0 80.350618199307,23.9832582144437,0 80.3506004326648,23.9832988239115,0 80.3505699755639,23.983324204829,0 80.350521117298,23.9833495857462,0 80.3504684518945,23.9833901952142,0 80.3504676714115,23.9833916261006,0 80.3504303805184,23.983459992737,0 80.3504126138762,23.9834777593792,0 80.350403201759,23.9834816722864,0 80.3502996687938,23.9835247140764,0 80.3502113126475,23.9835173377764,0 80.3501835522692,23.9835014747031,0 80.3501974324582,23.9834796629772,0 80.3501911653718,23.9834625308287,0 80.3501848201426,23.9834504748931,0 80.3501949725095,23.9834289011131,0 80.3501930689407,23.9833908297371,0 80.3501746677755,23.9833800428473,0 80.3501835510965,23.9833565654987,0 80.3502273331791,23.9833483167004,0 80.3502939580873,23.983361007159,0 80.3503250497112,23.9834047892417,0 80.3503358366009,23.9834124035168,0 80.3503586794267,23.9833692559573,0 80.3504094412615,23.9833692559573,0 80.3504310150412,23.9833813118931,0 80.3504456090687,23.9833679869114,0 80.3504697209403,23.9833451440857,0 80.3505001780412,23.983332453627,0 80.3505147720687,23.9833203976913,0 80.3505230208668,23.9832867679757,0 80.3505712446098,23.983265828719,0 80.3505877422061,23.983255041829,0</coordinates></LinearRing></innerBoundaryIs><innerBoundaryIs><LinearRing><coordinates>80.3506886313528,23.9834790284251,0 80.3506714992336,23.9835063129112,0 80.3506239100134,23.9835310593056,0 80.3505452291695,23.9835297902598,0 80.3505534779678,23.9834879117461,0 80.3505344422795,23.9834676070122,0 80.3505579196281,23.9834549165535,0 80.3505940874356,23.9834200177921,0 80.3506404076097,23.9834371499114,0 80.3506886313528,23.9834790284251,0</coordinates></LinearRing></innerBoundaryIs></Polygon>
  </Placemark>
  
    </Document>
</kml>