<?xml version="1.0" encoding="UTF-8"?>
<kml xmlns="http://www.opengis.net/kml/2.2">
    <Document>
        <Placemark xmlns:ns0="http://www.opengis.net/kml/2.2">
	<Style><LineStyle><color>ff0000ff</color></LineStyle><PolyStyle><fill>0</fill></PolyStyle></Style>
	<ExtendedData><SchemaData schemaUrl="#Wave23_v27MAR2025">
		<SimpleData name="area(ha)">0.319778668913495</SimpleData>
		<SimpleData name="site_id">230050_1.1</SimpleData>
		<SimpleData name="Land_parc">230050</SimpleData>
		<SimpleData name="district">Chhatarpur</SimpleData>
		<SimpleData name="block">Bijawar</SimpleData>
		<SimpleData name="village">Tapran</SimpleData>
		<SimpleData name="Land Type">Farmer</SimpleData>
		<SimpleData name="Instance">Wave 2023</SimpleData>
	</SchemaData></ExtendedData>
      <Polygon><outerBoundaryIs><LinearRing><coordinates>79.7239649171872,24.4565015734523,0 79.723886089401,24.4565374509633,0 79.7238860417782,24.4565421777265,0 79.7238766331077,24.4565420983002,0 79.7237869144092,24.4565892846935,0 79.7237313034503,24.4566185325153,0 79.7237642,24.4566779,0 79.7237857964332,24.4567002391591,0 79.7237963815627,24.4567111883193,0 79.7238147,24.4567653,0 79.7238597910056,24.4568235903507,0 79.7238989801625,24.4569034975145,0 79.723912781848,24.4569036140249,0 79.7239625,24.4568814,0 79.7239813665084,24.4568725172588,0 79.724043344656,24.4568433366431,0 79.7240798590355,24.456888445444,0 79.7240900674033,24.4569010565572,0 79.7241384588202,24.4569937121534,0 79.7242769079801,24.4569139666912,0 79.7242769812923,24.45690668805,0 79.7242893632717,24.4569067925447,0 79.724376136637,24.4568568117402,0 79.7244338133312,24.4568235903483,0 79.7244310171466,24.4568176852733,0 79.7243776654383,24.4567050152641,0 79.724350379853,24.4566473925271,0 79.7243783623476,24.4566358179112,0 79.7244894841294,24.4565898536745,0 79.7244677429821,24.4565470872056,0 79.7243920965917,24.4563982848389,0 79.7243808538522,24.4563884298785,0 79.724301988436,24.4563192993714,0 79.7242827988606,24.4563290944307,0 79.7242137518182,24.4563643385265,0 79.724183636454,24.456379710476,0 79.7241234407943,24.4564104364448,0 79.7239852211622,24.4564899004854,0 79.7239649171872,24.4565015734523,0</coordinates></LinearRing></outerBoundaryIs></Polygon>
  </Placemark>
  
    </Document>
</kml>