<?xml version="1.0" encoding="UTF-8"?>
<kml xmlns="http://www.opengis.net/kml/2.2">
    <Document>
        <Placemark xmlns:ns0="http://www.opengis.net/kml/2.2">
	<Style><LineStyle><color>ff0000ff</color></LineStyle><PolyStyle><fill>0</fill></PolyStyle></Style>
	<ExtendedData><SchemaData schemaUrl="#Wave23_v27MAR2025">
		<SimpleData name="area(ha)">3.104192967399291</SimpleData>
		<SimpleData name="site_id">230008_1.1</SimpleData>
		<SimpleData name="Land_parc">230008</SimpleData>
		<SimpleData name="district">Chhatarpur</SimpleData>
		<SimpleData name="block">Bijawar</SimpleData>
		<SimpleData name="village">Satai</SimpleData>
		<SimpleData name="Land Type">Farmer</SimpleData>
		<SimpleData name="Instance">Wave 2023</SimpleData>
	</SchemaData></ExtendedData>
      <Polygon><outerBoundaryIs><LinearRing><coordinates>79.6409104,24.6930928,0 79.6409059539295,24.6931255163696,0 79.6409051,24.6931318,0 79.6408907,24.6932265,0 79.6408922,24.6932959,0 79.6408788,24.6933973,0 79.6408756,24.6934327,0 79.6408809,24.6935278,0 79.6408845,24.6935594,0 79.6408849,24.6936245,0 79.6408839,24.6937253,0 79.6408567,24.693807,0 79.6408479,24.6938505,0 79.6408519,24.6939119,0 79.6408554436421,24.6939377407223,0 79.6408608,24.6939768,0 79.6408383,24.6940507,0 79.6408307305255,24.6941181128549,0 79.6408298,24.6941264,0 79.640846,24.694151,0 79.6408633,24.6941733,0 79.6408911,24.6941761,0 79.6409266,24.6941731,0 79.6409539,24.6941848,0 79.64099,24.6941991,0 79.6410102622678,24.6942100365436,0 79.641021823745,24.6942101412297,0 79.6410217575722,24.6942162411234,0 79.6410617,24.6942378,0 79.6411348,24.6942731,0 79.6412063,24.6942851,0 79.6412778,24.6942947,0 79.6413090018655,24.6943030392376,0 79.6413173263972,24.6943031145977,0 79.6413172940317,24.6943060987305,0 79.6413815,24.694332,0 79.641494,24.6943712,0 79.6415964,24.6944069,0 79.6416646,24.6944053,0 79.6417341,24.6943803,0 79.6418412,24.6943951,0 79.6419725,24.6943806,0 79.6420265,24.694383,0 79.6421143,24.6943752,0 79.6421418,24.6943881,0 79.6421831,24.6944031,0 79.6422199,24.6944289,0 79.6422427,24.6944565,0 79.6422511,24.6944903,0 79.6422510694069,24.6944921606211,0 79.64225,24.6945572,0 79.6422712,24.6946192,0 79.642299315306,24.6946731930625,0 79.6423016862181,24.6946732145104,0 79.6423016486838,24.6946766776624,0 79.6423214,24.6947019,0 79.6423471,24.6947301,0 79.6423669,24.6948015,0 79.6423368,24.6948554,0 79.6423354,24.6949024,0 79.6423332,24.6949405,0 79.6423331218498,24.6949443928613,0 79.6423316,24.6950202,0 79.6423320469484,24.6950346811283,0 79.6423336,24.695085,0 79.6423422,24.6951041,0 79.6423387,24.6951101,0 79.6423345,24.6951182,0 79.6423333,24.695118,0 79.6423332,24.6951234,0 79.6423337,24.6951375,0 79.6423454,24.6951777,0 79.6423588,24.6951855,0 79.6423423,24.6952416,0 79.6423558,24.6953362,0 79.642361,24.695373,0 79.6423713,24.6954351,0 79.6424291,24.6954542,0 79.6424689,24.6954444,0 79.6425002,24.695434,0 79.6425651,24.6954056,0 79.6425834120203,24.6953981467885,0 79.6425903737593,24.6953953132766,0 79.6426307,24.6953789,0 79.6426896518197,24.6953546987314,0 79.6427067,24.6953477,0 79.6427378,24.6953368,0 79.6428064,24.6953109,0 79.6428695,24.6952726,0 79.6429332,24.6952645,0 79.6429608,24.6952899,0 79.6430239,24.6953134,0 79.6430813,24.6953199,0 79.6431078,24.6953171,0 79.643162,24.6952933,0 79.6431895,24.6952497,0 79.6432405,24.6952099,0 79.6432748,24.6951889,0 79.6433141,24.6951735,0 79.6433975,24.695136,0 79.6434241,24.6951142,0 79.6434525,24.6950834,0 79.6434515,24.6950533,0 79.6434482,24.6950237,0 79.6434090934082,24.6949541224014,0 79.6433696414621,24.694883930271,0 79.6433531,24.6948545,0 79.6432682,24.6947864,0 79.6432289158249,24.6947718976437,0 79.6431975,24.6947603,0 79.6431075,24.6947352,0 79.6430874361004,24.6946803205697,0 79.6430584,24.6946009,0 79.6430257,24.6945498,0 79.6429954207312,24.6945003461698,0 79.6429945257969,24.6944988845114,0 79.6429818,24.6944781,0 79.6429691,24.6944518,0 79.6429289,24.6943657,0 79.6428868,24.6942753,0 79.6428563505136,24.6942267410875,0 79.6428488,24.6942147,0 79.6427289,24.6941317,0 79.6426684,24.6940938,0 79.6425902,24.6940137,0 79.6425473,24.693954,0 79.6424993,24.693901,0 79.6424429,24.693855,0 79.6423563,24.6938129,0 79.6422871,24.6937842,0 79.6422733,24.6937844,0 79.6422862,24.6937727,0 79.6422803181355,24.693770041225,0 79.642232,24.6937482,0 79.6422309,24.6937244,0 79.6422402,24.6936797,0 79.6422342,24.6936554,0 79.6422171,24.6936138,0 79.6422144083655,24.6936067038734,0 79.6422094,24.6935935,0 79.6421875,24.6935125,0 79.642176,24.6934417,0 79.6421554970322,24.6934077200093,0 79.6421439,24.6933885,0 79.6420735,24.6933557,0 79.6420266313775,24.6933162561154,0 79.6420198843208,24.6933161950695,0 79.6420199446591,24.6933106286768,0 79.6420129,24.6933047,0 79.6419813,24.6932808,0 79.6419276,24.6932424,0 79.6419219156957,24.6932361528943,0 79.6419116930801,24.6932249181384,0 79.6419074,24.6932202,0 79.6418522,24.6931768,0 79.6418238218197,24.693167675453,0 79.6418183,24.6931659,0 79.6417882,24.6931535,0 79.6417327114429,24.6931330005211,0 79.6417253622857,24.6931329340135,0 79.6417253908866,24.693130296041,0 79.6417208,24.6931286,0 79.6416904,24.6931186,0 79.6416289,24.6930987,0 79.6415998,24.693082,0 79.6415703,24.6930655,0 79.6415072571728,24.6930406620751,0 79.6415038,24.6930393,0 79.641472,24.6930296,0 79.6413566,24.6930119,0 79.6412897,24.693012,0 79.6412572,24.693018,0 79.6411879,24.6930248,0 79.6411069,24.6930181,0 79.6409631,24.6929842,0 79.6409349,24.6929993,0 79.6409114,24.6930288,0 79.6409108,24.6930579,0 79.6409104,24.6930928,0</coordinates></LinearRing></outerBoundaryIs></Polygon>
  </Placemark>
  
    </Document>
</kml>