<?xml version="1.0" encoding="UTF-8"?>
<kml xmlns="http://www.opengis.net/kml/2.2">
    <Document>
        <Placemark xmlns:ns0="http://www.opengis.net/kml/2.2">
	<Style><LineStyle><color>ff0000ff</color></LineStyle><PolyStyle><fill>0</fill></PolyStyle></Style>
	<ExtendedData><SchemaData schemaUrl="#Wave23_v27MAR2025">
		<SimpleData name="area(ha)">0.235150966164712</SimpleData>
		<SimpleData name="site_id">230052_1.1</SimpleData>
		<SimpleData name="Land_parc">230052</SimpleData>
		<SimpleData name="district">Chhatarpur</SimpleData>
		<SimpleData name="block">Bijawar</SimpleData>
		<SimpleData name="village">Tapran</SimpleData>
		<SimpleData name="Land Type">Farmer</SimpleData>
		<SimpleData name="Instance">Wave 2023</SimpleData>
	</SchemaData></ExtendedData>
      <Polygon><outerBoundaryIs><LinearRing><coordinates>79.7248728245616,24.4467413552877,0 79.7248762426247,24.4467408061781,0 79.7248785883544,24.4467409282024,0 79.7248808670631,24.4467410502268,0 79.7248838159804,24.4467416603486,0 79.7248865638351,24.4467419654095,0 79.7248892446689,24.4467425145192,0 79.7248915233777,24.4467429416044,0 79.7248941371907,24.4467436737506,0 79.7248971531287,24.4467447109577,0 79.7248996999209,24.4467454431039,0 79.724901375442,24.4467461142379,0 79.7249039222342,24.4467470294206,0 79.724907072214,24.4467488292799,0 79.7249085801831,24.4467499885113,0 79.724910791871,24.446751605334,0 79.7249126014338,24.4467530086141,0 79.7249147461009,24.4467545644246,0 79.7249167902367,24.446756089729,0 79.7249187338413,24.4467578590821,0 79.7249204093624,24.4467601165325,0 79.7249217497794,24.4467620079099,0 79.7249231572171,24.446763838275,0 79.7249244976341,24.4467662177497,0 79.7249255029467,24.4467682311513,0 79.7249267093219,24.4467703665772,0 79.7249276476138,24.4467725020031,0 79.7249281167597,24.4467745154047,0 79.7249286529265,24.4467765898183,0 79.7249292561141,24.4467787862562,0 79.7249299263226,24.4467814707915,0 79.72492972526,24.4467836062172,0 79.7249299933434,24.4467861077158,0 79.7249302614268,24.4467887312387,0 79.7249296582392,24.4467910497007,0 79.7249295241975,24.4467934291749,0 79.7249291220724,24.4467961137098,0 79.7249285859056,24.4467981881231,0 79.7249277146346,24.4468004455728,0 79.7249273125096,24.4468023979617,0 79.7249267763428,24.4468042283263,0 79.7249251008217,24.4468067908367,0 79.7249242965715,24.4468088652498,0 79.7249226545608,24.4468115497844,0 79.7249211801022,24.4468136547035,0 79.7249192364977,24.4468154545618,0 79.7249178290599,24.4468168578412,0 79.7249161200283,24.4468188407359,0 79.7249146455697,24.4468201524971,0 79.7249127019652,24.4468216167885,0 79.7249105237877,24.446823508165,0 79.7249085801832,24.4468251249868,0 79.7249074408288,24.4468262232053,0 79.7249039557448,24.4468284196424,0 79.7249015429943,24.4468292738123,0 79.7248988621605,24.4468302500066,0 79.724874667635,24.4468383646209,0 79.7248753378435,24.4468397068879,0 79.7248774825106,24.4468415982641,0 79.7248781527191,24.4468431845795,0 79.724879493136,24.4468449539314,0 79.7248806324904,24.4468473334045,0 79.724882509074,24.4468498349019,0 79.7248836484284,24.4468519093143,0 79.7248841845952,24.4468534346175,0 79.7248849888453,24.4468556310541,0 79.7248860611789,24.4468587426726,0 79.7248865303248,24.4468610611334,0 79.7248910207215,24.4468766802363,0 79.7248924951801,24.4468767412484,0 79.7248933664511,24.4468769242848,0 79.7248964494101,24.4468777174423,0 79.7248996664106,24.4468779614908,0 79.7249019451194,24.4468799138785,0 79.7249044248907,24.4468811341208,0 79.7249065025369,24.4468819272783,0 79.7249087142248,24.4468831475206,0 79.7249107918711,24.4468841847265,0 79.7249130705798,24.4468858930657,0 79.724914746101,24.4468871133079,0 79.7249170248097,24.4468891877197,0 79.7249189684143,24.4468905299862,0 79.7249210460605,24.4468925433858,0 79.7249222524357,24.4468941297007,0 79.7249241290194,24.4468962651244,0 79.7249254694363,24.4468979124513,0 79.7249264077282,24.4468993767419,0 79.7249280832493,24.4469014511535,0 79.7249288204786,24.4469030984803,0 79.7249300268539,24.4469049288434,0 79.7249304959998,24.4469076743881,0 79.7249312332291,24.4469103589205,0 79.724931702375,24.4469129214288,0 79.7249323725835,24.4469154229248,0 79.7249325066252,24.446917436324,0 79.7249328417294,24.4469198157958,0 79.7249328417294,24.4469228053885,0 79.7249327076877,24.4469252458723,0 79.7249323725835,24.4469279304044,0 79.724931702375,24.4469305234183,0 79.7249312667395,24.4469328418777,0 79.724930428979,24.4469348857827,0 79.7249297587705,24.4469372957602,0 79.7249295912184,24.4469382719536,0 79.7250032578952,24.4470493700888,0 79.7250063635976,24.447049802,0 79.7250095805982,24.4470496799759,0 79.7250111890985,24.4470511442647,0 79.7250144060991,24.4470513883129,0 79.7250168188496,24.4470529746257,0 79.725018829475,24.4470541948663,0 79.7250207060587,24.4470550490348,0 79.7250231188091,24.4470561472513,0 79.7250255315596,24.44705761154,0 79.7250276762266,24.4470591978528,0 79.7250303570605,24.4470602960693,0 79.7250320325816,24.4470623094662,0 79.7250331049152,24.4470638347669,0 79.7250352495822,24.4470662142359,0 79.7250367910617,24.4470679225726,0 79.7250381984995,24.4470696919213,0 79.7250396729581,24.4470716443061,0 79.7250413484793,24.4470733526427,0 79.7250420186877,24.4470760676776,0 79.7250430575108,24.4470781420863,0 79.7250440628235,24.4470798199169,0 79.7250452356883,24.4470823214096,0 79.7250457383447,24.4470847008783,0 79.7250465761053,24.4470866532628,0 79.7250470452512,24.4470888496953,0 79.7250475143971,24.447091900296,0 79.7250477154597,24.4470945238126,0 79.7250482516264,24.4470975744131,0 79.7250473133346,24.4470996488214,0 79.725047581418,24.4471017232297,0 79.7250459888351,24.4471046060471,0 79.725045390674,24.4471068802696,0 79.7250446869551,24.44710934668,0 79.7250440887941,24.4471112365268,0 79.7250434554471,24.4471137990309,0 79.7250430332158,24.4471146318447,0 79.725097399401,24.4472070601371,0 79.7252066035478,24.4471642096001,0 79.7253063935439,24.4471350712265,0 79.7253930037292,24.4470785084821,0 79.725424,24.4470225,0 79.72543,24.4469215,0 79.7253932,24.4468408,0 79.7253371,24.4468034,0 79.7252908,24.4467741,0 79.7252594,24.4467381,0 79.725214,24.4467107,0 79.7251822,24.446697,0 79.7251367,24.4466493,0 79.7250714,24.446625,0 79.7249765,24.4466424,0 79.7249336,24.4466623,0 79.7249055,24.4466745,0 79.7248531,24.4467035,0 79.7247928656467,24.4467153718733,0 79.7248094228412,24.4467494851608,0 79.7248728245616,24.4467413552877,0</coordinates></LinearRing></outerBoundaryIs></Polygon>
  </Placemark>
  
    </Document>
</kml>