<?xml version="1.0" encoding="UTF-8"?>
<kml xmlns="http://www.opengis.net/kml/2.2">
    <Document>
        <Placemark xmlns:ns0="http://www.opengis.net/kml/2.2">
	<Style><LineStyle><color>ff0000ff</color></LineStyle><PolyStyle><fill>0</fill></PolyStyle></Style>
	<ExtendedData><SchemaData schemaUrl="#Wave23_v27MAR2025">
		<SimpleData name="area(ha)">0.583096058788528</SimpleData>
		<SimpleData name="site_id">230053_1.1</SimpleData>
		<SimpleData name="Land_parc">230053</SimpleData>
		<SimpleData name="district">Chhatarpur</SimpleData>
		<SimpleData name="block">Bijawar</SimpleData>
		<SimpleData name="village">Nagda</SimpleData>
		<SimpleData name="Land Type">Farmer</SimpleData>
		<SimpleData name="Instance">Wave 2023</SimpleData>
	</SchemaData></ExtendedData>
      <Polygon><outerBoundaryIs><LinearRing><coordinates>79.6374778801536,24.3904157596057,0 79.6372891286718,24.3904913623132,0 79.6372890493117,24.3904987610635,0 79.6372710607885,24.3904985992238,0 79.6371742893164,24.3905373600212,0 79.6370910795686,24.3905706887424,0 79.637040515256,24.3905909416731,0 79.637186903253,24.3908294208624,0 79.6372359963045,24.3909093976282,0 79.6371492529499,24.3910393110834,0 79.6371120998653,24.3910949542712,0 79.6372267546538,24.3911303097097,0 79.6372273495029,24.3911304931396,0 79.6372820920703,24.3911473737533,0 79.6373209866144,24.3911593673993,0 79.6374617631494,24.3912027776009,0 79.6378362057213,24.3912880331917,0 79.6380234270072,24.3912729880916,0 79.6379317604321,24.3910463499378,0 79.6378762443494,24.3909090905427,0 79.6378385535861,24.3908159027576,0 79.6376423835476,24.390501939517,0 79.6375856429358,24.3904111278424,0 79.6375663868092,24.390380308947,0 79.6374915568158,24.3904102815289,0 79.6374778801536,24.3904157596057,0</coordinates></LinearRing></outerBoundaryIs></Polygon>
  </Placemark>
  
    </Document>
</kml>