<?xml version="1.0" encoding="UTF-8"?>
<kml xmlns="http://www.opengis.net/kml/2.2">
    <Document>
        <Placemark xmlns:ns0="http://www.opengis.net/kml/2.2">
	<Style><LineStyle><color>ff0000ff</color></LineStyle><PolyStyle><fill>0</fill></PolyStyle></Style>
	<ExtendedData><SchemaData schemaUrl="#Wave23_v27MAR2025">
		<SimpleData name="area(ha)">0.647668814709560</SimpleData>
		<SimpleData name="site_id">230086_1.1</SimpleData>
		<SimpleData name="Land_parc">230086</SimpleData>
		<SimpleData name="district">Damoh</SimpleData>
		<SimpleData name="block">Hatta</SimpleData>
		<SimpleData name="village">Surajpura</SimpleData>
		<SimpleData name="Land Type">Farmer</SimpleData>
		<SimpleData name="Instance">Wave 2023</SimpleData>
	</SchemaData></ExtendedData>
      <Polygon><outerBoundaryIs><LinearRing><coordinates>79.489730272715,24.3870569923941,0 79.489743,24.3870875,0 79.4901074612409,24.3870570665169,0 79.4901208338977,24.3871166820083,0 79.4901239317368,24.3871167128868,0 79.4901237762326,24.387129798972,0 79.4901459048583,24.387228448567,0 79.490163726882,24.3872977045229,0 79.4901762550825,24.3873463887675,0 79.4902198779019,24.3873393991566,0 79.490318658362,24.3873235716801,0 79.4903947766972,24.387311375282,0 79.4904174432496,24.3873073697129,0 79.4904175280276,24.3873002340896,0 79.4904556709521,24.387300614213,0 79.4905303410322,24.387287418681,0 79.4908176564885,24.3872653048915,0 79.4908283,24.3870116,0 79.4908227,24.3869203,0 79.490788,24.3867882,0 79.4907832595677,24.3867345727819,0 79.4907589793882,24.3866627026374,0 79.4905849714359,24.3866608598126,0 79.4904757106285,24.386657174163,0 79.4904250575567,24.3866664753666,0 79.4904250367529,24.3866682264498,0 79.4904160112194,24.3866681365042,0 79.4902248154413,24.3867032447752,0 79.4899285545753,24.3867330597216,0 79.4896414869443,24.3867414174404,0 79.4896448625982,24.3867507469774,0 79.4896643479667,24.3868046000629,0 79.4896764880564,24.3869280691217,0 79.4896779912193,24.3869316722471,0 79.4897122988111,24.3870139084925,0 79.489730272715,24.3870569923941,0</coordinates></LinearRing></outerBoundaryIs></Polygon>
  </Placemark>
  
    </Document>
</kml>