<?xml version="1.0" encoding="UTF-8"?>
<kml xmlns="http://www.opengis.net/kml/2.2">
    <Document>
        <Placemark xmlns:ns0="http://www.opengis.net/kml/2.2">
	<Style><LineStyle><color>ff0000ff</color></LineStyle><PolyStyle><fill>0</fill></PolyStyle></Style>
	<ExtendedData><SchemaData schemaUrl="#Wave23_v27MAR2025">
		<SimpleData name="area(ha)">4.065315720831088</SimpleData>
		<SimpleData name="site_id">230066_2.2</SimpleData>
		<SimpleData name="Land_parc">230066</SimpleData>
		<SimpleData name="district">Chhatarpur</SimpleData>
		<SimpleData name="block">Bada Malahara</SimpleData>
		<SimpleData name="village">Manikhera</SimpleData>
		<SimpleData name="Land Type">Community</SimpleData>
		<SimpleData name="Instance">Wave 2023</SimpleData>
	</SchemaData></ExtendedData>
      <Polygon><outerBoundaryIs><LinearRing><coordinates>79.1952569000001,24.5798726,0 79.1953504586855,24.5798156430849,0 79.1953510156825,24.5798153039944,0 79.1953603345048,24.5798096308497,0 79.195455,24.579752,0 79.1956361969797,24.579682670886,0 79.1957063,24.5798271,0 79.1958159,24.5799546000001,0 79.1958661944117,24.5800023961794,0 79.1959689,24.5801,0 79.1960991,24.5801611000001,0 79.1961594,24.5802891,0 79.1962642999999,24.5805523000001,0 79.1963233000001,24.5807602000001,0 79.1964437000001,24.5809016000001,0 79.1966773,24.5809725000001,0 79.1967986999999,24.5807853000001,0 79.1969072,24.5804772,0 79.1969316030281,24.5804004171966,0 79.1969392377101,24.5803763950614,0 79.1969748000001,24.5802645000001,0 79.1970376,24.5800411999999,0 79.1971149,24.5798540000001,0 79.1971383808266,24.5797501344044,0 79.1971384289363,24.5797467742636,0 79.19713913853,24.5797467827594,0 79.1971482000001,24.5797067,0 79.1970149,24.5796721999999,0 79.1967683000001,24.5796283000001,0 79.1965688000001,24.5795559000001,0 79.1963976,24.5795069000001,0 79.1961866000001,24.5794092,0 79.1959879,24.5793419,0 79.1956899,24.5792858999999,0 79.1953801,24.5792331000001,0 79.1950566,24.5792035000001,0 79.1949112000001,24.5791134000001,0 79.1947072000001,24.5789869000001,0 79.194583967,24.578903590183,0 79.1945834614409,24.5789035841216,0 79.194583466208,24.5789032516297,0 79.1945044,24.5788498000001,0 79.1943114803549,24.5788100364865,0 79.1942886100819,24.578809762241,0 79.1942886735582,24.5788053356599,0 79.1942133000001,24.5787898,0 79.1940296,24.5787065,0 79.1937795000001,24.5786356,0 79.1937208472713,24.5786223799761,0 79.1936989087876,24.5786221168195,0 79.1936989757268,24.5786174502359,0 79.1935204000001,24.5785771999999,0 79.193341258399,24.5785275398357,0 79.1933403639108,24.578527529104,0 79.1932007663817,24.5786865151784,0 79.1929724424151,24.5789926768607,0 79.1930554693121,24.5790341903092,0 79.193098319503,24.5790891679126,0 79.1931324,24.5791012000001,0 79.1933206000001,24.5792286,0 79.1933431922298,24.5792498545542,0 79.1934422,24.5793430000001,0 79.1934894074161,24.5794611774431,0 79.1935140086335,24.5795227632097,0 79.1935165,24.579529,0 79.1936045,24.5797133,0 79.193662508996,24.5797954039958,0 79.1936665213011,24.5798010828739,0 79.1936816887818,24.579822550397,0 79.1936878000001,24.5798311999999,0 79.1938215035282,24.5798875976463,0 79.1939308,24.5799336999999,0 79.1941373,24.5799578,0 79.1943448000001,24.579922,0 79.1943714015308,24.5799214320514,0 79.194514426303,24.5799183783599,0 79.1946586000002,24.5799153,0 79.1947664864338,24.5799107818606,0 79.1948353,24.5799078999999,0 79.1950373,24.5798906000001,0 79.1952569000001,24.5798726,0</coordinates></LinearRing></outerBoundaryIs></Polygon>
  </Placemark>
  
    </Document>
</kml>