<?xml version="1.0" encoding="UTF-8"?>
<kml xmlns="http://www.opengis.net/kml/2.2">
    <Document>
        <Placemark xmlns:ns0="http://www.opengis.net/kml/2.2">
	<Style><LineStyle><color>ff0000ff</color></LineStyle><PolyStyle><fill>0</fill></PolyStyle></Style>
	<ExtendedData><SchemaData schemaUrl="#Wave23_v27MAR2025">
		<SimpleData name="area(ha)">0.207415023505625</SimpleData>
		<SimpleData name="site_id">230031_2.2</SimpleData>
		<SimpleData name="Land_parc">230031</SimpleData>
		<SimpleData name="district">Chhatarpur</SimpleData>
		<SimpleData name="block">Bijawar</SimpleData>
		<SimpleData name="village">Patna</SimpleData>
		<SimpleData name="Land Type">Farmer</SimpleData>
		<SimpleData name="Instance">Wave 2023</SimpleData>
	</SchemaData></ExtendedData>
      <Polygon><outerBoundaryIs><LinearRing><coordinates>79.7905120834632,24.4098396394068,0 79.7905095339929,24.4098392599055,0 79.790506966318,24.4098390031775,0 79.7905043874846,24.4098388699276,0 79.7905018045693,24.4098388605212,0 79.79049922466,24.4098389749843,0 79.7904966548364,24.4098392130026,0 79.7904941021504,24.4098395739232,0 79.790491573607,24.4098400567554,0 79.790489076145,24.4098406601745,0 79.7904866166175,24.4098413825245,0 79.7904842017741,24.4098422218231,0 79.7904818382414,24.4098431757672,0 79.7904795325052,24.4098442417391,0 79.7904772908928,24.4098454168136,0 79.7904751195556,24.409846697766,0 79.790473024452,24.4098480810813,0 79.7904710113313,24.4098495629635,0 79.7904690857178,24.409851139346,0 79.7904672528956,24.4098528059031,0 79.7904655178944,24.4098545580614,0 79.7904638854751,24.4098563910127,0 79.7904623601175,24.4098582997272,0 79.7904609460073,24.4098602789671,0 79.790459647025,24.4098623233011,0 79.7904584667353,24.4098644271191,0 79.790457408377,24.4098665846481,0 79.7904564748545,24.4098687899674,0 79.7904556687294,24.4098710370253,0 79.790454992214,24.4098733196555,0 79.7904544471646,24.4098756315943,0 79.790454035077,24.4098779664972,0 79.7904537570821,24.4098803179569,0 79.7904536139426,24.4098826795208,0 79.7904536060514,24.4098850447082,0 79.7904537334302,24.4098874070289,0 79.7904539957293,24.4098897600002,0 79.7904543922291,24.4098920971652,0 79.7904715921967,24.4099784971693,0 79.790472125499,24.409980826359,0 79.7904727920847,24.409983126582,0 79.7904735901019,24.4099853914478,0 79.7904745173336,24.4099876146643,0 79.7904755712036,24.4099897900547,0 79.7904767487842,24.4099919115755,0 79.7904780468038,24.4099939733325,0 79.7904794616561,24.4099959695978,0 79.7904809894105,24.4099978948253,0 79.7904826258225,24.4099997436664,0 79.7904843663458,24.4100015109845,0 79.7904862061449,24.4100031918696,0 79.7904881401084,24.410004781652,0 79.7904901628633,24.4100062759147,0 79.7904922687901,24.4100076705066,0 79.7904944520379,24.410008961553,0 79.7904967065414,24.4100101454672,0 79.7904990260369,24.41001121896,0 79.7905014040804,24.410012179049,0 79.7905038340652,24.4100130230669,0 79.7905063092402,24.4100137486688,0 79.790508822729,24.4100143538388,0 79.7905113675485,24.4100148368957,0 79.7905139366286,24.4100151964973,0 79.7905165228319,24.4100154316447,0 79.7905191189734,24.4100155416846,0 79.7905217178403,24.4100155263113,0 79.7905243122126,24.4100153855673,0 79.7905268948824,24.4100151198439,0 79.7905294586746,24.4100147298792,0 79.7905319964663,24.4100142167566,0 79.7905345012071,24.4100135819016,0 79.7905369659383,24.4100128270782,0 79.7905393838122,24.4100119543832,0 79.7905417481116,24.4100109662412,0 79.7905440522678,24.4100098653976,0 79.7905462898795,24.4100086549107,0 79.79054845473,24.4100073381434,0 79.790550540805,24.4100059187541,0 79.7905525423089,24.4100044006862,0 79.7905544536811,24.410002788157,0 79.7905562696114,24.4100010856467,0 79.7905579850547,24.4099992978851,0 79.7905595952452,24.409997429839,0 79.7905610957095,24.4099954866982,0 79.7905624822788,24.4099934738613,0 79.7905646704245,24.4099901037255,0 79.7905655460984,24.4099899447328,0 79.7905680354271,24.4099893679638,0 79.7905704885896,24.4099886733082,0 79.7905728989329,24.4099878626499,0 79.7905752599201,24.4099869381877,0 79.7905775651481,24.4099859024285,0 79.7905798083651,24.4099847581814,0 79.7905819834873,24.4099835085497,0 79.7905840846157,24.4099821569224,0 79.7905861060521,24.4099807069651,0 79.7905880423142,24.4099791626103,0 79.7906095307299,24.4099611012233,0 79.7906468790075,24.4099351860879,0 79.7906489132724,24.4099336954719,0 79.7906508587119,24.4099321085418,0 79.7906510553017,24.409931930257,0 79.7906528753054,24.4099328300338,0 79.7906547587616,24.4099337139142,0 79.7906742388578,24.4099423774333,0 79.7906746740664,24.4099435502069,0 79.7906726410814,24.4099675011993,0 79.7906725080907,24.4099698761566,0 79.7906725118414,24.4099722542316,0 79.7906726523231,24.4099746288273,0 79.7906729291462,24.4099769933562,0 79.7906733415426,24.4099793412588,0 79.7906738883685,24.4099816660218,0 79.7906745681067,24.4099839611961,0 79.7906753788717,24.4099862204146,0 79.7906763184142,24.4099884374099,0 79.790677384128,24.4099906060318,0 79.7906785730566,24.4099927202644,0 79.7906788792058,24.409993200706,0 79.7906649582121,24.409994801015,0 79.7906624077074,24.4099951565005,0 79.7906598809992,24.4099956336568,0 79.7906573850047,24.4099962311778,0 79.7906549265571,24.4099969474275,0 79.7906525123867,24.4099977804452,0 79.7906501491027,24.4099987279503,0 79.790647843175,24.4099997873488,0 79.7906456009163,24.4100009557406,0 79.7906434284652,24.410002229927,0 79.7906413317692,24.4100036064196,0 79.7906393165682,24.4100050814502,0 79.7906373883791,24.4100066509806,0 79.7906355524807,24.410008310714,0 79.7906338138991,24.4100100561066,0 79.7906321773938,24.4100118823802,0 79.790630647445,24.410013784535,0 79.7906292282413,24.4100157573636,0 79.7906279236679,24.410017795465,0 79.7906267372963,24.4100198932598,0 79.7906256723743,24.4100220450048,0 79.7906247318174,24.4100242448092,0 79.7906239182004,24.4100264866509,0 79.7906232337509,24.4100287643925,0 79.7906226803425,24.4100310717981,0 79.7906222594903,24.4100334025511,0 79.7906219723466,24.4100357502705,0 79.7906218196973,24.4100381085292,0 79.7906218019604,24.4100404708711,0 79.7906219191845,24.4100428308288,0 79.7906221710486,24.4100451819417,0 79.7906225568633,24.4100475177731,0 79.7906230755723,24.4100498319284,0 79.7906237257555,24.4100521180723,0 79.7906245056331,24.4100543699461,0 79.7906254130699,24.4100565813849,0 79.7906264455819,24.4100587463345,0 79.7906276003421,24.4100608588681,0 79.7906288741895,24.4100629132024,0 79.7906302636365,24.4100649037131,0 79.7906317648795,24.410066824951,0 79.7906333738084,24.4100686716565,0 79.7906350860187,24.4100704387738,0 79.7906368968229,24.4100721214652,0 79.7906388012635,24.4100737151242,0 79.790640794127,24.4100752153877,0 79.7906428699576,24.4100766181486,0 79.7906450230723,24.4100779195666,0 79.7906985357349,24.4101084546188,0 79.790704214656,24.4101256027512,0 79.7907050260014,24.4101278405413,0 79.7907059638195,24.4101300364943,0 79.7907070255527,24.4101321846212,0 79.7907082083053,24.4101342790635,0 79.7907095088518,24.4101363141093,0 79.7907109236452,24.4101382842085,0 79.790712448827,24.4101401839882,0 79.7907140802379,24.4101420082673,0 79.7907158134284,24.4101437520704,0 79.7907176436719,24.4101454106419,0 79.7907195659767,24.4101469794584,0 79.7907215751004,24.4101484542414,0 79.7907236655636,24.4101498309689,0 79.7907258316651,24.4101511058861,0 79.7907280674975,24.4101522755161,0 79.790730366963,24.410153336669,0 79.7907327237906,24.4101542864508,0 79.7907351315526,24.4101551222712,0 79.7907367355237,24.4101555929579,0 79.7907362713063,24.410156241338,0 79.7907349712608,24.4101582826251,0 79.7907337896264,24.4101603833999,0 79.7907327296398,24.410162537908,0 79.7907317942044,24.4101647402479,0 79.7907309858826,24.4101669843869,0 79.7907303068886,24.410169264178,0 79.7907297590822,24.4101715733764,0 79.7907293439639,24.4101739056569,0 79.7907290626708,24.4101762546308,0 79.7907289159736,24.410178613864,0 79.7907289042739,24.410180976894,0 79.7907290276039,24.4101833372482,0 79.7907292856258,24.4101856884612,0 79.7907296776327,24.4101880240924,0 79.790730202551,24.4101903377443,0 79.7907308589427,24.4101926230793,0 79.79073164501,24.4101948738374,0 79.7907325585996,24.4101970838536,0 79.790733597209,24.410199247074,0 79.7907347579934,24.4102013575734,0 79.7907360377732,24.4102034095706,0 79.7907374330428,24.4102053974449,0 79.7907389399803,24.4102073157511,0 79.7907405544579,24.4102091592347,0 79.7907422720534,24.410210922846,0 79.790744088062,24.4102126017542,0 79.7907459975092,24.4102141913605,0 79.7907479951647,24.4102156873105,0 79.7907500755567,24.4102170855068,0 79.7907522329865,24.4102183821193,0 79.7907544615447,24.4102195735964,0 79.7907567551267,24.4102206566745,0 79.79075910745,24.4102216283867,0 79.7907615120712,24.4102224860714,0 79.7907639624037,24.4102232273793,0 79.7907664517355,24.4102238502797,0 79.7907689732479,24.4102243530665,0 79.790771520034,24.4102247343624,0 79.7907740851177,24.410224993123,0 79.7907766614728,24.4102251286395,0 79.7907792420422,24.4102251405406,0 79.7907818197573,24.4102250287938,0 79.7907843875573,24.4102247937052,0 79.7907869384084,24.4102244359187,0 79.7908057384148,24.4102213359179,0 79.7908083011409,24.4102208487047,0 79.7908108320225,24.4102202376527,0 79.7908133239283,24.4102195044839,0 79.7908157698364,24.4102186512641,0 79.7908181628548,24.4102176803975,0 79.7908204962405,24.4102165946199,0 79.7908227634184,24.4102153969907,0 79.790824958,24.4102140908847,0 79.7908270738016,24.4102126799821,0 79.790829104861,24.4102111682586,0 79.7908306862505,24.4102098576682,0 79.7908320510598,24.4102095633719,0 79.7908345228546,24.4102089039536,0 79.7908369536916,24.4102081272909,0 79.7908393369435,24.4102072355014,0 79.7908416661127,24.4102062310163,0 79.7908439348491,24.4102051165743,0 79.7908461369671,24.4102038952137,0 79.7908482664631,24.4102025702644,0 79.7908503175313,24.4102011453387,0 79.7908522845796,24.4101996243215,0 79.7908541622453,24.4101980113596,0 79.7908559454092,24.4101963108505,0 79.7908576292096,24.4101945274304,0 79.790859209056,24.4101926659617,0 79.7908606806411,24.4101907315192,0 79.7908620399528,24.4101887293771,0 79.7908632832852,24.4101866649938,0 79.7908644072484,24.4101845439977,0 79.7908654087783,24.4101823721713,0 79.7908699359388,24.4101717923905,0 79.7908769354282,24.4101787918815,0 79.7908787612763,24.4101805227653,0 79.790880685244,24.410182162109,0 79.7908827018654,24.4101837052554,0 79.7908848054116,24.4101851478208,0 79.7908869899068,24.4101864857069,0 79.7908892491452,24.4101877151131,0 79.7908915767085,24.4101888325467,0 79.7908939659846,24.4101898348333,0 79.7908964101858,24.4101907191257,0 79.7908989023684,24.4101914829115,0 79.7909014354527,24.4101921240211,0 79.7909040022424,24.410192640633,0 79.7909065954457,24.4101930312798,0 79.7909092076957,24.4101932948516,0 79.7909118315713,24.4101934305997,0 79.7909144596185,24.4101934381383,0 79.7909170843714,24.4101933174462,0 79.7909196983734,24.4101930688661,0 79.7909222941986,24.4101926931043,0 79.7909398648011,24.4101897081378,0 79.7909565154931,24.4101921196173,0 79.7909872888864,24.4102014583642,0 79.7909889604543,24.4102019356411,0 79.7910128604616,24.4102083356436,0 79.7910142421583,24.4102086857537,0 79.7911589422036,24.4102432857673,0 79.7911614556996,24.4102438228495,0 79.7911639964437,24.4102442387581,0 79.7911665574741,24.4102445323536,0 79.7911691317733,24.4102447028313,0 79.7911717122877,24.4102447497243,0 79.7911742919464,24.410244672904,0 79.7911768636809,24.4102444725808,0 79.7911794204445,24.4102441493038,0 79.7911819552316,24.4102437039586,0 79.7911844610966,24.4102431377657,0 79.7911869311734,24.4102424522763,0 79.7911893586936,24.4102416493687,0 79.7911917370058,24.4102407312431,0 79.7911940595931,24.4102397004151,0 79.7911963200916,24.4102385597093,0 79.7911985123074,24.4102373122512,0 79.7912006302335,24.4102359614591,0 79.7912026680668,24.4102345110341,0 79.7912046202235,24.4102329649505,0 79.7912064813544,24.4102313274447,0 79.79120824636,24.4102296030035,0 79.7912099104041,24.4102277963522,0 79.7912114689271,24.410225912441,0 79.7912129176584,24.4102239564319,0 79.7912142526285,24.4102219336845,0 79.7912154701795,24.4102198497414,0 79.7912165669752,24.4102177103127,0 79.7912175400104,24.4102155212605,0 79.7912183866188,24.410213288583,0 79.7912191044807,24.4102110183979,0 79.7912196916291,24.4102087169256,0 79.7912201464552,24.4102063904724,0 79.7912204677127,24.4102040454128,0 79.7912206545214,24.4102016881726,0 79.7912207063695,24.4101993252106,0 79.7912206231148,24.4101969630016,0 79.7912204049855,24.4101946080181,0 79.7912200525792,24.4101922667131,0 79.7912195668618,24.4101899455017,0 79.7912189491639,24.4101876507444,0 79.7912182011782,24.4101853887288,0 79.7912173249541,24.410183165653,0 79.7912163228928,24.4101809876085,0 79.7912151977397,24.4101788605632,0 79.7912139525779,24.4101767903453,0 79.7912125908194,24.4101747826274,0 79.7912111161953,24.4101728429108,0 79.7912095327462,24.4101709765104,0 79.791207844811,24.4101691885402,0 79.7912060570146,24.4101674838995,0 79.7912041742558,24.410165867259,0 79.7912022016934,24.4101643430484,0 79.7912001447324,24.4101629154443,0 79.791198009009,24.4101615883582,0 79.7911958003751,24.4101603654265,0 79.7911935248827,24.4101592500002,0 79.7911911887667,24.4101582451355,0 79.7910907276502,24.4101179366725,0 79.7910807659219,24.4101045966244,0 79.791131041177,24.4101083048675,0 79.7911336066501,24.4101084325992,0 79.7911361759063,24.4101084377886,0 79.7911387419697,24.4101083204216,0 79.7911412978731,24.4101080808169,0 79.7911438366768,24.4101077196251,0 79.7911463514874,24.4101072378269,0 79.7911488354769,24.4101066367304,0 79.7911512819008,24.4101059179676,0 79.7911536841167,24.4101050834903,0 79.7911560356022,24.410104135564,0 79.7911583299726,24.4101030767626,0 79.7911605609984,24.4101019099609,0 79.7911627226218,24.410100638327,0 79.7911648089739,24.4100992653134,0 79.7911668143897,24.4100977946483,0 79.7911687334244,24.4100962303247,0 79.7911705608673,24.4100945765899,0 79.7911722917566,24.4100928379342,0 79.7911739213928,24.4100910190782,0 79.7911754453512,24.4100891249605,0 79.7911768594938,24.4100871607239,0 79.7911781599812,24.4100851317016,0 79.7911793432823,24.4100830434028,0 79.7911804061841,24.4100809014974,0 79.7911813458009,24.4100787118012,0 79.7911821595813,24.4100764802595,0 79.7911828453159,24.4100742129313,0 79.7911834011427,24.4100719159727,0 79.7911838255527,24.4100695956204,0 79.7911841173935,24.4100672581746,0 79.7911842758726,24.4100649099816,0 79.7911843005599,24.4100625574173,0 79.7911841913882,24.4100602068693,0 79.7911839486541,24.4100578647197,0 79.7911835730165,24.4100555373277,0 79.7911830654954,24.4100532310126,0 79.7911824274689,24.4100509520365,0 79.7911816606692,24.4100487065871,0 79.7911807671783,24.4100465007611,0 79.7911797494224,24.4100443405478,0 79.7911786101646,24.4100422318125,0 79.7911773524982,24.4100401802806,0 79.7911759798381,24.4100381915225,0 79.7911744959113,24.410036270938,0 79.7911729047468,24.4100344237417,0 79.7911712106649,24.410032654949,0 79.7911694182654,24.4100309693626,0 79.7911675324148,24.410029371559,0 79.7911655582335,24.4100278658765,0 79.7911635010819,24.4100264564034,0 79.7911613665453,24.4100251469665,0 79.7911591604193,24.4100239411211,0 79.7911568886941,24.4100228421415,0 79.7910651887149,24.4099812421554,0 79.7910628052554,24.4099802323616,0 79.7910603664625,24.4099793402052,0 79.7910578792547,24.4099785682172,0 79.7910553506877,24.4099779185875,0 79.7910527879348,24.4099773931591,0 79.791050198266,24.4099769934226,0 79.791047589028,24.4099767205118,0 79.7910449676226,24.4099765752011,0 79.7910423414864,24.4099765579026,0 79.7910397180694,24.4099766686654,0 79.7910371048138,24.4099769071754,0 79.791034509133,24.4099772727558,0 79.7910319383905,24.4099777643696,0 79.7910293998792,24.4099783806221,0 79.7910269008004,24.4099791197652,0 79.7910244482437,24.409979979702,0 79.7910220491665,24.4099809579929,0 79.7910197103746,24.4099820518629,0 79.791017438503,24.4099832582085,0 79.7910152399964,24.4099845736078,0 79.7910131210918,24.4099859943291,0 79.7910110878002,24.4099875163419,0 79.7910091458897,24.4099891353287,0 79.7910073008692,24.4099908466965,0 79.7910055579728,24.4099926455905,0 79.7909970505428,24.4100019121448,0 79.7909862183375,24.4099962271573,0 79.7909839713289,24.4099951176274,0 79.7909816646188,24.4099941160804,0 79.7909793043905,24.4099932252013,0 79.7909768969711,24.409992447378,0 79.7909744488139,24.4099917846957,0 79.7909719664816,24.4099912389308,0 79.7909694566285,24.4099908115463,0 79.7909669259826,24.4099905036878,0 79.7909643813277,24.4099903161807,0 79.790961829485,24.4099902495275,0 79.7909592772953,24.4099903039069,0 79.7909567316001,24.4099904791733,0 79.7909541992233,24.4099907748566,0 79.7909516869535,24.4099911901644,0 79.7909492015251,24.4099917239833,0 79.7909467496008,24.4099923748823,0 79.7909443377533,24.4099931411166,0 79.7909419724478,24.4099940206322,0 79.790939660025,24.4099950110714,0 79.7909374066836,24.4099961097793,0 79.7909357764348,24.4099970067964,0 79.7909348618972,24.4099960130695,0 79.7909331028458,24.4099942925505,0 79.7909312481457,24.4099926584284,0 79.7909293028507,24.4099911151558,0 79.7909272722613,24.4099896669379,0 79.7909251619106,24.4099883177208,0 79.7909229775488,24.4099870711808,0 79.7909207251279,24.4099859307145,0 79.7909184107854,24.4099848994296,0 79.7909160408273,24.409983980136,0 79.7909136217114,24.4099831753386,0 79.7909111600293,24.4099824872304,0 79.7909086624886,24.4099819176863,0 79.7909061358947,24.4099814682583,0 79.790903587132,24.4099811401708,0 79.7909010231455,24.409980934318,0 79.7908984509214,24.4099808512607,0 79.7908958774687,24.4099808912253,0 79.7908933097994,24.4099810541027,0 79.7908853098023,24.4099817541026,0 79.7908828312394,24.4099820291225,0 79.7908803710568,24.4099824186763,0 79.7908779355624,24.4099829217652,0 79.7908755310006,24.4099835370993,0 79.7908731635365,24.409984263101,0 79.7908708392403,24.4099850979088,0 79.7908685640713,24.4099860393823,0 79.7908663438629,24.4099870851076,0 79.7908658196813,24.4099873635869,0 79.7908577824779,24.4099306536839,0 79.7908699639472,24.4099186897356,0 79.7908716523963,24.4099169430742,0 79.7908732400781,24.4099151188922,0 79.7908747227547,24.4099132220585,0 79.7908760964688,24.4099112576362,0 79.7908773575537,24.4099092308687,0 79.7908785026433,24.4099071471655,0 79.7908795286812,24.4099050120886,0 79.7908804329287,24.4099028313368,0 79.7908812129723,24.4099006107309,0 79.7908818667299,24.4098983561979,0 79.7908823924565,24.4098960737557,0 79.7908827671699,24.4098938949689,0 79.7908844050482,24.4098927748105,0 79.7908864390006,24.4098913060087,0 79.7908883859087,24.4098897414221,0 79.7908902403993,24.4098880853687,0 79.7908919973541,24.4098863424191,0 79.7908936519242,24.4098845173836,0 79.7908951995431,24.4098826152992,0 79.7908966359395,24.4098806414153,0 79.7908979571491,24.4098786011798,0 79.7908991595257,24.4098765002233,0 79.7909002397506,24.4098743443444,0 79.7909011948427,24.4098721394931,0 79.790902022166,24.4098698917544,0 79.7909027194372,24.4098676073319,0 79.7909032847318,24.4098652925304,0 79.7909037164898,24.4098629537385,0 79.7909040135195,24.409860597411,0 79.7909041750012,24.409858230051,0 79.7909042004893,24.4098558581924,0 79.7909040899133,24.409853488381,0 79.7909038435784,24.4098511271574,0 79.7909034621646,24.4098487810383,0 79.7909029467245,24.4098464564987,0 79.7909022986806,24.4098441599541,0 79.7909015198216,24.4098418977427,0 79.7909006122969,24.4098396761079,0 79.7908995786113,24.4098375011813,0 79.7908984216176,24.4098353789653,0 79.790897144509,24.4098333153171,0 79.7908689444992,24.4097904153245,0 79.790867542873,24.4097884052018,0 79.7908660272902,24.4097864656548,0 79.7908644019794,24.4097846020951,0 79.7908626714753,24.4097828197222,0 79.7908608406064,24.4097811235092,0 79.7908589144809,24.4097795181886,0 79.7908568984731,24.4097780082397,0 79.7908547982078,24.4097765978752,0 79.790852619545,24.4097752910303,0 79.7908503685634,24.4097740913512,0 79.7908480515437,24.4097730021853,0 79.7908456749505,24.4097720265714,0 79.7908432454148,24.4097711672315,0 79.7908407697155,24.4097704265634,0 79.7908382547598,24.4097698066336,0 79.790835707565,24.4097693091718,0 79.790833135238,24.409768935566,0 79.7908305449558,24.4097686868585,0 79.7908279439458,24.4097685637434,0 79.790825339465,24.409768566564,0 79.7908227387803,24.4097686953126,0 79.7908201491478,24.4097689496299,0 79.7908175777931,24.4097693288063,0 79.7908150318904,24.4097698317839,0 79.7908125185432,24.4097704571593,0 79.790810044764,24.4097712031877,0 79.790807617455,24.4097720677875,0 79.7908052433886,24.4097730485464,0 79.7908029291888,24.4097741427279,0 79.7908006813126,24.4097753472792,0 79.7907985060317,24.4097766588393,0 79.7907964094154,24.409778073749,0 79.7907943973136,24.4097795880604,0 79.7907924753404,24.4097811975483,0 79.7907906488581,24.4097828977222,0 79.7907889229631,24.4097846838383,0 79.7907873024706,24.4097865509132,0 79.7907857919022,24.4097884937374,0 79.7907843954724,24.4097905068903,0 79.7907831170776,24.4097925847549,0 79.7907819602845,24.4097947215337,0 79.7907809283209,24.4097969112648,0 79.7907800240659,24.4097991478386,0 79.7907792500426,24.4098014250148,0 79.7907786084106,24.4098037364398,0 79.7907781009603,24.4098060756643,0 79.7907777291073,24.4098084361618,0 79.7907774938893,24.409810811346,0 79.7907773959626,24.40981319459,0 79.7907771448964,24.409833731157,0 79.7907576663957,24.4098287888507,0 79.7907541299375,24.4098280188608,0 79.790741010795,24.4098256265469,0 79.7907400355363,24.409822478346,0 79.7907392646376,24.4098202174749,0 79.7907383653252,24.4098179967326,0 79.7907373400738,24.4098158222302,0 79.7907361917047,24.4098136999518,0 79.790734923378,24.4098116357374,0 79.7907335385841,24.4098096352674,0 79.7907320411337,24.4098077040469,0 79.7907304351475,24.4098058473902,0 79.7907287250449,24.4098040704066,0 79.7907269155318,24.4098023779861,0 79.7907250115879,24.4098007747859,0 79.7907230184524,24.4097992652177,0 79.7907209416101,24.4097978534357,0 79.7907187867762,24.4097965433249,0 79.7907165598804,24.4097953384905,0 79.7907142670508,24.4097942422479,0 79.790711914597,24.409793257614,0 79.7907095089924,24.4097923872982,0 79.7907070568569,24.4097916336955,0 79.7907045649385,24.4097909988798,0 79.7907020400945,24.4097904845978,0 79.7906994892728,24.4097900922649,0 79.790696919493,24.4097898229607,0 79.7906943378266,24.4097896774263,0 79.790691751378,24.4097896560621,0 79.7906891672646,24.4097897589269,0 79.7906865925976,24.4097899857377,0 79.7906637850725,24.4097925493748,0 79.7906627000003,24.4097925493748,0 79.7906601671299,24.4097926089859,0 79.7906576409476,24.4097927876618,0 79.790655128124,24.4097930849307,0 79.7906526352943,24.4097935000076,0 79.7906501690408,24.4097940317966,0 79.7906477358758,24.4097946788933,0 79.7906453422243,24.4097954395892,0 79.7906429944066,24.4097963118755,0 79.7906406986225,24.409797293449,0 79.7906384609339,24.4097983817178,0 79.7906362872496,24.4097995738082,0 79.7906341833092,24.4098008665725,0 79.7906321546684,24.4098022565971,0 79.7906302066839,24.4098037402116,0 79.7906283444993,24.4098053134983,0 79.7906276113781,24.4098059999941,0 79.7906018594677,24.4098068808425,0 79.7905991380899,24.4098070430358,0 79.7905964306674,24.4098073427571,0 79.7905937454826,24.4098077790896,0 79.7905910907496,24.4098083506983,0 79.7905884745896,24.4098090558348,0 79.7905859050056,24.4098098923419,0 79.7905833898584,24.4098108576607,0 79.7905132825389,24.4098398775022,0 79.7905120834632,24.4098396394068,0</coordinates></LinearRing></outerBoundaryIs></Polygon>
  </Placemark>
  
    </Document>
</kml>