<?xml version="1.0" encoding="UTF-8"?>
<kml xmlns="http://www.opengis.net/kml/2.2">
    <Document>
        <Placemark xmlns:ns0="http://www.opengis.net/kml/2.2">
	<Style><LineStyle><color>ff0000ff</color></LineStyle><PolyStyle><fill>0</fill></PolyStyle></Style>
	<ExtendedData><SchemaData schemaUrl="#Wave23_v27MAR2025">
		<SimpleData name="area(ha)">1.568456240996788</SimpleData>
		<SimpleData name="site_id">230079_2.2</SimpleData>
		<SimpleData name="Land_parc">230079</SimpleData>
		<SimpleData name="district">Panna</SimpleData>
		<SimpleData name="block">Shahnagar</SimpleData>
		<SimpleData name="village">Badagaon</SimpleData>
		<SimpleData name="Land Type">Farmer</SimpleData>
		<SimpleData name="Instance">Wave 2023</SimpleData>
	</SchemaData></ExtendedData>
      <Polygon><outerBoundaryIs><LinearRing><coordinates>79.8979373,23.9271995,0 79.8979018,23.9272075,0 79.8978778,23.9272181,0 79.8978465,23.9272295,0 79.8978199,23.9272446,0 79.8977949,23.9272559,0 79.8977641,23.9272687,0 79.8973571,23.9274007,0 79.8973175,23.9274183,0 79.89729,23.9274283,0 79.8972568,23.9274393,0 79.8972675293737,23.9275006398946,0 79.8972425911019,23.9275234349542,0 79.8971443657565,23.9275773052137,0 79.8971443321245,23.9275812646908,0 79.8971661137351,23.9276267725069,0 79.8971841289996,23.9276992274086,0 79.8972824923368,23.9280948297983,0 79.8973257186745,23.9282407174384,0 79.8973556446007,23.9283410150953,0 79.8976294585425,23.9283027949616,0 79.8976931425456,23.9282939055995,0 79.8977746075668,23.9282680713526,0 79.897874360654,23.9282559140581,0 79.8979508380208,23.9282315994657,0 79.8980472660051,23.9282361584521,0 79.8981187557175,23.9281905685807,0 79.8981619820553,23.9281768916161,0 79.898366475884,23.9280948297983,0 79.8984379655965,23.9280902708069,0 79.8985156290885,23.9280775503393,0 79.8987255869978,23.9280431612195,0 79.8987987392617,23.9280294842394,0 79.8990996610747,23.9279808549648,0 79.8992692413229,23.9279755361367,0 79.8992609285657,23.9279056315195,0 79.8992359902939,23.9277726606758,0 79.8992260149852,23.9276602052268,0 79.8990698,23.9277036,0 79.8990590310606,23.9277126716617,0 79.8990514,23.9277191,0 79.8990248462594,23.9277171927977,0 79.8989018174519,23.9277551844976,0 79.8988718915257,23.9277293501429,0 79.8987995705375,23.9277513853281,0 79.8986441219767,23.9277924163527,0 79.8985867639516,23.9278159711942,0 79.8985227557206,23.9277567041654,0 79.8985185027357,23.927738821791,0 79.8985061302061,23.9276867994297,0 79.8984257048261,23.9274371954986,0 79.8984228113292,23.9274371747563,0 79.8984228853919,23.9274284452355,0 79.8983631507812,23.9272430554424,0 79.8983264056453,23.9271655462617,0 79.8983199244434,23.9271518749821,0 79.8982836397015,23.9271652396587,0 79.8982099,23.9271924,0 79.8981852,23.9272022,0 79.898164,23.9272112,0 79.8981121055118,23.9271739102659,0 79.8980948723933,23.927163886182,0 79.8980755293798,23.9271526348196,0 79.8980221,23.9271896,0 79.8979929,23.9271866,0 79.8979638,23.9271918,0 79.8979373,23.9271995,0</coordinates></LinearRing></outerBoundaryIs><innerBoundaryIs><LinearRing><coordinates>79.8975160921251,23.9282960010846,0 79.8975142368119,23.9282332543955,0 79.8976088577874,23.9282230792538,0 79.8976162790404,23.9282739549541,0 79.8975160921251,23.9282960010846,0</coordinates></LinearRing></innerBoundaryIs></Polygon>
  </Placemark>
  
    </Document>
</kml>