<?xml version="1.0" encoding="UTF-8"?>
<kml xmlns="http://www.opengis.net/kml/2.2">
    <Document>
        <Placemark xmlns:ns0="http://www.opengis.net/kml/2.2">
	<Style><LineStyle><color>ff0000ff</color></LineStyle><PolyStyle><fill>0</fill></PolyStyle></Style>
	<ExtendedData><SchemaData schemaUrl="#Wave23_v27MAR2025">
		<SimpleData name="area(ha)">0.510590387272438</SimpleData>
		<SimpleData name="site_id">230088_1.1</SimpleData>
		<SimpleData name="Land_parc">230088</SimpleData>
		<SimpleData name="district">Damoh</SimpleData>
		<SimpleData name="block">Hatta</SimpleData>
		<SimpleData name="village">Surajpura</SimpleData>
		<SimpleData name="Land Type">Farmer</SimpleData>
		<SimpleData name="Instance">Wave 2023</SimpleData>
	</SchemaData></ExtendedData>
      <Polygon><outerBoundaryIs><LinearRing><coordinates>79.4898149,24.3862883,0 79.4897255315519,24.3862700381719,0 79.489651053147,24.3862929468809,0 79.4896407970615,24.3862900457205,0 79.4896022412391,24.3862791393467,0 79.4895399,24.3862737,0 79.4894614718549,24.3862854155467,0 79.4894497327734,24.3862741524768,0 79.4894462359314,24.386268680529,0 79.4893888731347,24.386200145031,0 79.4893419760544,24.3862199740681,0 79.4892982762711,24.3862181353834,0 79.4892258565095,24.3862176849811,0 79.4891594000001,24.3862186000001,0 79.4891484,24.3863326,0 79.489202,24.386362,0 79.4892367,24.3864069,0 79.4892616,24.3864658,0 79.4892707,24.3865304,0 79.4893003,24.3866167,0 79.4893361,24.3866565,0 79.4893366769895,24.38665737633,0 79.4893406547203,24.3866574159991,0 79.4893405846312,24.3866633112452,0 79.4893494,24.3866767,0 79.4893709,24.3866898,0 79.4893929,24.3866822,0 79.4894481,24.3866842,0 79.4895367729528,24.3867470443521,0 79.4895405294457,24.3867497066538,0 79.4895450970822,24.3867497522,0 79.4896387492737,24.3867348130471,0 79.4897172057789,24.3867277352556,0 79.4898593831475,24.386712251961,0 79.4899192898505,24.3867179873676,0 79.4900429242962,24.3867095490917,0 79.4902531758858,24.3866927061142,0 79.4902554511046,24.3866665363241,0 79.4902632948221,24.386576317005,0 79.4902668,24.386536,0 79.4902682,24.3864736,0 79.4902673,24.3864484,0 79.4902623,24.3864238,0 79.4902733413445,24.3863055246422,0 79.4902781067112,24.3862544777394,0 79.4902327481062,24.3862562476613,0 79.4901893150409,24.3862579424347,0 79.490176,24.3862409,0 79.4900486999999,24.3862795,0 79.4899484,24.3863036,0 79.4899363935004,24.3863050470394,0 79.4898870000001,24.3863109999999,0 79.4898564089228,24.386301368695,0 79.4898149,24.3862883,0</coordinates></LinearRing></outerBoundaryIs></Polygon>
  </Placemark>
  
    </Document>
</kml>