<?xml version="1.0" encoding="UTF-8"?>
<kml xmlns="http://www.opengis.net/kml/2.2">
    <Document>
        <Placemark xmlns:ns0="http://www.opengis.net/kml/2.2">
	<Style><LineStyle><color>ff0000ff</color></LineStyle><PolyStyle><fill>0</fill></PolyStyle></Style>
	<ExtendedData><SchemaData schemaUrl="#Wave23_v27MAR2025">
		<SimpleData name="area(ha)">10.297380889252318</SimpleData>
		<SimpleData name="site_id">230075_2.2</SimpleData>
		<SimpleData name="Land_parc">230075</SimpleData>
		<SimpleData name="district">Panna</SimpleData>
		<SimpleData name="block">Shahnagar</SimpleData>
		<SimpleData name="village">Bori</SimpleData>
		<SimpleData name="Land Type">Community</SimpleData>
		<SimpleData name="Instance">Wave 2023</SimpleData>
	</SchemaData></ExtendedData>
      <Polygon><outerBoundaryIs><LinearRing><coordinates>80.1269022,24.0594172,0 80.1268725,24.0594122,0 80.1266738,24.0593633,0 80.1266122,24.0593576,0 80.1265229,24.0593292,0 80.1264006,24.05928,0 80.1263001,24.0592728,0 80.1262301,24.0592525,0 80.1261677,24.0592427,0 80.1261063,24.0592666,0 80.1257381,24.0594269,0 80.1256711,24.0594357,0 80.1256206,24.0594701,0 80.1255955,24.059485,0 80.1255346,24.0595018,0 80.1254795,24.0595219,0 80.1254243,24.0595639,0 80.1253927,24.0595842,0 80.1253651,24.0595962,0 80.1253156,24.0596333,0 80.1252605,24.0596564,0 80.1252259,24.059667,0 80.1251735,24.0596724,0 80.125164,24.0596641,0 80.1251262,24.0596233,0 80.1250913,24.0596183,0 80.1250362,24.0596257,0 80.1250271,24.0597086,0 80.1249904,24.0597842,0 80.1249761,24.0597783,0 80.1249517,24.0597933,0 80.1249171,24.059843,0 80.1248641,24.0598572,0 80.1247999,24.0598781,0 80.1247341,24.0599384,0 80.1247124,24.0600486,0 80.1247235,24.0600768,0 80.1247459,24.0601994,0 80.1247673,24.060289,0 80.1247804,24.0604155,0 80.1247917,24.060477,0 80.1248039,24.0605382,0 80.1248029,24.0605995,0 80.1248027,24.0606221,0 80.1248012,24.0606756,0 80.1247954,24.0607335,0 80.1248003,24.0607899,0 80.1248142,24.0608112,0 80.1247749,24.0609021,0 80.1247929,24.0610007,0 80.1248093,24.0610383,0 80.1247623,24.0610907,0 80.1246747,24.0610917,0 80.1246597,24.0610929,0 80.1247642,24.0612481,0 80.1247826,24.0613548,0 80.1247945,24.0613797,0 80.1247993,24.0613976,0 80.1247985,24.0614276,0 80.1247766,24.0614709,0 80.1247863,24.0615012,0 80.1248087,24.0615761,0 80.1248147,24.0615942,0 80.1248307,24.0616488,0 80.1248381,24.0616765,0 80.1248254,24.0617527,0 80.124836,24.061856,0 80.1248383,24.0619062,0 80.1248354,24.0619328,0 80.1248205,24.0619767,0 80.1248369,24.0620705,0 80.1248318,24.0621197,0 80.124827,24.0621501,0 80.1248365,24.0622042,0 80.1248527,24.0622963,0 80.1248814,24.0623627,0 80.1248875,24.0623908,0 80.1248733,24.0623932,0 80.1248683,24.0624382,0 80.1249046,24.0624614,0 80.1249052,24.0626324,0 80.1249534,24.0627564,0 80.1249325,24.0630078,0 80.1249552,24.0630743,0 80.1249473,24.0631156,0 80.1250445090237,24.0633483915073,0 80.125019,24.0635542,0 80.1250131,24.0636283,0 80.1252341,24.0637799,0 80.1252883,24.0637488,0 80.1253664,24.0637457,0 80.1255653,24.0638266,0 80.1256223,24.0638058,0 80.1256908,24.0637675,0 80.1256949,24.0637149,0 80.1257015,24.0636543,0 80.1257205,24.0636038,0 80.1257552,24.0635631,0 80.125776,24.0635186,0 80.1258143,24.0634519,0 80.1258247,24.0634061,0 80.1258616,24.0633396,0 80.1258785,24.0632924,0 80.1259122,24.0632292,0 80.1259304,24.0632086,0 80.1259441,24.0631603,0 80.1259991,24.0630772,0 80.1260512,24.0630495,0 80.1261097,24.0630225,0 80.1261222,24.0630016,0 80.1261525,24.062967,0 80.1261521,24.0629426,0 80.1261754,24.0628979,0 80.1262079,24.0628608,0 80.1262742,24.062823,0 80.1263004,24.0627801,0 80.1263032,24.0627521,0 80.1263007,24.0627338,0 80.1263171,24.0627083,0 80.1263447,24.0626556,0 80.126367,24.0626093,0 80.1263917,24.0625676,0 80.126435,24.0625056,0 80.1265127,24.062396,0 80.1266312,24.0623127,0 80.1267049,24.0622505,0 80.1267372,24.0622181,0 80.1267703,24.0621507,0 80.1268289,24.0621092,0 80.1268754,24.0620872,0 80.126939,24.0620406,0 80.1269833,24.0620193,0 80.1270935,24.0619916,0 80.1271514,24.0619793,0 80.1272004,24.0619568,0 80.1273051,24.0619192,0 80.1273458,24.0618993,0 80.1273927,24.0618878,0 80.1274699,24.0619025,0 80.1275532,24.0618877,0 80.1276352,24.0618903,0 80.1276943,24.061897,0 80.1277458,24.0619073,0 80.1278268,24.0619127,0 80.1279122,24.0619235,0 80.1279385,24.0618933,0 80.1279345,24.0618301,0 80.1279205,24.0617763,0 80.1278738,24.0616603,0 80.1278638,24.061606,0 80.1278547,24.0615468,0 80.1278304,24.0614691,0 80.1277696,24.0613652,0 80.1277529,24.061311,0 80.1277051,24.0612017,0 80.1276753,24.0611101,0 80.1276475,24.0610437,0 80.1276252,24.0609917,0 80.1275835,24.0609098,0 80.1275372,24.0608261,0 80.1274357,24.0605721,0 80.1273943,24.0604781,0 80.1273647,24.0604008,0 80.1272683,24.0601905,0 80.127249,24.060133,0 80.1272396,24.0600393,0 80.1272371,24.0600155,0 80.1272523,24.0596062,0 80.12721,24.0594874,0 80.1269022,24.0594172,0</coordinates></LinearRing></outerBoundaryIs></Polygon>
  </Placemark>

    </Document>
</kml>