<?xml version="1.0" encoding="UTF-8"?>
<kml xmlns="http://www.opengis.net/kml/2.2">
    <Document>
        <Placemark xmlns:ns0="http://www.opengis.net/kml/2.2">
	<Style><LineStyle><color>ff0000ff</color></LineStyle><PolyStyle><fill>0</fill></PolyStyle></Style>
	<ExtendedData><SchemaData schemaUrl="#Wave23_v27MAR2025">
		<SimpleData name="area(ha)">0.818028303174040</SimpleData>
		<SimpleData name="site_id">230094_1.1</SimpleData>
		<SimpleData name="Land_parc">230094</SimpleData>
		<SimpleData name="district">Damoh</SimpleData>
		<SimpleData name="block">Hatta</SimpleData>
		<SimpleData name="village">Surajpura</SimpleData>
		<SimpleData name="Land Type">Farmer</SimpleData>
		<SimpleData name="Instance">Wave 2023</SimpleData>
	</SchemaData></ExtendedData>
      <Polygon><outerBoundaryIs><LinearRing><coordinates>79.4935060004672,24.3875157039702,0 79.4935396340849,24.3874273691338,0 79.4935464664634,24.3873842393903,0 79.4935902210977,24.3873487830488,0 79.4936633969513,24.3873510462196,0 79.4936890462196,24.3874129062195,0 79.4936953461999,24.3874541424533,0 79.4937011,24.3874531000001,0 79.4937854,24.3873759000001,0 79.4938134,24.3873045000001,0 79.4938093000001,24.3872165000001,0 79.4938175,24.3871441000001,0 79.4938534000001,24.3870454999999,0 79.4938720284645,24.3869825721498,0 79.493872136801,24.3869734325889,0 79.493874726415,24.3869734583374,0 79.4938780000001,24.3869624,0 79.4938947,24.3868724,0 79.4939279000001,24.3867796,0 79.4938991,24.3867018999999,0 79.4938136000001,24.3866668000001,0 79.4937506,24.3866257,0 79.4936788690521,24.3866430495659,0 79.4936522,24.3866495,0 79.4936263,24.3866522000001,0 79.4935322000001,24.3866465,0 79.4935063,24.3866432000001,0 79.4934856000001,24.3866396000001,0 79.4933827969871,24.3866680290261,0 79.4933735000001,24.3866706,0 79.4932661000001,24.3866805000001,0 79.4931273999999,24.3866803000001,0 79.4929977,24.3866833,0 79.4929881676508,24.3866900741853,0 79.4929881240828,24.3866937475904,0 79.4929830693519,24.3866936973021,0 79.4929348,24.386728,0 79.4929359941385,24.3868249242362,0 79.492945217439,24.3868493767072,0 79.4929421679527,24.3869931390849,0 79.4929403290162,24.3870798323307,0 79.4929708667073,24.387086255244,0 79.4929919896342,24.3871088869513,0 79.492994252805,24.3871428345121,0 79.4929708667073,24.3871715013416,0 79.4929497239453,24.3871842750938,0 79.4929537000002,24.3872245,0 79.4929507000001,24.3873144,0 79.4929431,24.3874103000001,0 79.4929720000001,24.3875049000001,0 79.492991134448,24.3875064556263,0 79.4930367665876,24.387510165499,0 79.4931369830791,24.3875194365359,0 79.493175546459,24.3875168792356,0 79.493211216466,24.3875145137981,0 79.4933033352688,24.3875250106027,0 79.49340321578,24.3875225202598,0 79.4934713110119,24.3875180044509,0 79.4935060004672,24.3875157039702,0</coordinates></LinearRing></outerBoundaryIs></Polygon>
  </Placemark>
  
    </Document>
</kml>