<?xml version="1.0" encoding="UTF-8"?>
<kml xmlns="http://www.opengis.net/kml/2.2">
    <Document>
        <Placemark xmlns:ns0="http://www.opengis.net/kml/2.2">
	<Style><LineStyle><color>ff0000ff</color></LineStyle><PolyStyle><fill>0</fill></PolyStyle></Style>
	<ExtendedData><SchemaData schemaUrl="#Wave23_v27MAR2025">
		<SimpleData name="area(ha)">1.758724501097275</SimpleData>
		<SimpleData name="site_id">230058_1.1</SimpleData>
		<SimpleData name="Land_parc">230058</SimpleData>
		<SimpleData name="district">Chhatarpur</SimpleData>
		<SimpleData name="block">Bijawar</SimpleData>
		<SimpleData name="village">Surai</SimpleData>
		<SimpleData name="Land Type">Farmer</SimpleData>
		<SimpleData name="Instance">Wave 2023</SimpleData>
	</SchemaData></ExtendedData>
      <Polygon><outerBoundaryIs><LinearRing><coordinates>79.7202575664065,24.4404835672585,0 79.720329656274,24.4404948827763,0 79.7204564350065,24.4404722517398,0 79.720595748509,24.4404448963354,0 79.7205957929525,24.4404404931959,0 79.7206172481027,24.4404406746926,0 79.7206945844839,24.4404254889558,0 79.7207099924714,24.4404224634451,0 79.7208840024963,24.4404541469076,0 79.72095189191,24.4405338079258,0 79.7209889727177,24.4405773182627,0 79.7209958660838,24.4405854068817,0 79.7210753499938,24.4406251547307,0 79.7210871292658,24.4406252543393,0 79.7210870711301,24.4406310161625,0 79.7211723619662,24.4406736678219,0 79.7211988246582,24.4408068043394,0 79.7212195932587,24.440911293123,0 79.7212444518337,24.4410561311821,0 79.7212593669787,24.4411964428931,0 79.7212825779258,24.4413123921815,0 79.7213563154212,24.4416807434056,0 79.7215402688761,24.441762214337,0 79.7217117930436,24.4417644774177,0 79.7218609444935,24.441784845142,0 79.7219504353635,24.4417644774177,0 79.7219404919335,24.441662638747,0 79.721936843243,24.4416257678215,0 79.7219156333585,24.4414114363409,0 79.7218225161487,24.4410424261927,0 79.721802216106,24.4408778261954,0 79.7217863687685,24.4407008250218,0 79.7217590243361,24.4405107244994,0 79.7217316799036,24.4403817275531,0 79.7217043354711,24.4402549935826,0 79.7217142789011,24.4401554168021,0 79.7216471607486,24.4401214701544,0 79.7214532638637,24.4400422612742,0 79.7212469376912,24.4399313687583,0 79.7211002720988,24.439886106479,0 79.7209891,24.4399588,0 79.7209030696192,24.4399915784727,0 79.7208591439213,24.440008314596,0 79.7207273934739,24.4400151039324,0 79.7206000437965,24.4400193456171,0 79.7205235531589,24.4400218932684,0 79.7205087683542,24.439988243244,0 79.720488751154,24.4399426843257,0 79.7204116895715,24.439872527792,0 79.7203321421315,24.4398295286069,0 79.7202426512615,24.4397571088935,0 79.720105929099,24.4397141096691,0 79.7201481886765,24.4400694186101,0 79.7201805048241,24.440250467367,0 79.7202575664065,24.4404835672585,0</coordinates></LinearRing></outerBoundaryIs><innerBoundaryIs><LinearRing><coordinates>79.7216193920747,24.4415933037799,0 79.721570518121,24.4415981139567,0 79.7215091690839,24.4416041519087,0 79.7214936445848,24.4415317190057,0 79.7214853370859,24.4414929585444,0 79.7215714400531,24.4415067106357,0 79.7216551400717,24.4415200788862,0 79.7216193920747,24.4415933037799,0</coordinates></LinearRing></innerBoundaryIs></Polygon>
  </Placemark>
  
    </Document>
</kml>