<?xml version="1.0" encoding="UTF-8"?>
<kml xmlns="http://www.opengis.net/kml/2.2">
    <Document>
        <Placemark xmlns:ns0="http://www.opengis.net/kml/2.2">
	<Style><LineStyle><color>ff0000ff</color></LineStyle><PolyStyle><fill>0</fill></PolyStyle></Style>
	<ExtendedData><SchemaData schemaUrl="#Wave23_v27MAR2025">
		<SimpleData name="area(ha)">1.694975063099188</SimpleData>
		<SimpleData name="site_id">230084_3.6</SimpleData>
		<SimpleData name="Land_parc">230084</SimpleData>
		<SimpleData name="district">Damoh</SimpleData>
		<SimpleData name="block">Batyagarh</SimpleData>
		<SimpleData name="village">Achalpura</SimpleData>
		<SimpleData name="Land Type">Community</SimpleData>
		<SimpleData name="Instance">Wave 2023</SimpleData>
	</SchemaData></ExtendedData>
      <Polygon><outerBoundaryIs><LinearRing><coordinates>79.5389424,24.2625397,0 79.5392269,24.2626551,0 79.53935,24.2626587,0 79.5393804,24.2626628,0 79.5394489,24.2627017,0 79.5395425,24.2626411,0 79.5395705,24.2626268,0 79.5395807,24.2626013,0 79.539628,24.2625967,0 79.539677,24.2625735,0 79.5397252,24.2625518,0 79.5397737,24.2625153,0 79.5398564,24.2625103,0 79.5398882,24.2625331,0 79.5399015,24.2625606,0 79.5399368,24.2626191,0 79.5399956,24.2626521,0 79.5400676,24.2626562,0 79.5401523,24.262565,0 79.5402144,24.2625294,0 79.5402426,24.2625322,0 79.5402739,24.2625356,0 79.5403333,24.2625304,0 79.5403612,24.262524,0 79.5403957,24.2625139,0 79.5404278,24.2625077,0 79.5404762,24.2624754,0 79.5404996,24.2624553,0 79.5405116,24.2624344,0 79.5405491,24.2623934,0 79.5405885,24.2623536,0 79.5406456,24.2623248,0 79.5406821,24.2622711,0 79.5407112,24.2622132,0 79.5407077,24.262149,0 79.5407039,24.262121,0 79.5407112,24.2620951,0 79.5407054,24.2620667,0 79.5406994,24.2620363,0 79.5406937,24.2620074,0 79.5406631,24.2619575,0 79.5406418,24.2619308,0 79.5406201,24.2619084,0 79.5405973,24.2618793,0 79.5405424,24.2618442,0 79.5405099,24.2618392,0 79.5404861,24.2618259,0 79.5404547,24.2618257,0 79.540428,24.2618163,0 79.540381,24.2617774,0 79.5403642,24.2617574,0 79.5403389,24.2617371,0 79.5403105,24.2617221,0 79.5402798,24.2617153,0 79.5402505,24.2617046,0 79.5402246,24.2616854,0 79.5401943,24.2616689,0 79.5401659,24.2616577,0 79.540139,24.2616466,0 79.5401079,24.2616361,0 79.5400843,24.2616252,0 79.5400521,24.2616076,0 79.540036,24.2615968,0 79.5400006,24.2615852,0 79.539985,24.2615702,0 79.5399234,24.2615418,0 79.5398769,24.2614913,0 79.5398473,24.2614774,0 79.5398168,24.2614586,0 79.5397834,24.2614552,0 79.5397448,24.2614356,0 79.5396768,24.2614242,0 79.5396225,24.2614145,0 79.5395434,24.2614437,0 79.539498,24.261453,0 79.5394511537014,24.2614581300524,0 79.5392778485953,24.2617618606508,0 79.5391526,24.2619545,0 79.5391011,24.2620438,0 79.5390397774057,24.2621437572119,0 79.5389584848044,24.262278202668,0 79.5389424,24.2625397,0</coordinates></LinearRing></outerBoundaryIs></Polygon>
  </Placemark>
  
    </Document>
</kml>