<?xml version="1.0" encoding="UTF-8"?>
<kml xmlns="http://www.opengis.net/kml/2.2">
    <Document>
        <Placemark xmlns:ns0="http://www.opengis.net/kml/2.2">
	<Style><LineStyle><color>ff0000ff</color></LineStyle><PolyStyle><fill>0</fill></PolyStyle></Style>
	<ExtendedData><SchemaData schemaUrl="#Wave23_v27MAR2025">
		<SimpleData name="area(ha)">0.351914247774475</SimpleData>
		<SimpleData name="site_id">230014_1.1</SimpleData>
		<SimpleData name="Land_parc">230014</SimpleData>
		<SimpleData name="district">Chhatarpur</SimpleData>
		<SimpleData name="block">Bijawar</SimpleData>
		<SimpleData name="village">Matipura</SimpleData>
		<SimpleData name="Land Type">Farmer</SimpleData>
		<SimpleData name="Instance">Wave 2023</SimpleData>
	</SchemaData></ExtendedData>
      <Polygon><outerBoundaryIs><LinearRing><coordinates>79.672993,24.455147,0 79.6729802,24.4551659,0 79.6729627,24.4551945,0 79.6729491,24.4552129,0 79.6729213,24.4552294,0 79.6728889,24.4552367,0 79.6728497,24.4552466,0 79.6728278,24.4552537,0 79.6727935,24.4552728,0 79.672767,24.4552867,0 79.6727523759443,24.4552891568419,0 79.672742,24.4552909,0 79.672712,24.455291,0 79.6726900765583,24.4552886098507,0 79.6726831882604,24.4552885493696,0 79.6726539,24.4552945,0 79.6726361,24.4553125,0 79.6726212,24.4553264,0 79.6725996307527,24.4553339783853,0 79.6725879,24.4553381,0 79.6725636,24.4553539,0 79.6725416,24.4553748,0 79.6724914,24.4553967,0 79.672471,24.4554105,0 79.6724653,24.4554191,0 79.6724657,24.4554313,0 79.6724795,24.4554642,0 79.6724791909292,24.4554673609515,0 79.6724773,24.4554867,0 79.6724758,24.4554997,0 79.6725045120984,24.4555439620997,0 79.6725818,24.4556272,0 79.6725965445036,24.455628475967,0 79.6726026,24.455629,0 79.6726243200496,24.4556307642206,0 79.6727007281818,24.4556969786187,0 79.6727243,24.4557011,0 79.6727382,24.4557211,0 79.6727618,24.4557394,0 79.6727679,24.4557524,0 79.6727884,24.4557842,0 79.6728046,24.4558015,0 79.6728229,24.4558234,0 79.6728302061006,24.4558316488244,0 79.6728415,24.4558444,0 79.6728544,24.4558637,0 79.6728687,24.4558821,0 79.6728766,24.4558918,0 79.6728896557027,24.4558996143622,0 79.6728903,24.4559,0 79.6729029,24.455905,0 79.6729105,24.4559054,0 79.6729205,24.4559134,0 79.6729252,24.4559172,0 79.6729286614405,24.4559228146208,0 79.6729379,24.4559378,0 79.6729492,24.4559502,0 79.6729574,24.4559591,0 79.6729667,24.4559625,0 79.6729879,24.4559653,0 79.6730057,24.4559617,0 79.6730214,24.4559555,0 79.6730317,24.4559521,0 79.6730447,24.4559649,0 79.6730539,24.4559695,0 79.6730748,24.4559836,0 79.6730933,24.4559865,0 79.6731149,24.4559893,0 79.6731357,24.4559913,0 79.67317,24.4559891,0 79.6731847576026,24.455980835743,0 79.67319,24.4559779,0 79.6732256,24.455955,0 79.6732427,24.4559419,0 79.6732499,24.4559199,0 79.6732544,24.4558972,0 79.6732505,24.4558815,0 79.6732369,24.4558628,0 79.673209773755,24.4558349807488,0 79.6732095,24.4558347,0 79.6731896,24.4558102,0 79.673173,24.455796,0 79.6731596,24.4557822,0 79.6731611,24.4557615,0 79.6731646544197,24.4557442832818,0 79.6731675,24.4557305,0 79.6731679,24.455714,0 79.6731641,24.4556907,0 79.6731595,24.4556879,0 79.6731466,24.4556819,0 79.6731264,24.4556779,0 79.6731061,24.4556709,0 79.6730893368911,24.4556724874162,0 79.6730797,24.4556734,0 79.6730628,24.4556565,0 79.6730434,24.4556417,0 79.6730343,24.4556251,0 79.6730222,24.4556058,0 79.6730143,24.4555787,0 79.6730044608103,24.4555622742458,0 79.6730022,24.4555585,0 79.6730123,24.4555371,0 79.6730154,24.4554872,0 79.6730172,24.4554609,0 79.6730197,24.4554362,0 79.6730197,24.4554191,0 79.6730362,24.4553853,0 79.6730374323339,24.4553819607733,0 79.6730455,24.4553601,0 79.6730556,24.4553387,0 79.6730637,24.4553247,0 79.6730462,24.4553043,0 79.6730294,24.4552887,0 79.6730163,24.4552663,0 79.6730089,24.4552474,0 79.6729996,24.4552241,0 79.6729954414069,24.4552185942572,0 79.6729925,24.4552147,0 79.6729862,24.4552122,0 79.6729835,24.4552113,0 79.672993,24.455147,0</coordinates></LinearRing></outerBoundaryIs></Polygon>
  </Placemark>
  
    </Document>
</kml>