<?xml version="1.0" encoding="UTF-8"?>
<kml xmlns="http://www.opengis.net/kml/2.2">
    <Document>
        <Placemark xmlns:ns0="http://www.opengis.net/kml/2.2">
	<Style><LineStyle><color>ff0000ff</color></LineStyle><PolyStyle><fill>0</fill></PolyStyle></Style>
	<ExtendedData><SchemaData schemaUrl="#Wave23_v27MAR2025">
		<SimpleData name="area(ha)">0.204668613249774</SimpleData>
		<SimpleData name="site_id">230024_1.1</SimpleData>
		<SimpleData name="Land_parc">230024</SimpleData>
		<SimpleData name="district">Chhatarpur</SimpleData>
		<SimpleData name="block">Bijawar</SimpleData>
		<SimpleData name="village">Matipura</SimpleData>
		<SimpleData name="Land Type">Farmer</SimpleData>
		<SimpleData name="Instance">Wave 2023</SimpleData>
	</SchemaData></ExtendedData>
      <Polygon><outerBoundaryIs><LinearRing><coordinates>79.6891447,24.4457377,0 79.6890684,24.4456273,0 79.6890293,24.4456124,0 79.6889077,24.445668,0 79.6888482,24.4456979,0 79.6887787439404,24.4457634118809,0 79.688778709769,24.4457667143486,0 79.6887753216303,24.4457666849691,0 79.6887246,24.4458179,0 79.6887729,24.4459255,0 79.6887764614819,24.4459472987274,0 79.6887768411734,24.4459473020198,0 79.6887768185907,24.4459494844793,0 79.6887787,24.445961,0 79.6887970008515,24.4460377787659,0 79.6888089,24.4460877,0 79.6888359,24.4461434,0 79.6889004940824,24.4461462431007,0 79.688953135843,24.4461294345059,0 79.689071277953,24.4460917114648,0 79.6891075069426,24.4460801434437,0 79.6891703678997,24.4460485707337,0 79.6891704460426,24.4460410165323,0 79.6891851543729,24.4460411440345,0 79.6891971095238,24.4460351394021,0 79.6892820774888,24.4460182628824,0 79.6891724,24.4458492,0 79.6891447,24.4457377,0</coordinates></LinearRing></outerBoundaryIs></Polygon>
  </Placemark>
  
    </Document>
</kml>