<?xml version="1.0" encoding="UTF-8"?>
<kml xmlns="http://www.opengis.net/kml/2.2">
    <Document>
        <Placemark xmlns:ns0="http://www.opengis.net/kml/2.2">
	<Style><LineStyle><color>ff0000ff</color></LineStyle><PolyStyle><fill>0</fill></PolyStyle></Style>
	<ExtendedData><SchemaData schemaUrl="#Wave23_v27MAR2025">
		<SimpleData name="area(ha)">8.971777284078122</SimpleData>
		<SimpleData name="site_id">230075_1.2</SimpleData>
		<SimpleData name="Land_parc">230075</SimpleData>
		<SimpleData name="district">Panna</SimpleData>
		<SimpleData name="block">Shahnagar</SimpleData>
		<SimpleData name="village">Bori</SimpleData>
		<SimpleData name="Land Type">Community</SimpleData>
		<SimpleData name="Instance">Wave 2023</SimpleData>
	</SchemaData></ExtendedData>
      <Polygon><outerBoundaryIs><LinearRing><coordinates>80.1236898096415,24.0480258196748,0 80.1236624864096,24.0481043739664,0 80.1236112553498,24.0481214509863,0 80.12357710131,24.0481504819202,0 80.1235566088861,24.0481760974501,0 80.1234951316144,24.0482307439138,0 80.1234029157068,24.0482888057816,0 80.123318,24.0482925,0 80.1232945,24.048308,0 80.1232422,24.0483307,0 80.1231761,24.0483568,0 80.1231178,24.0483824,0 80.1230891,24.0483936,0 80.1230628,24.0484081,0 80.1230379,24.0484266,0 80.1229865,24.048448,0 80.1229469,24.0484514,0 80.1229053,24.048469,0 80.1227995,24.0484725,0 80.1227402,24.0484742,0 80.1226949,24.0484989,0 80.1226566,24.0485516,0 80.1225482108596,24.0486598040393,0 80.1224952720979,24.048734942927,0 80.1225021029058,24.0487861739868,0 80.1225157645218,24.0488544820665,0 80.1225157645218,24.0489432825701,0 80.1225430877536,24.0489706058019,0 80.1225191799257,24.0490269599677,0 80.1224813,24.04908,0 80.1224719,24.049103,0 80.1224946,24.0491312,0 80.1225092,24.0492243,0 80.122538,24.0492592,0 80.1225356,24.049279,0 80.1225389,24.0493136,0 80.122544,24.0493215,0 80.1225705,24.0494666,0 80.1225971,24.049517,0 80.1226298,24.0495628,0 80.1226231,24.0495806,0 80.1225927,24.0496596,0 80.1225803,24.0497104,0 80.1225852,24.049729,0 80.1226166,24.0497916,0 80.1226221,24.0498051,0 80.1225912,24.0498712,0 80.1225988,24.0499087,0 80.1226334,24.0499622,0 80.1226456,24.0500243,0 80.1226603,24.0500501,0 80.1226631,24.0500745,0 80.1226724,24.0501085,0 80.1227268,24.0501286,0 80.1227483,24.0501681,0 80.1227442,24.0502201,0 80.1226099,24.0503581,0 80.1226144,24.0503995,0 80.1226196,24.0504268,0 80.1226243,24.0504723,0 80.122617,24.0505218,0 80.1226842,24.0506109,0 80.1226397,24.0506238,0 80.1225636,24.0506383,0 80.1224996,24.0506604,0 80.1224719,24.0506703,0 80.1223864,24.050707,0 80.1223572,24.0507144,0 80.1223349,24.0507197,0 80.1222662,24.0507965,0 80.122243,24.0508661,0 80.1222351,24.0508986,0 80.122218,24.0509319,0 80.122198,24.0509925,0 80.122183,24.0510236,0 80.1221706,24.0510623,0 80.1221526,24.0510932,0 80.1220926,24.0511475,0 80.1220432,24.0511549,0 80.1220135,24.0511626,0 80.1219984,24.0511588,0 80.1219786922453,24.0511867760622,0 80.1219701537354,24.051231176314,0 80.1219906461593,24.0512516687379,0 80.1219923538613,24.0512824073738,0 80.1219923538613,24.0513131460096,0 80.1219855230533,24.0513353461355,0 80.1219974769673,24.0513558385594,0 80.1219974769673,24.0514070696192,0 80.1220179693912,24.051442931361,0 80.1220213847951,24.0514907470168,0 80.1220282156031,24.0515368549706,0 80.1220213847951,24.0516051630503,0 80.1220316310071,24.0516888404479,0 80.122048708027,24.0517332406997,0 80.122040169517,24.0517913025674,0 80.122053831133,24.0518357028192,0 80.1220623696429,24.051890349283,0 80.122058954239,24.0519313341308,0 80.1220726158549,24.0519671958726,0 80.1220828620669,24.0520098884224,0 80.1220862774708,24.0520577040782,0 80.1220896928748,24.052098688926,0 80.1220999390868,24.0521465045818,0 80.1221195776597,24.0521921856101,0 80.1221127468517,24.0522365858619,0 80.1221264084676,24.0523236786635,0 80.1221298238716,24.0523561250013,0 80.1221305,24.0524126,0 80.1221411,24.0524539,0 80.1221605625075,24.0525200643926,0 80.1221571471035,24.0525439722205,0 80.122159,24.0525906,0 80.122158,24.0525976,0 80.1221776395274,24.0526156957041,0 80.1221998396533,24.0526532651479,0 80.1222032550573,24.0527181578236,0 80.1222083781633,24.0527608503735,0 80.1222169166732,24.0528052506252,0 80.1222169166732,24.0528428200691,0 80.1222357013951,24.0529316205727,0 80.122244239905,24.0529657746125,0 80.1222664400309,24.0529999286524,0 80.1222835170509,24.0530426212022,0 80.1223313327066,24.0530477443081,0 80.1223620713425,24.0530579905201,0 80.1224218409122,24.0530135902683,0 80.122467948866,24.0530289595862,0 80.1225191799258,24.0530374980962,0 80.1225584570716,24.0530409135002,0 80.1226062727274,24.0530409135002,0 80.1226455498732,24.0530511597121,0 80.122676288509,24.0530443289042,0 80.1227275195688,24.0530494520101,0 80.1227616736087,24.0530477443081,0 80.1227889968405,24.0530511597121,0 80.1228368124963,24.0530477443081,0 80.1228675511322,24.0530477443081,0 80.1229045,24.0530508,0 80.1229358592119,24.0530528674141,0 80.1229585,24.0530488,0 80.1230068,24.053055,0 80.1230363,24.0530608,0 80.1230596,24.053066,0 80.1230825,24.0530813,0 80.1231206,24.0530889,0 80.1231449,24.0531072,0 80.1231879,24.0531408,0 80.1232043,24.0531481,0 80.1232218,24.0531407,0 80.1232788,24.0530962,0 80.12332,24.0530663,0 80.1233775,24.053016,0 80.1234037695577,24.0529794362285,0 80.1234182850246,24.0529512591456,0 80.1234245924304,24.0529247077664,0 80.1234357924227,24.0528675077647,0 80.1234404851505,24.0528376969631,0 80.1234498775115,24.0527967121153,0 80.1234541467665,24.0527352348436,0 80.1234556,24.052697,0 80.123463,24.052634,0 80.1234785,24.0525714,0 80.1234853,24.0525367,0 80.1234898,24.0525019,0 80.1234928,24.0524688,0 80.1234968,24.0524364,0 80.1235074,24.0524118,0 80.12351,24.0523803,0 80.1235165,24.0523544,0 80.1235202,24.0523311,0 80.1235196,24.052312,0 80.1235215,24.0522773,0 80.1235267,24.0522478,0 80.123531,24.0522203,0 80.1235336,24.0521894,0 80.123536,24.0521557,0 80.1235456,24.052121,0 80.1235532,24.0520881,0 80.1235656,24.05205,0 80.1235638,24.0520185,0 80.1235578,24.0519751,0 80.1235519,24.0519498,0 80.123537,24.0519118,0 80.1235276,24.0518749,0 80.1235155,24.0518152,0 80.1234941,24.051758,0 80.1234818,24.0517341,0 80.1234737,24.0517027,0 80.1234631,24.0516828,0 80.1234631,24.0516227,0 80.1234676,24.0515877,0 80.1234704,24.0515533,0 80.1234847,24.0514905,0 80.1234987,24.0514579,0 80.1235098,24.0514256,0 80.1235402,24.0514025,0 80.1235419,24.0513746,0 80.1235534,24.0513478,0 80.1235648,24.05132,0 80.123584,24.0512632,0 80.1235889,24.0512051,0 80.1235901,24.051183,0 80.1235969,24.0511521,0 80.1235987,24.0511266,0 80.1236107,24.0510939,0 80.1236339,24.0510407,0 80.1236552,24.051021,0 80.1236624,24.0509911,0 80.1236677,24.050961,0 80.1236744,24.050893,0 80.1236817,24.0508597,0 80.123696,24.0507926,0 80.1237051,24.0507584,0 80.1237365,24.0507006,0 80.1237754,24.0506392,0 80.1237926,24.0506095,0 80.1238229,24.0505463,0 80.1238379,24.050518,0 80.1238594,24.0504567,0 80.1238729,24.050429,0 80.1238886,24.0503973,0 80.1239225,24.0503408,0 80.1239497,24.0503048,0 80.1239691,24.0502753,0 80.123992,24.0502125,0 80.1240106,24.050179,0 80.1240254,24.0501455,0 80.1240428,24.0501174,0 80.1240569,24.0500881,0 80.1240957,24.0500238,0 80.124114,24.0499889,0 80.12413,24.0499593,0 80.1241447,24.0499218,0 80.1241563,24.0498882,0 80.1241684,24.049848,0 80.1241832,24.0498293,0 80.1242023,24.0497977,0 80.1242241,24.0497713,0 80.1242424,24.0497476,0 80.1242582,24.0497183,0 80.12428,24.0496953,0 80.1243178,24.049646,0 80.1243334,24.0496141,0 80.124373,24.0495648,0 80.1244010675211,24.0495350013103,0 80.1244300984549,24.0494854779526,0 80.1244505908789,24.0494410777008,0 80.1244633986438,24.0494120467669,0 80.1244796218127,24.049379600429,0 80.1244873064717,24.0493727696211,0 80.1245052373426,24.0493352001772,0 80.1245496375944,24.0492651843956,0 80.1245667146143,24.0492276149517,0 80.1245974532502,24.049182360849,0 80.1246244,24.049166,0 80.1246451,24.04914,0 80.124678569095,24.0490828872079,0 80.1247178462408,24.0490470254661,0 80.1247588310886,24.0489957944063,0 80.1247861543204,24.0489616403665,0 80.1248083544464,24.0489309017306,0 80.1248203083603,24.0489018707967,0 80.1248425084862,24.0488796706708,0 80.1248600124316,24.0488532012899,0 80.1248805048555,24.0488382588975,0 80.1248924587695,24.0488245972816,0 80.1249044126834,24.0488152049206,0 80.1249189281503,24.0488023971557,0 80.1249419821272,24.0487733662218,0 80.1249701592101,24.0487520199469,0 80.124992359336,24.0487067658441,0 80.1250111440579,24.0486683425493,0 80.1250555443097,24.0486410193174,0 80.1250666443727,24.0486068652776,0 80.1251016522635,24.0485821035987,0 80.1251255600914,24.0485616111748,0 80.1251340986014,24.0485377033469,0 80.1251622614923,24.0485187077022,0 80.125188,24.0484403,0 80.1251911,24.0484071,0 80.1251955,24.048375,0 80.125204,24.0483409,0 80.1252041,24.0483112,0 80.1251989,24.0482758,0 80.1251876,24.0482423,0 80.125171,24.0482123,0 80.1251566,24.0481836,0 80.1251418,24.0481523,0 80.1251276,24.0481259,0 80.1251088,24.0480939,0 80.125095,24.0480674,0 80.1250642,24.0480552,0 80.1250389,24.0480481,0 80.1249981,24.0480439,0 80.12497,24.0480456,0 80.124932,24.04806,0 80.1249066,24.0480672,0 80.124872,24.0480726,0 80.1248487,24.0480751,0 80.1248152,24.0480955,0 80.1247894,24.0481027,0 80.1247598,24.0481086,0 80.1246926,24.0481227,0 80.1246599,24.0481193,0 80.1246034,24.0481575,0 80.1245764,24.0481798,0 80.1245512,24.0481834,0 80.1244838,24.048204,0 80.1244426,24.0482035,0 80.1243734,24.0482007,0 80.1243473,24.0481918,0 80.1243089,24.0481875,0 80.1242819,24.0481668,0 80.1242471,24.0481683,0 80.1242157818551,24.048182928258,0 80.1240761,24.0481794,0 80.1240275,24.0481886,0 80.1239613342582,24.0481590204301,0 80.1239032723905,24.0481419434102,0 80.1238622875427,24.0481197432843,0 80.1238230103969,24.0480872969465,0 80.1237854409531,24.0480770507345,0 80.1236898096415,24.0480258196748,0</coordinates></LinearRing></outerBoundaryIs></Polygon>
  </Placemark>
  
    </Document>
</kml>