<?xml version="1.0" encoding="UTF-8"?>
<kml xmlns="http://www.opengis.net/kml/2.2">
    <Document>
        <Placemark xmlns:ns0="http://www.opengis.net/kml/2.2">
	<Style><LineStyle><color>ff0000ff</color></LineStyle><PolyStyle><fill>0</fill></PolyStyle></Style>
	<ExtendedData><SchemaData schemaUrl="#Wave23_v27MAR2025">
		<SimpleData name="area(ha)">14.694506930695372</SimpleData>
		<SimpleData name="site_id">230073_1.1</SimpleData>
		<SimpleData name="Land_parc">230073</SimpleData>
		<SimpleData name="district">Panna</SimpleData>
		<SimpleData name="block">Shahnagar</SimpleData>
		<SimpleData name="village">Jhargua</SimpleData>
		<SimpleData name="Land Type">Community</SimpleData>
		<SimpleData name="Instance">Wave 2023</SimpleData>
	</SchemaData></ExtendedData>
      <Polygon><outerBoundaryIs><LinearRing><coordinates>79.9733525,23.9463705,0 79.9733676000001,23.9464258000001,0 79.9733951,23.9464885000001,0 79.9734389,23.9465564000002,0 79.973441970891,23.9465612954386,0 79.9734628000001,23.9465945,0 79.9734893,23.9466197000001,0 79.9735311593955,23.9466698173727,0 79.9735334000002,23.9466725,0 79.9735567000001,23.9467351,0 79.9736048,23.9468528,0 79.9736196000001,23.9468633000001,0 79.9736485,23.9468446000001,0 79.9736514000001,23.946862,0 79.9736469000001,23.9468725,0 79.9736541670887,23.9469239685833,0 79.9736651,23.9470014000001,0 79.9737108180409,23.9470146608965,0 79.9737249637036,23.9470147554269,0 79.9737249320632,23.9470187547823,0 79.9739085,23.947072,0 79.9740555000002,23.9470707000001,0 79.9741904000001,23.9470688000001,0 79.9742159487547,23.9470589318584,0 79.9743082000001,23.9470233000001,0 79.9743116334496,23.9470186747811,0 79.9743783454549,23.9469288065848,0 79.9744171,23.9468766,0 79.9744564000001,23.9467700000001,0 79.9745119000001,23.9466533000001,0 79.9746573,23.9465197999999,0 79.9747985110032,23.9463897295237,0 79.9748018000001,23.9463867000001,0 79.9748907130436,23.9463180478996,0 79.9749097881571,23.946303319486,0 79.9749098131333,23.9463001587239,0 79.9749138468632,23.9463001856479,0 79.9749532,23.9462698000001,0 79.9750083645567,23.94626407961,0 79.9750641000001,23.9462582999999,0 79.9751067190121,23.9462529250774,0 79.9752050833333,23.9462405197542,0 79.9752433,23.9462357,0 79.9753999000001,23.9462276000001,0 79.97554,23.9462899000001,0 79.9755937766654,23.9463047224698,0 79.975597641419,23.9463047482487,0 79.9755976332285,23.946305785454,0 79.9757624000001,23.9463512000001,0 79.9759348,23.9464422000001,0 79.9761862273844,23.9464330151255,0 79.9762496000001,23.9464307000001,0 79.9763825493023,23.9464597617002,0 79.9763959819553,23.9464626979683,0 79.976528321861,23.94649162632,0 79.9765787439791,23.9465026481231,0 79.9766046,23.9465083000001,0 79.9763147672441,23.9463597957539,0 79.9761988912105,23.9461984210217,0 79.9762044091169,23.9460370460877,0 79.976160265866,23.9455176191485,0 79.9765520372177,23.9454722322292,0 79.976800343004,23.9456033499525,0 79.9774845633928,23.9452402543924,0 79.9777549408046,23.9450334911863,0 79.9778818526509,23.945129308323,0 79.9779480675272,23.9448620287641,0 79.9780929125692,23.944773775958,0 79.9782529318537,23.9446930876253,0 79.9784460585764,23.9445770980586,0 79.9788267941154,23.9445569259493,0 79.9789923313062,23.9446174422675,0 79.9789537059617,23.9451066147971,0 79.9789371522426,23.945212517884,0 79.9788543836472,23.9456865592077,0 79.9789261164299,23.9458176767132,0 79.9790548000001,23.9458855000001,0 79.9790727000001,23.9458922000001,0 79.9791070000002,23.9458859000001,0 79.9791492000001,23.9458745000001,0 79.9791942,23.9459202,0 79.9792685,23.9459637000001,0 79.9793244,23.9459643000001,0 79.9793408000001,23.9459533999999,0 79.9793992,23.9458466000001,0 79.9794516970109,23.9457168171054,0 79.9795868857167,23.9455024901772,0 79.9796327463022,23.9455187857545,0 79.9796329451783,23.9455187870758,0 79.9796893895265,23.9454218149749,0 79.9798641344847,23.9451771720334,0 79.9799324938748,23.9448892453816,0 79.9799324991071,23.9448885799282,0 79.9799326516255,23.9448885809412,0 79.9799630179752,23.9447606787923,0 79.9799664,23.9447069000001,0 79.9799342683041,23.9445296163583,0 79.9799338545419,23.9445273334608,0 79.9799061,23.9443742,0 79.9799020239155,23.9443464943103,0 79.9798711000001,23.9441363000001,0 79.9798409273936,23.944075146893,0 79.979840630005,23.9440751449177,0 79.9798406346548,23.9440745535768,0 79.9797439114871,23.9438785169914,0 79.9797180000001,23.943826,0 79.9796461545719,23.9438139610874,0 79.9795774907564,23.9438024552743,0 79.9795479820435,23.9438022592213,0 79.9795480193438,23.943797516818,0 79.9794405,23.9437795,0 79.9790617000001,23.9437744,0 79.9788601580483,23.943798720185,0 79.9787095000001,23.9438169000001,0 79.9785650741712,23.9438355893244,0 79.9784143,23.9438551000001,0 79.9781717099168,23.9438744448591,0 79.9781033000001,23.9438799,0 79.9780734036866,23.9438797323576,0 79.97807337977,23.9438827687328,0 79.9776324191639,23.9438798341173,0 79.9774158,23.9438835,0 79.97701,23.9439061,0 79.9767957211985,23.9439105508272,0 79.9766441000001,23.9439136999999,0 79.9763224886871,23.943871108996,0 79.9763047104563,23.9438709905028,0 79.9763047280799,23.9438687569375,0 79.9762824,23.9438658000001,0 79.9759666,23.9438017000001,0 79.9759122926055,23.9437898711368,0 79.9758563575119,23.943777687717,0 79.9758501410647,23.9437763336893,0 79.9755658,23.9437144,0 79.9753239026267,23.9436383331163,0 79.9752373000001,23.9436111,0 79.9751918252124,23.9435926275789,0 79.9750277950709,23.9435259963529,0 79.9749657810933,23.9435008053874,0 79.9748929,23.9434711999999,0 79.9747362187831,23.9433976186391,0 79.9746383179862,23.9433516418903,0 79.9745751999999,23.9433220000001,0 79.9742827000001,23.943154,0 79.974162733315,23.9430438750586,0 79.9740636274151,23.9429528993322,0 79.9740556828018,23.9429456064488,0 79.9740519709744,23.9429421991177,0 79.974045,23.9429358000001,0 79.9739532822308,23.9428621566052,0 79.973952895243,23.9428618458789,0 79.9738202,23.9427553,0 79.9735929,23.9425752000001,0 79.9735637300799,23.9425531174459,0 79.9733698997208,23.942406381394,0 79.9733683642308,23.9424063711309,0 79.9733683732929,23.9424052258348,0 79.9733582999999,23.9423976000001,0 79.9732555136484,23.942315303035,0 79.9731466000001,23.9422281000002,0 79.9730422999999,23.9421356000001,0 79.9730396124393,23.9421332321276,0 79.9729363215786,23.942042227723,0 79.9729204,23.9420282000002,0 79.9728668,23.9419936000002,0 79.9728619,23.9420303000002,0 79.972845,23.9420563000001,0 79.9728376000001,23.9420728,0 79.9728526000001,23.9420671999999,0 79.9728796239703,23.9420808869023,0 79.9729144000001,23.9420985,0 79.9729317,23.94211,0 79.9729664000001,23.9421252000002,0 79.9729755027501,23.942132803475,0 79.9729774760463,23.9421328166693,0 79.9729774631891,23.9421344410182,0 79.9729919000001,23.9421465,0 79.9730112000001,23.9421620000001,0 79.9730404,23.9422124000001,0 79.9730470000001,23.9422406000001,0 79.9730471978704,23.9422469071189,0 79.9730820650733,23.9422660586269,0 79.9731518577349,23.9422756397322,0 79.9731543713614,23.9422760464079,0 79.9731568586179,23.9422765725108,0 79.9731593127922,23.9422772166211,0 79.973161727261,23.9422779770006,0 79.9731640955085,23.9422788515973,0 79.9731664111434,23.9422798380508,0 79.9731686679167,23.942280933699,0 79.9731708597378,23.9422821355851,0 79.9731729806919,23.9422834404656,0 79.9731750250549,23.9422848448189,0 79.9731769873099,23.9422863448552,0 79.9731788621612,23.9422879365263,0 79.9731806445493,23.9422896155368,0 79.9731823296639,23.9422913773555,0 79.9731839129575,23.9422932172278,0 79.9731853901572,23.9422951301884,0 79.9731867572764,23.9422971110748,0 79.9731880106258,23.9422991545413,0 79.9731891468229,23.942301255073,0 79.9731901628014,23.9423034070014,0 79.9731910558196,23.9423056045189,0 79.9731918234674,23.9423078416952,0 79.9731924636732,23.9423101124927,0 79.9731929747092,23.9423124107833,0 79.9731933551962,23.9423147303646,0 79.9731936041076,23.9423170649766,0 79.9731937207715,23.9423194083191,0 79.9731937048731,23.9423217540679,0 79.9731935564552,23.9423240958927,0 79.9731932759184,23.9423264274735,0 79.9731929471065,23.9423282755358,0 79.973215594332,23.942335897986,0 79.9732180215616,23.9423367828444,0 79.973220394213,23.9423377849778,0 79.9732227055841,23.9423389015554,0 79.9732249491458,23.942340129423,0 79.9732271185607,23.9423414651124,0 79.9732292077009,23.9423429048505,0 79.9732312106649,23.9423444445705,0 79.973233121795,23.9423460799231,0 79.9732349356928,23.9423478062888,0 79.9732366472344,23.9423496187912,0 79.9732382515852,23.9423515123104,0 79.9732397442134,23.9423534814977,0 79.9732411209026,23.9423555207906,0 79.9732423777641,23.9423576244288,0 79.9732435112476,23.94235978647,0 79.9732445181513,23.942362000807,0 79.9732453956309,23.9423642611849,0 79.9732461412078,23.9423665612188,0 79.9732467527759,23.9423688944116,0 79.9732472286077,23.9423712541727,0 79.9732475673591,23.9423736338364,0 79.9732477680732,23.9423760266808,0 79.973247830183,23.9423784259468,0 79.9732477535131,23.942380824857,0 79.9732475382801,23.9423832166352,0 79.9732471850919,23.9423855945253,0 79.9732466949461,23.9423879518102,0 79.9732460692273,23.9423902818314,0 79.9732412655341,23.9424063243785,0 79.9732578391405,23.9423964307639,0 79.9732600431409,23.942395189604,0 79.9732623151131,23.9423940566991,0 79.9732646487683,23.942393035185,0 79.9732670376471,23.9423921278891,0 79.9732694751373,23.9423913373228,0 79.9732719544921,23.9423906656742,0 79.9732744688488,23.9423901148026,0 79.9732770112478,23.9423896862326,0 79.973279574652,23.9423893811506,0 79.9732821519659,23.9423892004008,0 79.9732847360559,23.9423891444838,0 79.9732873197693,23.9423892135542,0 79.9732898959545,23.9423894074208,0 79.9732924574809,23.9423897255471,0 79.9732949972584,23.9423901670525,0 79.9732975082569,23.9423907307149,0 79.9732999835263,23.9423914149742,0 79.9733024162152,23.9423922179363,0 79.97330479959,23.9423931373788,0 79.9733071270537,23.9423941707567,0 79.9733093921641,23.9423953152096,0 79.9733115886515,23.9423965675698,0 79.9733137104362,23.9423979243709,0 79.9733157516451,23.9423993818573,0 79.9733571516422,23.9424305818489,0 79.9733590918152,23.9424321235757,0 79.9733609418068,23.9424337562596,0 79.9733626965753,23.9424354754513,0 79.9733643513388,23.9424372764656,0 79.9733659015877,23.9424391543943,0 79.9733673430972,23.9424411041199,0 79.9733686719389,23.9424431203289,0 79.9733698844916,23.9424451975268,0 79.9733709774507,23.9424473300527,0 79.9733719478377,23.9424495120953,0 79.9733727930082,23.9424517377079,0 79.9733735106589,23.9424540008254,0 79.973374098834,23.9424562952804,0 79.9733745559306,23.9424586148201,0 79.9733748807031,23.9424609531231,0 79.9733750722664,23.9424633038173,0 79.9733751300985,23.9424656604965,0 79.9733750540416,23.9424680167384,0 79.9733748443032,23.9424703661217,0 79.9733745014547,23.9424727022439,0 79.9733740264305,23.9424750187386,0 79.9733734205251,23.942477309293,0 79.9733726853897,23.9424795676649,0 79.9733718230276,23.9424817876996,0 79.9733708357891,23.9424839633473,0 79.9733697263644,23.9424860886789,0 79.973368497777,23.9424881579024,0 79.973367153375,23.9424901653788,0 79.9733656968222,23.9424921056374,0 79.9733641320879,23.9424939733905,0 79.9733624634363,23.9424957635482,0 79.9733606954149,23.942497471232,0 79.9733588328417,23.942499091788,0 79.9733568807928,23.9425006208001,0 79.9733548445877,23.9425020541012,0 79.9733527297756,23.9425033877854,0 79.9733505421197,23.9425046182182,0 79.9733482875818,23.9425057420464,0 79.9733459723059,23.9425067562073,0 79.9733436026017,23.9425076579371,0 79.973341184927,23.9425084447785,0 79.9733388181542,23.9425090894505,0 79.9733212446903,23.9425273638548,0 79.9733151144979,23.9425487858711,0 79.9733143857026,23.9425510833439,0 79.9733135254997,23.9425533421033,0 79.9733125363055,23.9425555558051,0 79.9733114208983,23.9425577182317,0 79.9733101824108,23.9425598233094,0 79.9733088243216,23.9425618651257,0 79.9733073504453,23.9425638379457,0 79.9733057649215,23.9425657362283,0 79.9733040722035,23.9425675546418,0 79.9733022770456,23.9425692880789,0 79.9733007156559,23.9425707179236,0 79.9733024836876,23.9425709935676,0 79.9733049976045,23.9425715113928,0 79.9733074785317,23.942572149623,0 79.9733099196474,23.9425729065034,0 79.9733123142395,23.9425737799527,0 79.9733146557234,23.9425747675692,0 79.9733169376608,23.9425758666374,0 79.9733191537772,23.942577074135,0 79.9733212979788,23.9425783867418,0 79.9733233643699,23.9425798008487,0 79.9733253472684,23.9425813125672,0 79.973327241222,23.9425829177406,0 79.9733290410229,23.9425846119552,0 79.9733307417223,23.9425863905524,0 79.9733323386437,23.9425882486415,0 79.9733338273961,23.9425901811136,0 79.9733352038859,23.9425921826548,0 79.9733364643282,23.9425942477615,0 79.9733376052571,23.9425963707553,0 79.9733386235354,23.9425985457988,0 79.9733395163631,23.9426007669111,0 79.9733402812854,23.9426030279849,0 79.9733409161988,23.942605322803,0 79.9733414193575,23.9426076450552,0 79.973341789378,23.9426099883562,0 79.9733420252429,23.9426123462627,0 79.9733421263036,23.942614712291,0 79.9733420922822,23.9426170799353,0 79.9733419232722,23.9426194426854,0 79.9733416197383,23.9426217940444,0 79.9733411825153,23.9426241275468,0 79.9733406128052,23.9426264367762,0 79.9733399121746,23.942628715383,0 79.9733390825501,23.9426309571016,0 79.9733381262128,23.9426331557681,0 79.9733370457923,23.9426353053367,0 79.9733358442595,23.9426373998969,0 79.9733345249183,23.9426394336892,0 79.9733330913962,23.9426414011213,0 79.9733315476353,23.9426432967835,0 79.9733298978802,23.9426451154632,0 79.9733281466673,23.9426468521596,0 79.9733262988119,23.9426485020973,0 79.973324359395,23.9426500607395,0 79.9733179916879,23.9426549134549,0 79.9733227991293,23.9426927643302,0 79.9733230296951,23.9426951089183,0 79.9733231270006,23.9426974613643,0 79.9733230907814,23.9426998152742,0 79.9733229211357,23.9427021642503,0 79.9733226185249,23.9427045019082,0 79.9733221837712,23.9427068218943,0 79.9733216180564,23.9427091179029,0 79.9733209229181,23.9427113836936,0 79.9733201002455,23.9427136131081,0 79.9733191522746,23.942715800087,0 79.973318081582,23.9427179386861,0 79.9733168910778,23.9427200230929,0 79.9733155839977,23.9427220476419,0 79.9733141638943,23.9427240068307,0 79.9733126346273,23.9427258953341,0 79.9733110003532,23.9427277080194,0 79.9733092655139,23.9427294399598,0 79.9733074348247,23.9427310864479,0 79.9733055132611,23.9427326430086,0 79.973303506046,23.9427341054113,0 79.9733030498787,23.9427344035487,0 79.9733038727744,23.9427480270446,0 79.9733047367245,23.9427491948612,0 79.9733060682538,23.9427512142336,0 79.9733072831108,23.9427532948178,0 79.9733083779733,23.9427554309247,0 79.9733093498477,23.9427576167134,0 79.9733101960764,23.9427598462069,0 79.9733109143454,23.9427621133089,0 79.9733115026908,23.9427644118203,0 79.9733119595037,23.942766735456,0 79.9733122835351,23.9427690778621,0 79.9733124738988,23.9427714326337,0 79.9733125300744,23.9427737933317,0 79.9733124866507,23.9427751044786,0 79.9733167000001,23.9427854000001,0 79.9733417,23.9428216,0 79.9733587,23.9428507000002,0 79.9733589298652,23.9428578769021,0 79.9733596000001,23.9428788000002,0 79.9733641000001,23.9429072,0 79.9733711,23.9429359000001,0 79.9733746501649,23.9429544397512,0 79.9733761466617,23.9429538858931,0 79.9733785783355,23.9429531191601,0 79.9733810503169,23.9429524703815,0 79.9733835558376,23.9429519413335,0 79.9733860880376,23.9429515334647,0 79.9733886399838,23.9429512478918,0 79.9733912046889,23.9429510853966,0 79.973393775131,23.9429510464242,0 79.9733963442721,23.9429511310812,0 79.9733989050782,23.9429513391358,0 79.9734014505376,23.9429516700184,0 79.9734039736812,23.942952122823,0 79.9734064676004,23.9429526963099,0 79.9734089254671,23.9429533889088,0 79.9734113405517,23.9429541987235,0 79.9734137062417,23.9429551235366,0 79.97341601606,23.9429561608162,0 79.9734182636822,23.9429573077221,0 79.9734204429545,23.9429585611141,0 79.9734225479102,23.9429599175605,0 79.9734245727857,23.9429613733474,0 79.9734265120372,23.9429629244888,0 79.973428360355,23.9429645667378,0 79.9734301126784,23.9429662955979,0 79.9734317642096,23.9429681063356,0 79.9734333104267,23.9429699939931,0 79.9734347470963,23.9429719534021,0 79.9734360702847,23.9429739791976,0 79.9734372763692,23.9429760658333,0 79.9734383620474,23.9429782075958,0 79.9734393243468,23.9429803986211,0 79.9734401606327,23.9429826329102,0 79.9734408686152,23.9429849043458,0 79.9734448865523,23.9429991976473,0 79.9734484172765,23.9429996656251,0 79.9734483716928,23.9429973626238,0 79.9734484745437,23.9429948472003,0 79.9734487297408,23.9429923409526,0 79.9734491364911,23.9429898516689,0 79.9734496935307,23.9429873870846,0 79.9734503991285,23.9429849548584,0 79.9734512510919,23.9429825625484,0 79.9734638244939,23.9429503249629,0 79.9734618496408,23.9429413750804,0 79.9734613997684,23.9429390169893,0 79.9734610865072,23.9429366402985,0 79.9734609107376,23.9429342516885,0 79.9734608729537,23.9429318578736,0 79.9734609732617,23.9429294655827,0 79.9734612113796,23.9429270815401,0 79.9734615866381,23.9429247124473,0 79.9734620979825,23.9429223649635,0 79.9734627439752,23.9429200456874,0 79.9734635228005,23.9429177611383,0 79.9734644322692,23.9429155177377,0 79.9734654698248,23.9429133217917,0 79.9734666325509,23.942911179473,0 79.9734679171791,23.9429090968033,0 79.9734693200984,23.9429070796369,0 79.9734708373653,23.9429051336438,0 79.973472464715,23.9429032642942,0 79.9734741975731,23.9429014768425,0 79.9734760310686,23.9428997763131,0 79.9734779600478,23.9428981674861,0 79.9734799790885,23.9428966548838,0 79.9734820825154,23.9428952427578,0 79.9734842644158,23.9428939350777,0 79.9734865186567,23.9428927355191,0 79.9734888389015,23.942891647454,0 79.9734905911055,23.9428909306516,0 79.973507603212,23.9428756254484,0 79.9735151856233,23.9428627096525,0 79.9735209395077,23.9428513835953,0 79.9735200644999,23.9428497676514,0 79.9735190521156,23.9428476273775,0 79.9735181613965,23.942845441888,0 79.9735173947216,23.9428432170208,0 79.9735167541389,23.9428409587189,0 79.9735162413594,23.9428386730145,0 79.973515857753,23.942836366013,0 79.9735156043442,23.9428340438768,0 79.9735154818099,23.9428317128086,0 79.9735154904775,23.9428293790351,0 79.9735156303237,23.9428270487901,0 79.973515900975,23.942824728298,0 79.9735163017085,23.9428224237572,0 79.9735168314537,23.9428201413235,0 79.9735174887956,23.9428178870935,0 79.9735182719783,23.9428156670888,0 79.9735191789099,23.9428134872391,0 79.9735202071677,23.9428113533672,0 79.9735210988385,23.9428097344528,0 79.9735205328165,23.9428083903416,0 79.9735197307834,23.9428061425778,0 79.9735190579246,23.942803859295,0 79.9735185160868,23.9428015467594,0 79.9735181067569,23.9427992113175,0 79.9735178310582,23.9427968593784,0 79.9735176897474,23.9427944973967,0 79.9735176832122,23.9427921318545,0 79.9735178114705,23.9427897692438,0 79.9735180741704,23.9427874160482,0 79.973518470591,23.9427850787258,0 79.9735189996442,23.9427827636911,0 79.9735196598783,23.9427804772972,0 79.9735204494812,23.9427782258189,0 79.973521366286,23.9427760154349,0 79.9735224077767,23.9427738522114,0 79.9735235710951,23.942771742085,0 79.9735248530486,23.9427696908465,0 79.9735262501191,23.9427677041254,0 79.9735277584725,23.9427657873739,0 79.9735293739694,23.9427639458521,0 79.9735310921763,23.9427621846139,0 79.9735329083778,23.9427605084926,0 79.9735348175896,23.9427589220883,0 79.9735368145723,23.9427574297545,0 79.9735388938453,23.9427560355866,0 79.9735410497025,23.9427547434109,0 79.9735432762274,23.9427535567733,0 79.9735455673097,23.9427524789306,0 79.9735479166618,23.9427515128406,0 79.9735503178363,23.9427506611547,0 79.9735527642436,23.9427499262101,0 79.9735552491699,23.9427493100239,0 79.9735577657956,23.942748814287,0 79.9735603072143,23.9427484403599,0 79.9735628664514,23.9427481892688,0 79.9735654364836,23.9427480617028,0 79.9735680102577,23.9427480580119,0 79.9735705807105,23.9427481782064,0 79.9735731407877,23.9427484219563,0 79.9735756834636,23.9427487885926,0 79.9735782017602,23.9427492771094,0 79.9735806887664,23.9427498861657,0 79.9735831376571,23.9427506140903,0 79.9735855417116,23.9427514588855,0 79.9735878943323,23.9427524182327,0 79.9735901890629,23.9427534894993,0 79.9735924196059,23.9427546697453,0 79.9735945798398,23.9427559557318,0 79.9735966638361,23.9427573439294,0 79.9735986658758,23.9427588305286,0 79.9736005804645,23.9427604114496,0 79.9736244804643,23.9427812114444,0 79.9736263396424,23.9427829184321,0 79.9736280968556,23.9427847143441,0 79.9736297470765,23.9427865940423,0 79.9736312855838,23.942788552149,0 79.9736326107982,23.9427904443102,0 79.9736429999909,23.9427904443087,0 79.973645529592,23.9427905042006,0 79.9736480524829,23.9427906837185,0 79.973650561971,23.9427909823859,0 79.9736530513995,23.9427913994108,0 79.9736555141645,23.9427919336868,0 79.9736579437333,23.9427925837967,0 79.9736603336607,23.942793348016,0 79.9736626776071,23.9427942243173,0 79.9736649693545,23.9427952103761,0 79.9736672028238,23.9427963035767,0 79.9736693720902,23.9427975010192,0 79.9736714713992,23.942798799527,0 79.973673495182,23.9428001956557,0 79.9736754380701,23.9428016857017,0 79.9736772949096,23.9428032657124,0 79.9736790607749,23.9428049314965,0 79.9736807309815,23.9428066786351,0 79.9736823010991,23.9428085024935,0 79.9736837669624,23.9428103982337,0 79.9736851246829,23.9428123608268,0 79.9736863706591,23.9428143850666,0 79.9736867975614,23.9428151704202,0 79.9736873046742,23.9428151172118,0 79.9736898670763,23.9428149724062,0 79.9736924342101,23.942814950818,0 79.9736949990661,23.9428150525062,0 79.9736975546412,23.9428152771932,0 79.9737000939577,23.9428156242654,0 79.973702610082,23.9428160927752,0 79.9737050961443,23.9428166814434,0 79.9737075453563,23.9428173886626,0 79.9737099510308,23.9428182125019,0 79.9737123065992,23.9428191507118,0 79.9737146056299,23.9428202007306,0 79.9737168418455,23.9428213596914,0 79.9737190091402,23.9428226244296,0 79.9737211015964,23.942823991492,0 79.9737231135008,23.9428254571459,0 79.97372503936,23.9428270173895,0 79.9737268739156,23.9428286679627,0 79.9737286121586,23.9428304043587,0 79.9737302493427,23.9428322218364,0 79.9737317809977,23.9428341154333,0 79.9737332029417,23.9428360799791,0 79.973734511292,23.9428381101098,0 79.9737357024763,23.9428402002822,0 79.9737367732422,23.9428423447893,0 79.973737720666,23.9428445377756,0 79.9737385421609,23.9428467732535,0 79.9737392354837,23.9428490451191,0 79.9737397987415,23.9428513471691,0 79.9737402303963,23.9428536731182,0 79.9737468059396,23.94289570318,0 79.9737531705112,23.942910453998,0 79.9737540528053,23.942912665498,0 79.973754808427,23.9429149162749,0 79.9737554353204,23.9429172002043,0 79.9737559317797,23.9429195110715,0 79.9737562964539,23.9429218425886,0 79.9737565283507,23.9429241884113,0 79.9737566268392,23.9429265421567,0 79.9737565916514,23.9429288974199,0 79.9737564228829,23.9429312477923,0 79.973756120993,23.9429335868784,0 79.9737556868031,23.9429359083135,0 79.9737496162338,23.9429639617506,0 79.9737492736276,23.9429676162308,0 79.9737483947522,23.9429784557443,0 79.9737482714627,23.9429797317939,0 79.9737459916393,23.943000052027,0 79.9737485507792,23.9430110847449,0 79.9737490401703,23.9430135203289,0 79.9737493835297,23.9430159769109,0 79.9737495798242,23.9430184471006,0 79.9737496284635,23.9430209234664,0 79.9737492220224,23.9430607561747,0 79.9737518261981,23.9430641439059,0 79.9737532761547,23.9430661407244,0 79.9737546085986,23.9430682055452,0 79.9737558197635,23.9430703325322,0 79.9737569062263,23.9430725156735,0 79.9737578649161,23.9430747487988,0 79.9737586931231,23.9430770255961,0 79.9737593885065,23.9430793396301,0 79.9737599491009,23.9430816843605,0 79.9737603733217,23.9430840531599,0 79.9737606599698,23.9430864393331,0 79.9737608082351,23.9430888361356,0 79.9737608176985,23.943091236793,0 79.9737606883332,23.94309363452,0 79.973760420505,23.9430960225395,0 79.9737600149707,23.943098394102,0 79.9737594728766,23.9431007425042,0 79.9737494402492,23.9431391461423,0 79.9737537646041,23.9431677949202,0 79.9737540101054,23.9431697259263,0 79.973755810112,23.943187125926,0 79.9737559873226,23.9431895031705,0 79.9737560278466,23.9431918856968,0 79.9737559315712,23.9431942668707,0 79.9737556987644,23.9431966400616,0 79.9737553300746,23.9431989986613,0 79.9737548265282,23.943201336102,0 79.9737541895276,23.9432036458752,0 79.9737534208464,23.9432059215489,0 79.973752522625,23.9432081567866,0 79.9737514973647,23.943210345364,0 79.9737503479203,23.9432124811869,0 79.9737490774925,23.9432145583079,0 79.9737476896189,23.9432165709433,0 79.9737461881641,23.9432185134887,0 79.9737445773089,23.9432203805349,0 79.973742861539,23.9432221668832,0 79.973741045632,23.9432238675591,0 79.9737391346443,23.9432254778272,0 79.9737371338972,23.9432269932035,0 79.973735048962,23.9432284094684,0 79.9737328856443,23.9432297226782,0 79.9737306499679,23.9432309291762,0 79.9737283481582,23.9432320256028,0 79.9737259866248,23.9432330089049,0 79.9737235719435,23.9432338763445,0 79.9737211108382,23.9432346255062,0 79.9737186101618,23.9432352543037,0 79.9737056067059,23.9432381874147,0 79.9737052943727,23.943239479944,0 79.9737094148578,23.9432631726803,0 79.9737097506445,23.9432654853319,0 79.973709956015,23.9432678108372,0 79.9737100304209,23.9432701429879,0 79.9737099736636,23.9432724755577,0 79.9737097858946,23.9432748023194,0 79.9737094676153,23.9432771170614,0 79.9737090196752,23.9432794136039,0 79.9737084432703,23.9432816858159,0 79.9737077399394,23.9432839276313,0 79.9737069115601,23.9432861330651,0 79.973705960344,23.9432882962294,0 79.9737048888305,23.9432904113493,0 79.9737036998802,23.9432924727781,0 79.9737023966673,23.9432944750124,0 79.9737009826709,23.9432964127067,0 79.973699461666,23.9432982806881,0 79.9736978377131,23.9433000739697,0 79.9736961151478,23.9433017877638,0 79.9736942985688,23.9433034174952,0 79.9736923928257,23.9433049588131,0 79.9736904030063,23.9433064076025,0 79.9736892756559,23.9433071446387,0 79.9736896521069,23.9433092123407,0 79.9736899427678,23.9433115538376,0 79.9736901001173,23.9433139060832,0 79.9736901237268,23.9433162626703,0 79.9736900135319,23.9433186171801,0 79.9736897698328,23.9433209631992,0 79.9736893932934,23.9433232943376,0 79.9736888849391,23.9433256042456,0 79.9736882461547,23.9433278866314,0 79.9736874786801,23.9433301352782,0 79.9736798737415,23.9433505370092,0 79.9736800232714,23.9433584120949,0 79.9736800003853,23.9433607873728,0 79.9736798416293,23.9433631582582,0 79.9736795474429,23.9433655181904,0 79.9736791186401,23.9433678606391,0 79.9736785564073,23.9433701791221,0 79.9736775734149,23.9433737834327,0 79.9736801857284,23.9433865610287,0 79.9736805949321,23.9433888987083,0 79.9736808702523,23.9433912528879,0 79.9736810109321,23.9433936170951,0 79.9736810165847,23.9433959848296,0 79.9736808871945,23.9433983495814,0 79.9736806231173,23.9434007048489,0 79.9736802250791,23.9434030441563,0 79.9736796941743,23.943405361072,0 79.9736790318626,23.9434076492256,0 79.9736782399649,23.9434099023261,0 79.9736773206586,23.9434121141787,0 79.9736762764712,23.9434142787021,0 79.9736751102736,23.9434163899451,0 79.9736738252721,23.9434184421029,0 79.9736643599463,23.9434326812524,0 79.9736472433503,23.9434709635599,0 79.9736462484873,23.9434730388145,0 79.9736451415185,23.943475065546,0 79.9736312824802,23.9434989259676,0 79.9736496233754,23.9435038684803,0 79.9736520809791,23.9435045957309,0 79.9736544936222,23.9435054406353,0 79.9736568546419,23.9435064008601,0 79.9736591575183,23.9435074737537,0 79.9736613958918,23.9435086563533,0 79.9736635635811,23.943509945393,0 79.9736656545999,23.9435113373132,0 79.9736676631739,23.9435128282698,0 79.9736695837562,23.9435144141457,0 79.9736714110431,23.9435160905613,0 79.9736731399885,23.9435178528872,0 79.9736747658177,23.9435196962565,0 79.9736762840409,23.9435216155787,0 79.9736776904656,23.9435236055536,0 79.9736789812077,23.9435256606858,0 79.9736801527029,23.9435277752998,0 79.9736812017159,23.943529943556,0 79.97368212535,23.9435321594668,0 79.9736829210544,23.9435344169128,0 79.9736835866317,23.94353670966,0 79.9736841202439,23.9435390313767,0 79.9736845204174,23.9435413756515,0 79.9736847860471,23.9435437360106,0 79.9736849163995,23.9435461059356,0 79.9736862164182,23.9435954059358,0 79.9736861732366,23.9435986860154,0 79.9736834732558,23.9436498860169,0 79.9736834214703,23.9436507116093,0 79.973683311154,23.9436522284674,0 79.9737020675893,23.943667490547,0 79.9737039703846,23.943669123514,0 79.9737057763971,23.9436708468232,0 79.9737074805561,23.9436726556361,0 79.9737090780767,23.9436745448741,0 79.9737105644736,23.9436765092327,0 79.9737119355735,23.9436785431967,0 79.9737131875267,23.9436806410551,0 79.9737143168179,23.9436827969179,0 79.9737153202766,23.943685004732,0 79.9737161950853,23.9436872582985,0 79.9737169387877,23.94368955129,0 79.9737175492958,23.9436918772686,0 79.9737180248954,23.9436942297034,0 79.9737183642512,23.9436966019896,0 79.9737185664104,23.9436989874665,0 79.9737186308053,23.9437013794364,0 79.9737185572551,23.9437037711832,0 79.9737183459663,23.9437061559917,0 79.9737179975322,23.943708527166,0 79.9737175129311,23.9437108780485,0 79.9737168935235,23.9437132020386,0 79.9737161410486,23.9437154926113,0 79.9737152576191,23.9437177433353,0 79.9737142457155,23.9437199478911,0 79.9737131081787,23.9437221000891,0 79.9737118482028,23.9437241938864,0 79.9737104693253,23.9437262234044,0 79.9737089754178,23.9437281829447,0 79.9737073706746,23.9437300670054,0 79.9737056596015,23.9437318702967,0 79.9737038470027,23.9437335877555,0 79.9737019379673,23.9437352145596,0 79.9736856413007,23.9437483814092,0 79.97368782508,23.9437522121189,0 79.9737191849192,23.9437790561333,0 79.9737210434698,23.9437807337907,0 79.9737228026586,23.9437824996287,0 79.9737244575397,23.9437843486829,0 79.973726003461,23.9437862757551,0 79.9737274360762,23.9437882754276,0 79.9737287513578,23.9437903420788,0 79.9737299456082,23.9437924698985,0 79.9737310154698,23.9437946529048,0 79.973731957935,23.9437968849605,0 79.9737327703542,23.9437991597907,0 79.9737334504434,23.943801471,0 79.9737339962907,23.943803812091,0 79.9737344063614,23.9438061764819,0 79.9737346795028,23.9438085575258,0 79.9737348149469,23.9438109485287,0 79.973734812313,23.9438133427688,0 79.9737346716084,23.9438157335152,0 79.9737343932287,23.9438181140465,0 79.9737339779566,23.9438204776705,0 79.9737334269594,23.9438228177421,0 79.9737327417862,23.9438251276826,0 79.9737319243632,23.9438274009982,0 79.9737136243773,23.9438741010041,0 79.9737126986533,23.9438762839934,0 79.9737116509796,23.9438784199136,0 79.9737104841766,23.9438805030145,0 79.9737092013856,23.9438825276882,0 79.97370780606,23.9438844884839,0 79.9737063019561,23.9438863801231,0 79.9737046931232,23.9438881975131,0 79.9737030527473,23.9438898657375,0 79.9737035847276,23.9438905049566,0 79.9737050255225,23.9438924359619,0 79.9737063554749,23.9438944330123,0 79.9737075710089,23.9438964907383,0 79.9737086688563,23.9438986036074,0 79.9737096460653,23.9439007659386,0 79.9737105000085,23.9439029719182,0 79.97371122839,23.943905215615,0 79.9737118292513,23.9439074909964,0 79.9737123009768,23.9439097919445,0 79.9737126422984,23.9439121122729,0 79.9737128522981,23.9439144457428,0 79.9737145686311,23.9439422883059,0 79.9737167962524,23.9439597379548,0 79.9737170256704,23.943962045037,0 79.9737171260445,23.9439643598971,0 79.9737170971105,23.9439666764422,0 79.9737169389446,23.9439689885746,0 79.973716651963,23.9439712902084,0 79.9737162369213,23.9439735752853,0 79.9737156949118,23.9439758377907,0 79.9737150273611,23.9439780717691,0 79.9737142360264,23.9439802713405,0 79.9737133229906,23.9439824307151,0 79.973707722994,23.9439947307169,0 79.9737067032123,23.9439968201642,0 79.9737055694857,23.9439988594071,0 79.97370432473,23.9440008432006,0 79.9737029721466,23.9440027664426,0 79.9737015152144,23.9440046241866,0 79.9736999576804,23.9440064116546,0 79.9736983035505,23.9440081242494,0 79.973696557079,23.9440097575663,0 79.9736961343013,23.9440101147759,0 79.9736961536361,23.9440101176222,0 79.9736987003881,23.9440106210467,0 79.9737012145285,23.9440112478263,0 79.9737036889893,23.9440119961988,0 79.9737061168143,23.9440128640605,0 79.9737084911781,23.9440138489715,0 79.9737108054059,23.9440149481631,0 79.9737130529917,23.944016158545,0 79.9737152276171,23.9440174767146,0 79.9737173231685,23.9440188989662,0 79.9737193337548,23.9440204213014,0 79.9737212537239,23.9440220394407,0 79.9737230776781,23.944023748835,0 79.9737248004898,23.9440255446787,0 79.9737264173157,23.9440274219233,0 79.9737279236106,23.9440293752914,0 79.9737293151399,23.9440313992915,0 79.9737305879916,23.9440334882337,0 79.9737317385874,23.9440356362453,0 79.9737327636926,23.9440378372879,0 79.9737336604255,23.9440400851737,0 79.9737344262651,23.9440423735832,0 79.9737350590583,23.9440446960833,0 79.9737471590762,23.9440946960802,0 79.9737476137906,23.9440968123853,0 79.973747958017,23.9440989462348,0 79.9737481909698,23.9441010927589,0 79.9737483121174,23.9441032470589,0 79.9737491104105,23.9441296790999,0 79.9737552660169,23.944161362306,0 79.9737556470289,23.9441636651667,0 79.973758247036,23.9441826651662,0 79.9737585057682,23.9441850771267,0 79.9737586233236,23.9441874983717,0 79.9737585993633,23.9441899219261,0 79.9737571993768,23.944225721927,0 79.9737570383771,23.9442280954687,0 79.9737567416389,23.9442304579284,0 79.9737563099851,23.9442328027533,0 79.9737557446131,23.9442351234398,0 79.9737550470911,23.944237413551,0 79.9737542193536,23.9442396667349,0 79.9737532636966,23.9442418767419,0 79.9737526966042,23.9442430103228,0 79.973753796966,23.9442448575863,0 79.9737549103352,23.9442469832614,0 79.9737559013934,23.9442491594784,0 79.9737567674357,23.9442513802972,0 79.973757506098,23.9442536396562,0 79.9737581153642,23.9442559313883,0 79.9737648153744,23.9442843313866,0 79.9737652941491,23.9442866524429,0 79.9737656401932,23.944288993336,0 79.9737658525594,23.944291347659,0 79.9737659306666,23.9442937089678,0 79.973765874301,23.9442960707995,0 79.9737656836168,23.9442984266897,0 79.9737653591359,23.9443007701901,0 79.9737649017464,23.9443030948865,0 79.9737643127003,23.9443053944162,0 79.9737635936097,23.9443076624851,0 79.9737627464429,23.9443098928855,0 79.9737617735185,23.9443120795126,0 79.9737606774995,23.9443142163816,0 79.9737594613858,23.9443162976438,0 79.9737581285059,23.9443183176026,0 79.973756682508,23.9443202707293,0 79.9737551273497,23.9443221516782,0 79.9737535895994,23.9443238224118,0 79.9737644984903,23.9443330127763,0 79.9737662626412,23.9443345751681,0 79.9737679398582,23.944336216443,0 79.973769525971,23.9443379325201,0 79.9737710170358,23.9443397191324,0 79.973772409345,23.9443415718374,0 79.9737736994367,23.9443434860286,0 79.9737748841031,23.9443454569462,0 79.9738069841178,23.9444021569377,0 79.9738081045569,23.9444042684182,0 79.9738091040001,23.9444064305971,0 79.9738099797423,23.9444086376222,0 79.9738107294132,23.9444108835201,0 79.9738113509837,23.9444131622121,0 79.9738118427715,23.9444154675308,0 79.9738122034456,23.9444177932367,0 79.9738124320298,23.9444201330351,0 79.9738125279054,23.9444224805931,0 79.9738124908128,23.944424829557,0 79.9738123208525,23.944427173569,0 79.9738120184844,23.9444295062851,0 79.973811584527,23.9444318213914,0 79.9738058845362,23.9444581213935,0 79.9738053095481,23.94446045098,0 79.9738046013246,23.9444627493605,0 79.9738037618475,23.944465010103,0 79.9738027934662,23.9444672268807,0 79.9738016988907,23.94446939349,0 79.9738004811842,23.9444715038677,0 79.9737991437543,23.9444735521078,0 79.973797690344,23.9444755324783,0 79.9737961250205,23.9444774394371,0 79.9737944521644,23.9444792676477,0 79.9737926764573,23.9444810119937,0 79.9737908028684,23.9444826675937,0 79.9737888366409,23.9444842298143,0 79.9737867832774,23.9444856942838,0 79.9737846485243,23.9444870569037,0 79.9737824383556,23.9444883138608,0 79.9737801589565,23.9444894616376,0 79.9737778167058,23.9444904970218,0 79.9737754181585,23.9444914171161,0 79.9737729700269,23.9444922193455,0 79.973770479162,23.944492901465,0 79.9737679525345,23.9444934615657,0 79.9737653972153,23.94449389808,0 79.9737628203554,23.9444942097865,0 79.9737602291661,23.9444943958128,0 79.973757630899,23.9444944556384,0 79.9737550328252,23.9444943890957,0 79.9737524422156,23.9444941963711,0 79.9737498663198,23.9444938780038,0 79.9737473123467,23.9444934348849,0 79.9737447874435,23.9444928682543,0 79.9737422986762,23.9444921796978,0 79.9737398530095,23.9444913711424,0 79.9737374572877,23.9444904448508,0 79.9737351182153,23.9444894034152,0 79.973732842338,23.94448824975,0 79.9737306360251,23.9444869870839,0 79.9737285054509,23.9444856189503,0 79.9737264565777,23.9444841491781,0 79.9737244951393,23.9444825818804,0 79.9737226266249,23.9444809214432,0 79.9737208562635,23.9444791725134,0 79.9737191890095,23.9444773399852,0 79.9737176295286,23.9444754289871,0 79.9737161821851,23.9444734448669,0 79.9737148510293,23.9444713931773,0 79.9737065053356,23.9444577204405,0 79.9737025385689,23.9444705757184,0 79.9737011023536,23.944488767865,0 79.9737008506548,23.9444911091556,0 79.9737004666176,23.9444934352197,0 79.9736999512846,23.9444957397429,0 79.9736993060547,23.9444980164694,0 79.9736985326794,23.9445002592187,0 79.9736976332582,23.9445024619028,0 79.9736966102325,23.9445046185421,0 79.9736954663795,23.9445067232824,0 79.9736942048043,23.94450877041,0 79.9736928289315,23.9445107543679,0 79.973691342496,23.9445126697704,0 79.973689749533,23.9445145114179,0 79.9736880543667,23.9445162743112,0 79.9736862615988,23.9445179536647,0 79.9736849604291,23.9445190517763,0 79.9736860470112,23.9445201679969,0 79.973687634726,23.9445219785613,0 79.9736891189205,23.9445238618475,0 79.9736904956587,23.944525812861,0 79.9736917612895,23.9445278264277,0 79.9736929124563,23.9445298972077,0 79.9736939461064,23.9445320197091,0 79.9736948594983,23.9445341883032,0 79.9736956502099,23.9445363972389,0 79.9736963161441,23.9445386406579,0 79.9736968555348,23.9445409126108,0 79.9736972669517,23.9445432070723,0 79.9736975493035,23.9445455179575,0 79.9736985635166,23.9445563204645,0 79.9737020292592,23.9445545794951,0 79.9737053964979,23.9445354049779,0 79.973705869012,23.9445330974189,0 79.9737064713989,23.9445308155543,0 79.9737072020297,23.9445285655542,0 79.973708058929,23.9445263535023,0 79.9737090397797,23.94452418538,0 79.9737101419297,23.9445220670497,0 79.9737113623987,23.9445200042393,0 79.9737126978867,23.9445180025264,0 79.9737141447827,23.9445160673236,0 79.9737156991743,23.9445142038635,0 79.9737173568585,23.9445124171848,0 79.973719113353,23.9445107121186,0 79.9737209639085,23.9445090932753,0 79.9737229035211,23.9445075650321,0 79.9737249269461,23.9445061315212,0 79.9737270287125,23.9445047966189,0 79.9737292031372,23.9445035639346,0 79.9737314443405,23.9445024368014,0 79.9737337462626,23.944501418267,0 79.9737361026791,23.9445005110855,0 79.9737385072184,23.9444997177097,0 79.9737409533788,23.9444990402851,0 79.973743434546,23.9444984806432,0 79.9737459440112,23.9444980402972,0 79.9737484749889,23.944497720438,0 79.9737510206354,23.9444975219303,0 79.9737535740675,23.9444974453109,0 79.973756128381,23.944497490787,0 79.9737586766691,23.9444976582356,0 79.9737612120413,23.9444979472039,0 79.9737637276423,23.9444983569107,0 79.9737662166699,23.944498886248,0 79.9737686723941,23.9444995337845,0 79.9737710881747,23.9445002977695,0 79.9737734574795,23.9445011761371,0 79.9737757739022,23.9445021665122,0 79.9737780311792,23.9445032662169,0 79.973780223207,23.9445044722778,0 79.9737823440586,23.9445057814337,0 79.9737843879993,23.9445071901448,0 79.9737863495023,23.9445086946019,0 79.9737882232639,23.9445102907371,0 79.9737900042176,23.9445119742346,0 79.9737916875478,23.9445137405422,0 79.9737932687028,23.9445155848841,0 79.9737947434073,23.9445175022732,0 79.9737961076738,23.944519487525,0 79.9737973578134,23.9445215352715,0 79.9737984904457,23.9445236399758,0 79.9737995025083,23.9445257959468,0 79.9738003912646,23.944527997355,0 79.9738011543113,23.9445302382479,0 79.9738017895853,23.9445325125662,0 79.9738022953689,23.9445348141603,0 79.9738026702943,23.9445371368069,0 79.9738029133479,23.9445394742256,0 79.9738030238723,23.9445418200963,0 79.9738030015688,23.9445441680758,0 79.9738028464977,23.9445465118153,0 79.9737957680724,23.9446213271363,0 79.9737955096549,23.9446293381728,0 79.9737953694706,23.9446316612626,0 79.9737950992793,23.9446339746322,0 79.9737946997985,23.9446362721401,0 79.9737941720886,23.9446385476866,0 79.9737935175507,23.9446407952306,0 79.9737927379224,23.9446430088051,0 79.9737918352736,23.9446451825334,0 79.9737908120006,23.9446473106445,0 79.9737896708201,23.9446493874887,0 79.9737884147617,23.9446514075522,0 79.9737870471602,23.944653365472,0 79.9737855716462,23.9446552560501,0 79.9737847513387,23.944656200329,0 79.9737852504457,23.9446564719711,0 79.9737874267531,23.9446578050984,0 79.9737895227905,23.9446592427755,0 79.9737915326184,23.9446607809284,0 79.9737934505414,23.9446624151984,0 79.9737952711246,23.9446641409545,0 79.973796989209,23.9446659533064,0 79.9737985999262,23.9446678471183,0 79.9738000987117,23.9446698170238,0 79.9738014813184,23.9446718574407,0 79.9738027438284,23.9446739625869,0 79.9738063438301,23.944680362586,0 79.9738074347039,23.9446824291201,0 79.9738084098317,23.9446845439631,0 79.9738092666904,23.9446867016429,0 79.9738100030632,23.9446888965769,0 79.9738106170445,23.944691123086,0 79.9738111070459,23.9446933754091,0 79.9738114717996,23.9446956477189,0 79.9738117103616,23.9446979341358,0 79.9738151972306,23.9447435314284,0 79.9738194615217,23.9447558125738,0 79.9738282771552,23.9447705847075,0 79.9738294256048,23.9447726312229,0 79.9738304590493,23.9447747288853,0 79.9738313748014,23.9447768722401,0 79.9738321704798,23.9447790557134,0 79.9738328440152,23.9447812736275,0 79.9738333936563,23.9447835202148,0 79.9738338179738,23.9447857896333,0 79.9738341158641,23.9447880759814,0 79.9738342865528,23.9447903733137,0 79.9738343295959,23.9447926756563,0 79.9738342448814,23.944794977022,0 79.9738340326297,23.9447972714264,0 79.9738309226699,23.9448230757689,0 79.9738346504267,23.9448549783273,0 79.9738348544074,23.9448572743105,0 79.9738349307217,23.944859576867,0 79.9738351263792,23.944895966605,0 79.9738364904087,23.9449266570078,0 79.9738365283061,23.9449290024462,0 79.9738364336318,23.9449313465288,0 79.9738362066412,23.9449336829301,0 79.973835847947,23.9449360053454,0 79.9738353585169,23.9449383075077,0 79.9738347396718,23.9449405832047,0 79.9738339930815,23.9449428262954,0 79.9738331207607,23.9449450307269,0 79.9738321250634,23.9449471905506,0 79.9738310086763,23.9449492999383,0 79.9738297746121,23.9449513531977,0 79.9738284262009,23.9449533447883,0 79.9738269670813,23.9449552693358,0 79.9738254011906,23.9449571216467,0 79.9738244024947,23.9449581841754,0 79.9738259852631,23.9449598011728,0 79.9738276244294,23.9449616660243,0 79.9738291536002,23.9449636082022,0 79.9738305684654,23.944965622232,0 79.9738318650369,23.9449677024371,0 79.9738330396603,23.9449698429541,0 79.9738340890247,23.9449720377496,0 79.9738350101723,23.9449742806373,0 79.9738358005067,23.9449765652953,0 79.9738364578002,23.9449788852842,0 79.9738369802002,23.9449812340645,0 79.9738373662343,23.9449836050161,0 79.9738376148143,23.944985991456,0 79.9738377252395,23.9449883866578,0 79.9738376971987,23.9449907838703,0 79.973837530771,23.9449931763366,0 79.9738332307872,23.9450367763385,0 79.9738329293667,23.9450391386793,0 79.9738324930218,23.9450414831557,0 79.973831922963,23.9450438032629,0 79.973831220772,23.9450460925636,0 79.9738303883972,23.945048344706,0 79.9738294281478,23.9450505534415,0 79.9738283426882,23.9450527126417,0 79.9738271350301,23.9450548163159,0 79.9738258085241,23.9450568586274,0 79.9738243668507,23.9450588339096,0 79.9738228140098,23.9450607366821,0 79.97382115431,23.9450625616655,0 79.9738195552771,23.9450641427082,0 79.9738200719351,23.9450645594453,0 79.9738219293246,23.9450662251789,0 79.9738236884259,23.9450679787259,0 79.973825344331,23.9450698151939,0 79.9738268924202,23.9450717294595,0 79.9738283283744,23.9450737161817,0 79.9738296481872,23.9450757698177,0 79.9738308481764,23.945077884638,0 79.9738319249942,23.9450800547424,0 79.9738328756362,23.9450822740763,0 79.9738336974502,23.9450845364479,0 79.9738343881433,23.9450868355452,0 79.9738349457886,23.9450891649539,0 79.9738353688302,23.9450915181751,0 79.9738356560878,23.9450938886433,0 79.9738358067601,23.9450962697451,0 79.9738358204266,23.9450986548372,0 79.9738347204446,23.9451464548382,0 79.9738345608908,23.9451492590937,0 79.9738342119956,23.9451520488122,0 79.9738318124748,23.9451670944924,0 79.973838856372,23.9452101091251,0 79.973846527064,23.9452546388892,0 79.9738468410174,23.9452567971956,0 79.9738470413965,23.945258966903,0 79.9738471277354,23.9452611429658,0 79.9738474899534,23.9452881274393,0 79.9738531719001,23.9453260380367,0 79.9738534229323,23.9453280436757,0 79.9738535761727,23.9453300576228,0 79.9738547308514,23.9453524004931,0 79.9738724740241,23.9453701436584,0 79.9738741637043,23.945371924706,0 79.973875749697,23.945373784553,0 79.9738772276592,23.9453757181063,0 79.9738785935435,23.9453777200711,0 79.9738798436096,23.945379784965,0 79.9738809744341,23.9453819071335,0 79.9738819829205,23.9453840807652,0 79.9738828663069,23.9453862999076,0 79.9738836221744,23.9453885584839,0 79.9738842484529,23.945390850309,0 79.9738847434275,23.9453931691069,0 79.9738851057428,23.9453955085277,0 79.9738853344064,23.945397862165,0 79.9738854287923,23.9454002235737,0 79.9738853886419,23.945402586287,0 79.9738852140652,23.9454049438348,0 79.9738849055403,23.9454072897612,0 79.973884463912,23.9454096176419,0 79.9738838903897,23.9454119211022,0 79.973883186544,23.9454141938343,0 79.9738823543022,23.9454164296142,0 79.9738813959434,23.9454186223196,0 79.973880314092,23.9454207659458,0 79.9738802680751,23.9454208458826,0 79.9738909062268,23.945421726279,0 79.9738934461437,23.945421997882,0 79.9738959672457,23.9454223905687,0 79.973898462704,23.9454229032756,0 79.9739009257591,23.9454235346138,0 79.9739033497395,23.9454242828733,0 79.9739057280794,23.9454251460272,0 79.9739080543365,23.9454261217376,0 79.9739103222099,23.9454272073615,0 79.9739125255566,23.9454283999585,0 79.9739146584084,23.945429696298,0 79.9739167149881,23.9454310928687,0 79.973918689725,23.9454325858879,0 79.9739205772703,23.9454341713113,0 79.9739223725112,23.9454358448445,0 79.9739240705849,23.9454376019546,0 79.973925666892,23.9454394378819,0 79.9739271571084,23.9454413476537,0 79.9739285371978,23.9454433260969,0 79.9739298034218,23.9454453678527,0 79.9739309523507,23.9454474673904,0 79.9739319808724,23.9454496190231,0 79.9739328862009,23.9454518169228,0 79.973933665884,23.945454055136,0 79.9739343178098,23.9454563276001,0 79.9739348402124,23.9454586281598,0 79.9739352316767,23.9454609505836,0 79.9739354911424,23.9454632885807,0 79.9739356179068,23.9454656358183,0 79.9739356116263,23.9454679859384,0 79.9739354723181,23.9454703325754,0 79.9739352003595,23.9454726693729,0 79.973934796487,23.9454749900012,0 79.9739342617947,23.9454772881747,0 79.9739335977309,23.9454795576681,0 79.9739328060943,23.9454817923342,0 79.9739318890291,23.94548398612,0 79.9739308490195,23.9454861330832,0 79.9739296888824,23.9454882274084,0 79.9739284117603,23.9454902634227,0 79.9739270211126,23.9454922356112,0 79.9739255207059,23.9454941386318,0 79.9739239146046,23.9454959673299,0 79.9739222071589,23.9454977167521,0 79.9739204029938,23.9454993821598,0 79.9739185069962,23.9455009590419,0 79.9739165243018,23.9455024431272,0 79.973914460281,23.9455038303956,0 79.9739123205247,23.9455051170896,0 79.9739101108287,23.945506299724,0 79.9739078371784,23.9455073750952,0 79.9739055057325,23.9455083402905,0 79.973903122806,23.9455091926955,0 79.9739006948536,23.9455099300013,0 79.9738800375355,23.9455156595855,0 79.9738802096095,23.9455160786353,0 79.973880997245,23.9455183542977,0 79.9738816528817,23.9455206650472,0 79.9738821746861,23.9455230044213,0 79.9738825611987,23.9455253658774,0 79.9738826608232,23.9455263125509,0 79.9738977690368,23.9455211124334,0 79.9739001975359,23.9455203424771,0 79.9739026665036,23.9455196902364,0 79.9739051691901,23.9455191574946,0 79.9739076987532,23.945518745708,0 79.9739102482772,23.9455184560025,0 79.9739128107921,23.9455182891701,0 79.973915379292,23.9455182456669,0 79.973917946755,23.9455183256118,0 79.9739205061618,23.9455185287863,0 79.9739230505153,23.945518854635,0 79.9739255728594,23.9455193022669,0 79.9739280662981,23.9455198704582,0 79.9739305240148,23.9455205576557,0 79.9739329392901,23.9455213619806,0 79.9739353055209,23.9455222812338,0 79.9739376162382,23.9455233129023,0 79.9739398651247,23.9455244541656,0 79.973942046032,23.9455257019035,0 79.9739441529978,23.9455270527048,0 79.9739461802618,23.9455285028766,0 79.9739481222816,23.9455300484542,0 79.973949973748,23.9455316852122,0 79.9739517295991,23.9455334086757,0 79.9739533850346,23.945535214133,0 79.9739549355287,23.9455370966481,0 79.9739563768425,23.9455390510743,0 79.9739577050355,23.9455410720685,0 79.9739589164765,23.9455431541054,0 79.9739600078536,23.945545291493,0 79.9739609761831,23.9455474783876,0 79.9739618188175,23.9455497088107,0 79.9739625334532,23.9455519766643,0 79.9739631181365,23.9455542757484,0 79.9739635712688,23.9455565997775,0 79.9739638916113,23.9455589423978,0 79.9739640782883,23.9455612972048,0 79.9739641307893,23.9455636577608,0 79.9739637308137,23.9456280577617,0 79.9739636505029,23.9456303936377,0 79.9739634388053,23.9456327225664,0 79.9739630962879,23.9456350383095,0 79.9739626238683,23.9456373346641,0 79.9739620228118,23.9456396054791,0 79.9739612947283,23.945641844672,0 79.9739604415683,23.9456440462448,0 79.9739594656168,23.9456462043003,0 79.9739583694882,23.9456483130581,0 79.9739571561184,23.9456503668695,0 79.9739558287576,23.9456523602333,0 79.9739543909614,23.94565428781,0 79.9739528465809,23.9456561444363,0 79.973951199753,23.9456579251392,0 79.9739494548888,23.9456596251488,0 79.9739476166621,23.9456612399115,0 79.9739456899969,23.9456627651019,0 79.9739436800539,23.9456641966347,0 79.9739415922169,23.9456655306754,0 79.9739394320784,23.9456667636505,0 79.9739372054246,23.9456678922576,0 79.9739349182198,23.9456689134733,0 79.9739325765906,23.9456698245624,0 79.9739301868091,23.9456706230844,0 79.9739277552767,23.9456713069003,0 79.9739252885066,23.9456718741785,0 79.9739229110437,23.9456723021684,0 79.973922967691,23.9456723239663,0 79.9739253104991,23.945673362649,0 79.9739275902128,23.9456745138326,0 79.973929800442,23.9456757742904,0 79.9739319349918,23.9456771404896,0 79.9739339878793,23.9456786086006,0 79.9739359533504,23.9456801745087,0 79.9739378258962,23.9456818338248,0 79.973939600268,23.9456835818979,0 79.9739412714924,23.9456854138283,0 79.9739428348853,23.9456873244815,0 79.9739442860645,23.9456893085019,0 79.9739456209626,23.9456913603287,0 79.973946835838,23.9456934742107,0 79.9739479272854,23.945695644223,0 79.9739488922458,23.9456978642832,0 79.9739497280143,23.9457001281687,0 79.9739504322484,23.9457024295341,0 79.9739510029742,23.945704761929,0 79.973951438592,23.9457071188157,0 79.9739644386231,23.9457908188127,0 79.9739647212208,23.9457930249434,0 79.973964885429,23.9457952411777,0 79.9739649308504,23.9457974621524,0 79.9739648573749,23.9457996824927,0 79.9739635573831,23.9458213824934,0 79.9739633511484,23.9458237186158,0 79.9739630133032,23.9458260417563,0 79.9739625447575,23.9458283456562,0 79.9739619467736,23.9458306241083,0 79.9739612209627,23.9458328709744,0 79.9739603692801,23.9458350802011,0 79.9739593940203,23.9458372458365,0 79.9739582978108,23.9458393620461,0 79.9739570836049,23.9458414231286,0 79.9739557546739,23.9458434235312,0 79.9739543145979,23.9458453578646,0 79.9739527672568,23.9458472209175,0 79.9739511168192,23.9458490076706,0 79.9739493677316,23.9458507133101,0 79.9739475247063,23.9458523332409,0 79.9739455927085,23.9458538630986,0 79.9739435769434,23.9458552987618,0 79.9739414828415,23.9458566363625,0 79.9739393160448,23.9458578722971,0 79.9739370823907,23.9458590032357,0 79.9739347878969,23.9458600261317,0 79.9739324387452,23.945860938229,0 79.9739300412645,23.9458617370705,0 79.9739276019137,23.945862420504,0 79.9739251272648,23.9458629866882,0 79.9739226239848,23.9458634340978,0 79.9739200988179,23.9458637615273,0 79.9739175585671,23.9458639680947,0 79.9739150100761,23.9458640532434,0 79.973912460211,23.9458640167441,0 79.9739099158412,23.945863858695,0 79.9739073838218,23.945863579522,0 79.9739048709742,23.9458631799771,0 79.9739023840683,23.9458626611369,0 79.9738999298041,23.9458620243991,0 79.9738975147938,23.9458612714792,0 79.9738951455436,23.9458604044056,0 79.9738928284366,23.9458594255144,0 79.9738905697153,23.9458583374427,0 79.9738883754651,23.945857143122,0 79.9738862515974,23.9458558457699,0 79.9738842038342,23.9458544488817,0 79.9738822376924,23.9458529562206,0 79.9738803584691,23.9458513718082,0 79.973878571227,23.945849699913,0 79.9738768807813,23.9458479450392,0 79.9738752916861,23.9458461119148,0 79.9738738082227,23.9458442054784,0 79.9738724343877,23.945842230866,0 79.9738711738823,23.9458401933977,0 79.9738700301025,23.9458380985625,0 79.9738690061298,23.9458359520042,0 79.9738681047229,23.9458337595058,0 79.9738673283102,23.9458315269743,0 79.9738666789835,23.9458292604242,0 79.9738661584922,23.945826965962,0 79.9738648400202,23.9458202911856,0 79.9738312891157,23.945797529079,0 79.973831236447,23.9457976485243,0 79.9738301482177,23.945799787774,0 79.9738289397908,23.9458018718106,0 79.9738276144715,23.9458038949343,0 79.9738261758845,23.9458058516119,0 79.9738246279641,23.9458077364918,0 79.9738229749441,23.9458095444191,0 79.9738212213453,23.9458112704489,0 79.9738193719638,23.9458129098608,0 79.9738174318576,23.9458144581709,0 79.9738154063329,23.9458159111447,0 79.9738133009295,23.9458172648082,0 79.9738111214055,23.9458185154592,0 79.9738088737219,23.9458196596773,0 79.9738065640261,23.945820694333,0 79.9738041986352,23.9458216165965,0 79.9738017840182,23.9458224239455,0 79.9737993267793,23.9458231141719,0 79.973796833639,23.9458236853879,0 79.9737943114157,23.9458241360313,0 79.9737930114153,23.9458243360314,0 79.9737905067666,23.9458246606873,0 79.9737879872573,23.9458248664409,0 79.9737854595653,23.945824952747,0 79.9737829303902,23.9458249193767,0 79.9737804064355,23.9458247664185,0 79.9737778943909,23.9458244942779,0 79.9737754009145,23.9458241036761,0 79.9737729326153,23.9458235956484,0 79.9737704960353,23.9458229715414,0 79.9737680976328,23.9458222330091,0 79.9737657437646,23.9458213820092,0 79.9737634406696,23.945820420797,0 79.9737611944521,23.9458193519204,0 79.9737590110656,23.9458181782123,0 79.9737568962973,23.9458169027837,0 79.9737548557521,23.945815529015,0 79.9737528948386,23.9458140605473,0 79.9737510187541,23.9458125012729,0 79.9737492324711,23.9458108553245,0 79.9737276869076,23.9457899529075,0 79.9737271465364,23.9457906701639,0 79.9737255712445,23.94579254317,0 79.9737238913133,23.9457943377249,0 79.9737221113601,23.9457960488963,0 79.9737202362772,23.9457976719809,0 79.9737182712183,23.9457992025178,0 79.9737162215843,23.9458006363001,0 79.9737140930087,23.9458019693872,0 79.9737118913418,23.9458031981151,0 79.973709622635,23.9458043191064,0 79.9737072931239,23.9458053292803,0 79.9737049092112,23.9458062258602,0 79.9737022205084,23.9458071622248,0 79.973702982826,23.9458084759778,0 79.9737041402846,23.9458107719215,0 79.9737051559931,23.9458131238492,0 79.9737060267619,23.9458155243753,0 79.97371392677,23.9458395243732,0 79.9737146149995,23.9458418345769,0 79.9737151689754,23.9458441750707,0 79.9737155871391,23.9458465392694,0 79.973715868314,23.9458489205209,0 79.973716011709,23.9458513121253,0 79.9737160169207,23.9458537073533,0 79.9737158839343,23.9458560994656,0 79.973715613124,23.9458584817316,0 79.9737152052517,23.9458608474485,0 79.9737146614652,23.9458631899599,0 79.9737139832943,23.9458655026749,0 79.9737131726473,23.9458677790862,0 79.973712231805,23.9458700127888,0 79.9737111634146,23.9458721974979,0 79.9737099704821,23.9458743270663,0 79.9737086563642,23.9458763955024,0 79.9737072247582,23.945878396986,0 79.9737056796921,23.9458803258859,0 79.9737040255134,23.9458821767747,0 79.9737022668762,23.9458839444447,0 79.9737004087288,23.9458856239222,0 79.9736984562993,23.9458872104818,0 79.9736964150812,23.9458886996594,0 79.9736942908178,23.9458900872651,0 79.973692089486,23.9458913693945,0 79.9736833835153,23.9458961474202,0 79.9736844556156,23.9458975105243,0 79.9736858476085,23.9458994903182,0 79.9736871252955,23.9459015341753,0 79.9736882851951,23.9459036365261,0 79.9736893241464,23.9459057916417,0 79.9736902393185,23.9459079936496,0 79.9736910282174,23.9459102365494,0 79.9736916886934,23.9459125142291,0 79.9736922189467,23.9459148204823,0 79.9736926175325,23.9459171490244,0 79.9736928833645,23.9459194935103,0 79.9736930157185,23.9459218475513,0 79.9736939157308,23.9459542475514,0 79.9736939126024,23.9459566600573,0 79.9736937692877,23.9459590689665,0 79.9736934861958,23.9459614674031,0 79.9736930641346,23.945963848521,0 79.9736925043089,23.9459662055236,0 79.9736918083167,23.945968531683,0 79.9736879801591,23.9459801073148,0 79.9736827429563,23.9459995211099,0 79.9736957559877,23.9460167442315,0 79.9736971629743,23.9460187142198,0 79.9736984562253,23.9460207489854,0 79.9736996322189,23.9460228429867,0 79.9737006877524,23.9460249905212,0 79.9737016199512,23.9460271857402,0 79.9737024262765,23.9460294226655,0 79.9737031045324,23.946031695205,0 79.9737036528719,23.9460339971699,0 79.9737040698016,23.9460363222911,0 79.9737043541859,23.9460386642364,0 79.9737045052505,23.9460410166278,0 79.9737045225839,23.9460433730591,0 79.973704406139,23.9460457271127,0 79.9737041562327,23.9460480723778,0 79.9737037735458,23.9460504024673,0 79.9737032591203,23.9460527110355,0 79.9737026143573,23.9460549917955,0 79.9737018410126,23.9460572385359,0 79.9737009411924,23.9460594451379,0 79.9736999173471,23.9460616055923,0 79.9736989329854,23.9460634180834,0 79.9737028394615,23.9460683208393,0 79.9737043042095,23.9460702638651,0 79.9737045525808,23.9460706332345,0 79.9739426981004,23.9460035278688,0 79.9739451436751,23.9460029017944,0 79.9739476211715,23.9460023926554,0 79.9739501239752,23.9460020018111,0 79.9739526454038,23.946001730305,0 79.9739551787257,23.946001578862,0 79.9739577171771,23.9460015478864,0 79.9739602539807,23.9460016374609,0 79.9739627823636,23.9460018473463,0 79.9739652955753,23.9460021769824,0 79.973967786906,23.9460026254889,0 79.9739702497041,23.9460031916686,0 79.9739726773943,23.9460038740096,0 79.973975063495,23.9460046706904,0 79.9739774016355,23.9460055795837,0 79.9739796855734,23.9460065982631,0 79.9739819092109,23.9460077240088,0 79.9739840666112,23.9460089538152,0 79.9739861520142,23.9460102843989,0 79.9739881598523,23.9460117122074,0 79.9739900847648,23.9460132334287,0 79.9739919216124,23.9460148440012,0 79.973993665491,23.946016539625,0 79.9739953117446,23.946018315773,0 79.973996855978,23.9460201677031,0 79.9739982940683,23.946022090471,0 79.973999622176,23.946024078943,0 79.9740008367551,23.9460261278102,0 79.974001934563,23.9460282316025,0 79.9740029126686,23.946030384703,0 79.9740037684605,23.9460325813631,0 79.9740044996538,23.9460348157182,0 79.9740051042964,23.9460370818027,0 79.9740055807738,23.9460393735666,0 79.9740059278141,23.9460416848911,0 79.9740061444906,23.9460440096052,0 79.9740062302249,23.9460463415024,0 79.9740061847879,23.9460486743568,0 79.974005284795,23.9460675743573,0 79.9740051012805,23.9460699689022,0 79.9740047795715,23.9460723511007,0 79.9740043205771,23.9460747142206,0 79.9740037255944,23.9460770515838,0 79.9740029963048,23.9460793565851,0 79.9740021347693,23.9460816227103,0 79.9740011434225,23.9460838435556,0 79.974000025066,23.9460860128447,0 79.9739987828603,23.9460881244474,0 79.9739974203158,23.9460901723962,0 79.973995941283,23.9460921509037,0 79.9739943499417,23.9460940543786,0 79.973992650789,23.9460958774417,0 79.9739908486266,23.946097614941,0 79.9739889485475,23.9460992619664,0 79.9739869559213,23.9461008138635,0 79.9739848763791,23.9461022662465,0 79.9739827157976,23.946103615011,0 79.9739804802827,23.9461048563455,0 79.9738432995644,23.9461765260977,0 79.9738800284395,23.946189586462,0 79.9738824249503,23.946190506276,0 79.9738847652292,23.946191541191,0 79.9738870427372,23.9461926883154,0 79.9738892511105,23.946193944444,0 79.9738913841786,23.9461953060669,0 79.9738934359815,23.9461967693796,0 79.9738954007862,23.9461983302933,0 79.9738972731026,23.9461999844468,0 79.9738990476993,23.9462017272179,0 79.9739007196178,23.9462035537373,0 79.9739022841865,23.9462054589013,0 79.9739037370338,23.9462074373867,0 79.9739050741003,23.9462094836652,0 79.9739062916499,23.9462115920193,0 79.9739073862806,23.946213756558,0 79.973908354934,23.9462159712332,0 79.9739091949034,23.9462182298568,0 79.9739099038418,23.946220526118,0 79.9739104797684,23.9462228536005,0 79.973910921074,23.9462252058012,0 79.9739112265253,23.9462275761476,0 79.9739113952691,23.9462299580166,0 79.9739114268337,23.9462323447531,0 79.973911321131,23.946234729688,0 79.9739110784563,23.9462371061575,0 79.9739106994877,23.9462394675215,0 79.973910185284,23.946241807182,0 79.973909537282,23.9462441186016,0 79.9739087572923,23.9462463953218,0 79.9739078474944,23.9462486309813,0 79.9739068104302,23.9462508193332,0 79.9739056489976,23.946252954263,0 79.9739043664416,23.9462550298054,0 79.973902966346,23.946257040161,0 79.9739014526228,23.9462589797127,0 79.9738998295016,23.9462608430409,0 79.9738981015175,23.9462626249393,0 79.9738962734989,23.9462643204291,0 79.9738943505534,23.9462659247728,0 79.9738923380541,23.9462674334876,0 79.9738902416241,23.9462688423579,0 79.9738880671212,23.9462701474472,0 79.9738858206213,23.9462713451089,0 79.9738835084013,23.9462724319965,0 79.9738811369221,23.9462734050731,0 79.9738787128097,23.9462742616197,0 79.9738762428376,23.9462749992432,0 79.9738737339072,23.9462756158824,0 79.9738711930288,23.9462761098144,0 79.973868627302,23.946276479659,0 79.9738660438958,23.9462767243829,0 79.9737820438667,23.9462826243839,0 79.9737790309243,23.9462827506758,0 79.9737760152275,23.9462827068215,0 79.9736812874551,23.9462786537932,0 79.9736720645472,23.9462802631593,0 79.9736695589262,23.9462806390203,0 79.9736670355254,23.946280895425,0 79.9736645010825,23.9462810316889,0 79.9736619623646,23.946281047448,0 79.9736594261502,23.9462809426602,0 79.9736568992113,23.9462807176055,0 79.9736543882949,23.9462803728847,0 79.9736519001053,23.9462799094182,0 79.9736494412863,23.9462793284436,0 79.9736470184029,23.946278631512,0 79.9736446379246,23.9462778204843,0 79.9736423062073,23.9462768975261,0 79.9736400294769,23.9462758651016,0 79.9736378138123,23.9462747259675,0 79.9736356651297,23.9462734831655,0 79.9736335891661,23.9462721400138,0 79.9736315914645,23.9462707000988,0 79.9736296773589,23.9462691672652,0 79.97362785196,23.9462675456057,0 79.9736261201419,23.9462658394503,0 79.9736244865286,23.9462640533544,0 79.9736229554819,23.9462621920872,0 79.9736215310899,23.9462602606184,0 79.9736202171557,23.946258264105,0 79.9736190171877,23.946256207878,0 79.9736179343898,23.9462540974276,0 79.9736169716533,23.9462519383888,0 79.9736161315485,23.9462497365264,0 79.9736154163188,23.9462474977196,0 79.9736148278738,23.9462452279461,0 79.9736143677846,23.9462429332663,0 79.9736140372798,23.9462406198073,0 79.9736138372418,23.9462382937461,0 79.9736137682047,23.9462359612934,0 79.9736137656498,23.9462342312247,0 79.9736124319042,23.9462340859655,0 79.9736098748076,23.9462336806805,0 79.9736073445585,23.9462331518833,0 79.9736048482147,23.9462325010489,0 79.9736023927392,23.9462317299926,0 79.973599984981,23.9462308408651,0 79.9735989824822,23.9462304128625,0 79.97361498346,23.9462606504271,0 79.9736160506505,23.9462628095043,0 79.9736169930404,23.946265017096,0 79.9736178080305,23.9462672671135,0 79.9736184933731,23.9462695533514,0 79.9736190471781,23.9462718695042,0 79.973619467918,23.946274209184,0 79.9736197544324,23.946276565938,0 79.9736199059312,23.9462789332663,0 79.9736199219965,23.9462813046399,0 79.9736198025839,23.9462836735185,0 79.9736195480228,23.9462860333688,0 79.9736191590153,23.9462883776824,0 79.9736186366343,23.9462906999937,0 79.9736179823204,23.9462929938977,0 79.9736171978783,23.9462952530679,0 79.9736162854713,23.9462974712736,0 79.973615247616,23.9462996423969,0 79.9736140871747,23.94630176045,0 79.9736128073479,23.9463038195912,0 79.9736114116652,23.9463058141416,0 79.9736099039761,23.9463077386,0 79.9736082884387,23.9463095876589,0 79.9736065695086,23.9463113562187,0 79.9736047519266,23.9463130394016,0 79.9736028407055,23.9463146325654,0 79.9736008411165,23.9463161313163,0 79.9735987586745,23.9463175315206,0 79.9735965991227,23.9463188293167,0 79.9735943684172,23.9463200211252,0 79.9735920727103,23.9463211036591,0 79.9735897183335,23.9463220739328,0 79.9735873117801,23.9463229292703,0 79.9735848596874,23.9463236673127,0 79.9735823688182,23.9463242860243,0 79.9735798460423,23.9463247836988,0 79.9735772983176,23.9463251589635,0 79.9735747326706,23.9463254107837,0 79.9735721561773,23.9463255384646,0 79.9735695759436,23.9463255416542,0 79.973566999086,23.9463254203436,0 79.9735644327112,23.9463251748675,0 79.9735618838973,23.9463248059029,0 79.9735593596739,23.9463243144673,0 79.9735568670029,23.9463237019162,0 79.9735544127589,23.9463229699389,0 79.9735520037108,23.9463221205542,0 79.9735496465026,23.9463211561048,0 79.9735473476355,23.9463200792505,0 79.9735451134499,23.9463188929614,0 79.9735343390426,23.9463128197832,0 79.9735341656408,23.9463132047121,0 79.973533007212,23.9463154253073,0 79.9735317187874,23.9463175845579,0 79.9735303041989,23.9463196760417,0 79.9735287676539,23.9463216935381,0 79.9735271137225,23.9463236310466,0 79.9735253473239,23.9463254828046,0 79.9735234737117,23.9463272433045,0 79.9734844737103,23.946361943313,0 79.9734825776851,23.946363544003,0 79.9734805930316,23.9463650512148,0 79.9734785251991,23.9463664608097,0 79.9734763798655,23.9463677689173,0 79.9734741629216,23.9463689719457,0 79.9734718804547,23.9463700665918,0 79.9734695387319,23.9463710498498,0 79.9734671441832,23.9463719190198,0 79.9734647033836,23.9463726717153,0 79.973462223035,23.9463733058696,0 79.973459709948,23.9463738197413,0 79.9734571710231,23.9463742119195,0 79.9734546132317,23.9463744813273,0 79.9734520435969,23.9463746272249,0 79.9734494691746,23.9463746492119,0 79.9734468970335,23.9463745472277,0 79.9734443342364,23.9463743215525,0 79.9734417878201,23.9463739728059,0 79.9734392647766,23.9463735019454,0 79.9734367720338,23.946372910264,0 79.9734343164363,23.9463721993864,0 79.9734319047265,23.9463713712644,0 79.9734295435267,23.9463704281719,0 79.9734272393203,23.9463693726985,0 79.9734249984341,23.9463682077423,0 79.9734228270212,23.946366936502,0 79.9734207310438,23.9463655624683,0 79.9734187162573,23.946364089414,0 79.9734167881936,23.9463625213838,0 79.9734149521471,23.9463608626831,0 79.973413213159,23.9463591178666,0 79.9734115760043,23.9463572917251,0 79.9734100451783,23.9463553892729,0 79.9734086248844,23.9463534157337,0 79.9734073190225,23.9463513765265,0 79.9734061311781,23.9463492772506,0 79.9734050646128,23.9463471236701,0 79.9734041222553,23.9463449216985,0 79.973403306693,23.9463426773818,0 79.9734026201653,23.9463403968827,0 79.9734020645574,23.9463380864627,0 79.9734016413947,23.9463357524661,0 79.9734013518392,23.9463334013013,0 79.9734012874601,23.946332421267,0 79.9734001833598,23.9463334989441,0 79.9733983397585,23.9463351207682,0 79.9733964070161,23.9463366524233,0 79.9733943903469,23.9463380897769,0 79.9733922951921,23.946339428951,0 79.9733901272044,23.9463406663326,0 79.9733878922329,23.9463417985832,0 79.9733855963076,23.9463428226479,0 79.9733832456229,23.9463437357639,0 79.9733808465209,23.9463445354676,0 79.9733784054745,23.9463452196013,0 79.9733759290695,23.9463457863194,0 79.9733734239874,23.9463462340927,0 79.9733708969867,23.9463465617132,0 79.9733683548854,23.946346768297,0 79.973365804542,23.9463468532867,0 79.9733632528374,23.946346816453,0 79.9733628192103,23.9463467894498,0 79.9733525,23.9463705,0</coordinates></LinearRing></outerBoundaryIs></Polygon>
  </Placemark>
  
    </Document>
</kml>