<?xml version="1.0" encoding="UTF-8"?>
<kml xmlns="http://www.opengis.net/kml/2.2">
    <Document>
        <Placemark xmlns:ns0="http://www.opengis.net/kml/2.2">
	<Style><LineStyle><color>ff0000ff</color></LineStyle><PolyStyle><fill>0</fill></PolyStyle></Style>
	<ExtendedData><SchemaData schemaUrl="#Wave23_v27MAR2025">
		<SimpleData name="area(ha)">0.526650659430809</SimpleData>
		<SimpleData name="site_id">230030_1.1</SimpleData>
		<SimpleData name="Land_parc">230030</SimpleData>
		<SimpleData name="district">Chhatarpur</SimpleData>
		<SimpleData name="block">Bijawar</SimpleData>
		<SimpleData name="village">Patna</SimpleData>
		<SimpleData name="Land Type">Farmer</SimpleData>
		<SimpleData name="Instance">Wave 2023</SimpleData>
	</SchemaData></ExtendedData>
      <Polygon><outerBoundaryIs><LinearRing><coordinates>79.7910272019212,24.4092112379376,0 79.7910436813458,24.4093062787352,0 79.790805217044,24.4093993427894,0 79.7907305593352,24.4092941630717,0 79.790713828451,24.4092705921397,0 79.7906553145857,24.4093199288979,0 79.7906320900746,24.4092785929566,0 79.7906076366214,24.409235069662,0 79.7905924663601,24.4091600777316,0 79.7904884417107,24.4089587833824,0 79.7903384949067,24.4090416853451,0 79.7903384480725,24.4090466001032,0 79.7903297314278,24.4090465304526,0 79.7903063985743,24.4090594305971,0 79.790247884709,24.4091127143842,0 79.7901893708438,24.4091817859265,0 79.7902866,24.4093439,0 79.7902961,24.4093785,0 79.790305,24.4094087,0 79.7903278,24.4094652,0 79.7903806,24.4096204,0 79.7905135241035,24.4096504215101,0 79.7905848504795,24.4096426661903,0 79.7907051472031,24.4096446050203,0 79.7908698654143,24.4096731795434,0 79.7912274,24.4096793,0 79.791297445522,24.409686392883,0 79.7914008245728,24.4096968610937,0 79.7913336419868,24.4094896471986,0 79.7912144470761,24.4093199288979,0 79.7910926516934,24.4091104562305,0 79.7910309064724,24.4090561687497,0 79.7909542572326,24.4090910678472,0 79.7909885030876,24.4091420976798,0 79.7910245190358,24.4091957650818,0 79.7910272019212,24.4092112379376,0</coordinates></LinearRing></outerBoundaryIs></Polygon>
  </Placemark>
  
    </Document>
</kml>