<?xml version="1.0" encoding="UTF-8"?>
<kml xmlns="http://www.opengis.net/kml/2.2">
    <Document>
        <Placemark xmlns:ns0="http://www.opengis.net/kml/2.2">
	<Style><LineStyle><color>ff0000ff</color></LineStyle><PolyStyle><fill>0</fill></PolyStyle></Style>
	<ExtendedData><SchemaData schemaUrl="#Wave23_v27MAR2025">
		<SimpleData name="area(ha)">1.227066613362689</SimpleData>
		<SimpleData name="site_id">230099_1.1</SimpleData>
		<SimpleData name="Land_parc">230099</SimpleData>
		<SimpleData name="district">Damoh</SimpleData>
		<SimpleData name="block">Hatta</SimpleData>
		<SimpleData name="village">Surajpura</SimpleData>
		<SimpleData name="Land Type">Farmer</SimpleData>
		<SimpleData name="Instance">Wave 2023</SimpleData>
	</SchemaData></ExtendedData>
      <Polygon><outerBoundaryIs><LinearRing><coordinates>79.4929077164261,24.3852117845114,0 79.4928894719602,24.3852426597614,0 79.4928894719602,24.3853900189091,0 79.4928964890625,24.3854742241364,0 79.4929033081512,24.3855190352967,0 79.4929034650841,24.385519036858,0 79.4929034537544,24.385519992117,0 79.4929063130057,24.3855387814773,0 79.492910523267,24.3855864977727,0 79.4929175403693,24.3856384243295,0 79.4929175403693,24.3857226295568,0 79.4929189437898,24.3857731526932,0 79.4929547,24.3857894999999,0 79.4929719524702,24.3857906109608,0 79.4930203077866,24.3857910920188,0 79.493064899517,24.3857857834773,0 79.4931140192329,24.3857885903182,0 79.4931827868352,24.3857913971591,0 79.4932557646988,24.3857913971591,0 79.4933175151988,24.3857843800568,0 79.4933540041307,24.3857885903182,0 79.4933821646342,24.3857912395935,0 79.4935829792683,24.3857960208944,0 79.4935941484301,24.3857967996366,0 79.4936888898721,24.3857977417587,0 79.4936888227908,24.3858034005395,0 79.4940199960965,24.3858264901952,0 79.4941357093239,24.3857801697955,0 79.4941525503693,24.3856678961591,0 79.4941707948352,24.3855738669886,0 79.4941736016761,24.3855486054205,0 79.4941806187784,24.3855247472727,0 79.4941834256193,24.3854349283636,0 79.494186724485,24.3853861051811,0 79.4941871380316,24.3853512073579,0 79.4941890811402,24.3853512266731,0 79.4941904427216,24.38533107525,0 79.494191846142,24.3852580973864,0 79.4941889883183,24.3851914802839,0 79.4940402767329,24.3851935400454,0 79.4939701057102,24.3851205621818,0 79.4938943210057,24.3851079313977,0 79.4938242000001,24.3851224,0 79.4937201000001,24.3851057000001,0 79.4936830000001,24.3851039,0 79.4936548951755,24.3850986907352,0 79.4936432236586,24.3851342888618,0 79.493604973252,24.3851438514633,0 79.4935609852846,24.3851017760163,0 79.4935322974798,24.3850482254473,0 79.4935799888444,24.3850152034455,0 79.4936352,24.3849733000001,0 79.4936675000001,24.3849369999999,0 79.493654,24.3848562,0 79.4935901000001,24.3848484000001,0 79.4935373000001,24.384844,0 79.4935061,24.3848294000001,0 79.4934437,24.3848277,0 79.4932016000001,24.3847121,0 79.4931973000001,24.3847316,0 79.4931688,24.384761,0 79.4931788000001,24.3847721,0 79.4931095462606,24.3847686082153,0 79.4931074000001,24.3847685,0 79.4930708,24.3847628000001,0 79.4930009,24.3847577,0 79.4929049095852,24.3847739173295,0 79.4928992959034,24.3848497020341,0 79.4928922788011,24.3849325038409,0 79.4928936822216,24.3850026748636,0 79.492895085642,24.3850546014204,0 79.4928880685398,24.38514582375,0 79.4929077164261,24.3852117845114,0</coordinates></LinearRing></outerBoundaryIs></Polygon>
  </Placemark>
  
    </Document>
</kml>