<?xml version="1.0" encoding="UTF-8"?>
<kml xmlns="http://www.opengis.net/kml/2.2">
    <Document>
        <Placemark xmlns:ns0="http://www.opengis.net/kml/2.2">
	<Style><LineStyle><color>ff0000ff</color></LineStyle><PolyStyle><fill>0</fill></PolyStyle></Style>
	<ExtendedData><SchemaData schemaUrl="#Wave23_v27MAR2025">
		<SimpleData name="area(ha)">0.252876538897951</SimpleData>
		<SimpleData name="site_id">230048_1.1</SimpleData>
		<SimpleData name="Land_parc">230048</SimpleData>
		<SimpleData name="district">Chhatarpur</SimpleData>
		<SimpleData name="block">Bijawar</SimpleData>
		<SimpleData name="village">Tapran</SimpleData>
		<SimpleData name="Land Type">Farmer</SimpleData>
		<SimpleData name="Instance">Wave 2023</SimpleData>
	</SchemaData></ExtendedData>
      <Polygon><outerBoundaryIs><LinearRing><coordinates>79.7244521941461,24.4472400612264,0 79.7244656220413,24.4472645207235,0 79.7244680131822,24.4472688762898,0 79.7244704088357,24.4472679879238,0 79.7244727503592,24.4472669858864,0 79.7244750313215,24.4472658729296,0 79.7244772454581,24.4472646521101,0 79.7244793866879,24.4472633267809,0 79.7244814491299,24.447261900582,0 79.7244834271198,24.4472603774305,0 79.7244853152249,24.4472587615097,0 79.7244871082597,24.4472570572577,0 79.7244888012996,24.4472552693552,0 79.7244903896946,24.4472534027126,0 79.7244918690823,24.4472514624567,0 79.7244932353996,24.4472494539164,0 79.7244944848938,24.447247382608,0 79.7245234848817,24.4471961825992,0 79.7245245735798,24.4471941357941,0 79.72452554819,24.4471920413547,0 79.7245264062345,24.4471899046058,0 79.7245271455319,24.4471877309801,0 79.7245277642024,24.4471855260038,0 79.7245282473816,24.4471833550039,0 79.7245287044761,24.44718351392,0 79.7245311680328,24.4471842375563,0 79.7245336696533,24.4471848419334,0 79.7245362024534,24.447185325388,0 79.7245387594632,24.4471856865898,0 79.7245413336462,24.4471859245448,0 79.7245439179186,24.4471860385981,0 79.7245465051687,24.4471860284359,0 79.7245490882767,24.4471858940862,0 79.7245516601344,24.4471856359187,0 79.7245542136642,24.4471852546438,0 79.7245567418393,24.4471847513107,0 79.7245592377023,24.4471841273046,0 79.724561694385,24.4471833843426,0 79.7245641051269,24.4471825244693,0 79.7245664632939,24.4471815500509,0 79.7245687623968,24.4471804637689,0 79.7245709961086,24.4471792686126,0 79.7245731582826,24.447177967871,0 79.7245752429685,24.4471765651234,0 79.7245772444298,24.4471750642301,0 79.7245791571586,24.4471734693213,0 79.7245809758913,24.4471717847861,0 79.7245826956231,24.44717001526,0 79.7245843116214,24.4471681656125,0 79.7245858194392,24.4471662409337,0 79.7245872149273,24.44716424652,0 79.7245884942454,24.4471621878597,0 79.7245896538731,24.4471600706181,0 79.724589949686,24.4471594514567,0 79.724615052416,24.4471662793986,0 79.7246175451623,24.4471668929188,0 79.7246200695587,24.4471673862113,0 79.7246226186905,24.4471677579251,0 79.7246251855753,24.4471680070418,0 79.7246277631822,24.4471681328793,0 79.7246303444508,24.4471681350927,0 79.7246329223107,24.4471680136761,0 79.7246354897008,24.447167768962,0 79.7246380395889,24.4471674016207,0 79.7246405649904,24.4471669126583,0 79.724643058988,24.4471663034143,0 79.7246455147503,24.4471655755574,0 79.7246479255508,24.4471647310813,0 79.7246502847859,24.447163772299,0 79.7246525859935,24.4471627018369,0 79.7246548228703,24.4471615226271,0 79.7246821214186,24.447146247265,0 79.7247082153583,24.447132264851,0 79.7247103976131,24.4471310245408,0 79.7247125063681,24.4471296819063,0 79.724712646394,24.4471295824641,0 79.7247191703877,24.4471584066946,0 79.7247300367883,24.4472081529644,0 79.7247306087531,24.4472104562935,0 79.7247313115267,24.447212729087,0 79.7247321431853,24.4472149651239,0 79.7247331014527,24.4472171582841,0 79.7247341837061,24.4472193025647,0 79.7247353869832,24.4472213920967,0 79.7247367079905,24.4472234211607,0 79.7247381431124,24.4472253842031,0 79.7247396884208,24.447227275851,0 79.7247413396861,24.4472290909265,0 79.7247430923886,24.4472308244618,0 79.7247449417311,24.4472324717121,0 79.7247468826517,24.4472340281686,0 79.7247489098379,24.4472354895712,0 79.7247510177413,24.4472368519199,0 79.7247532005922,24.4472381114859,0 79.7247554524161,24.4472392648216,0 79.7247577670495,24.4472403087703,0 79.724760138157,24.4472412404745,0 79.7247625592488,24.4472420573841,0 79.7247650236981,24.4472427572631,0 79.7247675247594,24.447243338196,0 79.7247700555873,24.4472437985926,0 79.7247726092545,24.4472441371929,0 79.7247751787715,24.4472443530699,0 79.7247777571052,24.447244445633,0 79.7247803371986,24.4472444146287,0 79.7247829119898,24.4472442601418,0 79.7247854744312,24.4472439825952,0 79.7247880175094,24.4472435827486,0 79.7247905342635,24.4472430616965,0 79.7247930178052,24.4472424208648,0 79.7247954613367,24.4472416620078,0 79.7247978581698,24.4472407872024,0 79.7248002017443,24.447239798843,0 79.7248024856455,24.4472386996349,0 79.7248047036222,24.4472374925867,0 79.7248068496037,24.4472361810021,0 79.7248089177162,24.4472347684712,0 79.7248109022991,24.4472332588601,0 79.7248127979204,24.4472316563008,0 79.7248145993917,24.4472299651796,0 79.7248163017822,24.4472281901252,0 79.7248179004322,24.4472263359961,0 79.7248193909663,24.4472244078673,0 79.7248207693046,24.4472224110161,0 79.7248220316745,24.4472203509082,0 79.7248231746209,24.4472182331822,0 79.7248241950153,24.4472160636345,0 79.7248250900649,24.4472138482034,0 79.7248258573199,24.4472115929526,0 79.7248264946802,24.447209304055,0 79.7248398257039,24.4471555968115,0 79.7248405089001,24.4471569143855,0 79.7248417271624,24.4471589794497,0 79.7248430610027,24.4471609837714,0 79.7248445068168,24.4471629219347,0 79.7248460606978,24.4471647887025,0 79.724847718447,24.4471665790304,0 79.724849475585,24.4471682880807,0 79.7248513273637,24.4471699112353,0 79.7248532687793,24.4471714441084,0 79.7248552945859,24.4471728825578,0 79.7248573993096,24.4471742226966,0 79.724859577263,24.4471754609036,0 79.724861822561,24.4471765938331,0 79.7248641291365,24.4471776184236,0 79.7248664907569,24.4471785319067,0 79.7248689010407,24.4471793318139,0 79.7248713534751,24.4471800159837,0 79.7248738414331,24.4471805825676,0 79.724876358192,24.4471810300344,0 79.7248788969513,24.4471813571751,0 79.7248814508507,24.4471815631056,0 79.7248840129894,24.4471816472696,0 79.724886576444,24.4471816094396,0 79.7248891342878,24.4471814497178,0 79.7248916796091,24.4471811685359,0 79.7248942055301,24.4471807666535,0 79.7248967052255,24.4471802451567,0 79.7248991719407,24.4471796054546,0 79.7249015990103,24.4471788492758,0 79.7249039798761,24.4471779786635,0 79.7249063081046,24.4471769959704,0 79.7249085774046,24.4471759038516,0 79.7249107816442,24.4471747052584,0 79.7249129148672,24.4471734034294,0 79.7249149713094,24.4471720018824,0 79.724916945414,24.4471705044046,0 79.7249188318467,24.4471689150423,0 79.72492062551,24.4471672380902,0 79.7249223215573,24.4471654780797,0 79.7249360406467,24.4471504728222,0 79.7249465922983,24.4471447998909,0 79.7250006410544,24.447141339451,0 79.7250032285718,24.4471411109202,0 79.7250057993417,24.4471407579044,0 79.7250083462227,24.4471402813841,0 79.7250108621393,24.4471396826832,0 79.7250133401024,24.4471389634648,0 79.725015773228,24.447138125727,0 79.7250181547571,24.4471371717969,0 79.7250204780737,24.4471361043247,0 79.7250227367235,24.4471349262757,0 79.7250249244321,24.4471336409227,0 79.7250270351219,24.4471322518362,0 79.7250290629295,24.4471307628753,0 79.7250310022216,24.4471291781762,0 79.7250328476107,24.4471275021413,0 79.7250345939705,24.4471257394267,0 79.7250362364495,24.447123894929,0 79.7250377704849,24.4471219737725,0 79.7250391918151,24.447119981294,0 79.7250404964916,24.4471179230287,0 79.7250416808902,24.4471158046945,0 79.7250427417204,24.4471136321761,0 79.7250436760354,24.4471114115088,0 79.7250444812395,24.4471091488616,0 79.725045155096,24.4471068505202,0 79.7250456957328,24.4471045228695,0 79.7250461016481,24.4471021723755,0 79.7250463717143,24.4470998055681,0 79.725046505181,24.4470974290222,0 79.7250465016776,24.4470950493398,0 79.7250463612138,24.4470926731319,0 79.7250460841798,24.4470903069994,0 79.7250456713452,24.4470879575156,0 79.7250451238568,24.4470856312072,0 79.7250444432357,24.4470833345369,0 79.7250436313726,24.4470810738847,0 79.7250426905228,24.4470788555308,0 79.7250416233,24.4470766856378,0 79.7250404326691,24.4470745702336,0 79.7250391219376,24.4470725151949,0 79.7250376947466,24.4470705262306,0 79.7250361550611,24.4470686088659,0 79.7250345071582,24.4470667684275,0 79.7250327556157,24.4470650100279,0 79.7250309052996,24.4470633385522,0 79.72502896135,24.4470617586435,0 79.7250269291673,24.447060274691,0 79.7250248143967,24.447058890817,0 79.7250226229132,24.447057610866,0 79.7250203608048,24.4470564383937,0 79.7250180343555,24.4470553766572,0 79.7250156500283,24.447054428606,0 79.7250132144469,24.4470535968738,0 79.7250107343772,24.4470528837711,0 79.725008216709,24.447052291279,0 79.7249448167294,24.4470389912844,0 79.7249423058183,24.4470385270223,0 79.7249397719622,24.4470381827289,0 79.7249372219964,24.4470379593329,0 79.7249346627996,24.447037857437,0 79.7249321012753,24.447037877316,0 79.7249295443335,24.4470380189163,0 79.7249269988715,24.4470382818559,0 79.7249244717561,24.4470386654256,0 79.7249219698041,24.4470391685905,0 79.7249199354875,24.4470396803761,0 79.7249199805951,24.4470395302595,0 79.7249205344249,24.4470372201678,0 79.724920955351,24.4470348866969,0 79.7249212422181,24.4470325362497,0 79.7249213942393,24.447030175276,0 79.7249214109974,24.447027810254,0 79.7249212924463,24.4470254476736,0 79.7249210389114,24.4470230940176,0 79.7249206510885,24.4470207557443,0 79.7249201300416,24.4470184392701,0 79.7249194772006,24.4470161509513,0 79.7249186943568,24.447013897067,0 79.7249177836584,24.4470116838019,0 79.7249167476044,24.4470095172292,0 79.7249155890376,24.4470074032939,0 79.7249143111372,24.4470053477966,0 79.7249129174097,24.4470033563777,0 79.7249114116795,24.4470014345016,0 79.7249097980783,24.4469995874418,0 79.7249080810339,24.4469978202668,0 79.7249062652579,24.4469961378255,0 79.7249043557325,24.4469945447347,0 79.7249023576978,24.4469930453657,0 79.7249002766361,24.4469916438329,0 79.7248981182579,24.4469903439819,0 79.7248875263006,24.4469843229608,0 79.7249188030251,24.4469535601613,0 79.7249205150148,24.4469517851651,0 79.7249221229957,24.4469499304463,0 79.7249236225452,24.4469480011063,0 79.7249250095388,24.4469460024517,0 79.7249262801616,24.4469439399796,0 79.7249274309188,24.4469418193628,0 79.7249284586453,24.446939646434,0 79.7249293605145,24.4469374271698,0 79.7249301340456,24.4469351676742,0 79.7249307771113,24.4469328741617,0 79.7249312879427,24.4469305529407,0 79.7249316651348,24.4469282103956,0 79.7249319076503,24.4469258529694,0 79.7249320148221,24.4469234871461,0 79.7249319863553,24.4469211194329,0 79.7249318223284,24.4469187563421,0 79.7249315231925,24.4469164043732,0 79.7249310897704,24.4469140699952,0 79.724930523254,24.4469117596288,0 79.7249298252018,24.4469094796285,0 79.7249289975336,24.4469072362654,0 79.7249280425259,24.4469050357097,0 79.7249269628054,24.4469028840141,0 79.7249257613418,24.4469007870966,0 79.7249244414398,24.4468987507247,0 79.7249230067297,24.4468967804994,0 79.7249214611575,24.4468948818397,0 79.7249198089744,24.4468930599678,0 79.7249180547246,24.4468913198947,0 79.7249162032331,24.4468896664064,0 79.7249142595924,24.4468881040507,0 79.7249122291483,24.4468866371249,0 79.7249101174855,24.4468852696636,0 79.724907930412,24.4468840054279,0 79.7249056739434,24.4468828478952,0 79.7249033542859,24.4468818002492,0 79.7249009778197,24.4468808653713,0 79.7248985510811,24.446880045833,0 79.7248960807448,24.4468793438882,0 79.7248935736053,24.4468787614678,0 79.7248910365584,24.4468783001735,0 79.7248901410382,24.4468781816212,0 79.7248858775302,24.4468611276103,0 79.7248852394682,24.4468588498469,0 79.7248844727263,24.4468566055834,0 79.7248835793842,24.4468544009074,0 79.7248825618652,24.4468522417991,0 79.7248814229294,24.4468501341151,0 79.724880165666,24.4468480835725,0 79.7248787934855,24.4468460957334,0 79.7248773101099,24.4468441759898,0 79.7248757195628,24.4468423295491,0 79.7248740261587,24.4468405614197,0 79.7248724255871,24.4468390561193,0 79.7248983311042,24.4468294413648,0 79.724900696785,24.4468284966401,0 79.7249030052397,24.4468274399193,0 79.7249052501463,24.4468262740962,0 79.7249074253573,24.4468250023635,0 79.7249095249157,24.4468236282037,0 79.7249115430719,24.4468221553801,0 79.7249134742991,24.4468205879261,0 79.7249153133086,24.446818930134,0 79.7249170550643,24.4468171865439,0 79.7249186947964,24.4468153619305,0 79.7249202280143,24.4468134612907,0 79.7249216505194,24.4468114898293,0 79.7249229584161,24.4468094529452,0 79.7249241481228,24.4468073562164,0 79.7249252163814,24.446805205385,0 79.7249261602664,24.4468030063409,0 79.724926977193,24.4468007651064,0 79.7249276649241,24.446798487819,0 79.7249282215763,24.4467961807151,0 79.7249286456252,24.4467938501129,0 79.7249289359096,24.4467915023946,0 79.7249290916345,24.4467891439896,0 79.7249291123734,24.4467867813564,0 79.7249289980696,24.446784420965,0 79.7249287490362,24.4467820692795,0 79.724928365955,24.44677973274,0 79.7249278498752,24.4467774177452,0 79.72492720221,24.4467751306346,0 79.7249264247333,24.4467728776716,0 79.7249255195739,24.4467706650259,0 79.7249244892109,24.446768498757,0 79.7249233364657,24.4467663847971,0 79.7249220644954,24.4467643289354,0 79.724920676783,24.4467623368019,0 79.7249191771291,24.4467604138521,0 79.7249175696403,24.446758565352,0 79.7249158587188,24.4467567963637,0 79.72491404905,24.4467551117317,0 79.7249121455897,24.4467535160693,0 79.7249101535506,24.4467520137462,0 79.7249080783878,24.4467506088767,0 79.7249059257844,24.4467493053079,0 79.724903701635,24.4467481066098,0 79.7249014120308,24.4467470160649,0 79.7248990632417,24.4467460366597,0 79.7248966617,24.4467451710764,0 79.7248942139823,24.4467444216853,0 79.7248917267917,24.4467437905387,0 79.7248892069394,24.4467432793649,0 79.7248866613262,24.4467428895639,0 79.724884096923,24.4467426222031,0 79.7248815207528,24.4467424780146,0 79.7248789398702,24.4467424573934,0 79.724876361343,24.4467425603959,0 79.7248737922328,24.44674278674,0 79.7247927922613,24.446751886738,0 79.7247903180425,24.4467522232071,0 79.7247878656409,24.4467526740785,0 79.7247854413644,24.4467532381926,0 79.7247590413729,24.4467600381906,0 79.7247566041686,24.4467607287065,0 79.724754209231,24.4467615336705,0 79.7247518629685,24.4467624509286,0 79.7247495716593,24.4467634780264,0 79.7247473414344,24.4467646122156,0 79.7247393783125,24.4467689123012,0 79.7246928874295,24.4467887990856,0 79.7246775450419,24.4467789875332,0 79.7246753965175,24.4467776885894,0 79.7246731768698,24.4467764940594,0 79.7246708921482,24.4467754071988,0 79.7246685485794,24.4467744309697,0 79.7246661525507,24.4467735680327,0 79.724663710592,24.4467728207397,0 79.7246612293588,24.4467721911274,0 79.7246587156134,24.4467716809117,0 79.7246561762068,24.446771291483,0 79.7246536180597,24.4467710239029,0 79.7246510481443,24.4467708789005,0 79.7246484734644,24.446770856871,0 79.7246459010372,24.4467709578745,0 79.7246433378735,24.4467711816356,0 79.724640790959,24.4467715275446,0 79.724638267235,24.4467719946587,0 79.7246357735796,24.4467725817049,0 79.7246333167891,24.4467732870831,0 79.7246309035591,24.4467741088711,0 79.7246285404667,24.446775044829,0 79.7246262339523,24.446776092406,0 79.724623990302,24.4467772487471,0 79.7246218156306,24.4467785107007,0 79.724619715865,24.4467798748276,0 79.7246176967279,24.44678133741,0 79.7246157637222,24.4467828944616,0 79.7246139221162,24.4467845417391,0 79.7246121769289,24.4467862747528,0 79.7246105329167,24.4467880887797,0 79.7246089945602,24.4467899788757,0 79.724607566052,24.4467919398897,0 79.7246062512853,24.446793966477,0 79.7246050538434,24.4467960531145,0 79.72460397699,24.4467981941152,0 79.7246030236597,24.446800383644,0 79.7246021964508,24.4468026157336,0 79.7246014976178,24.4468048843007,0 79.7246009290653,24.4468071831625,0 79.7246004923428,24.4468095060538,0 79.7246001886406,24.4468118466436,0 79.7246000187864,24.446814198553,0 79.7246000060393,24.4468150437929,0 79.7245999792824,24.4468150403463,0 79.7245644792947,24.4468113403481,0 79.7245618676733,24.4468111323396,0 79.7245592476678,24.4468110516538,0 79.7245566266801,24.4468110985187,0 79.7245540121148,24.4468112728017,0 79.7245514113585,24.4468115740107,0 79.7245488317587,24.4468120012945,0 79.7245462806031,24.4468125534461,0 79.7245437650992,24.4468132289056,0 79.7245412923535,24.4468140257647,0 79.7245388693519,24.4468149417721,0 79.7245365029398,24.44681597434,0 79.7245341998026,24.4468171205513,0 79.7245319664471,24.4468183771676,0 79.7245298091826,24.446819740639,0 79.724527734104,24.4468212071134,0 79.7245257470734,24.4468227724478,0 79.7245238537047,24.44682443222,0 79.7245220593468,24.4468261817407,0 79.7245203690691,24.4468280160674,0 79.7245187876468,24.4468299300178,0 79.7245173195477,24.4468319181848,0 79.7245159689194,24.4468339749514,0 79.7245147395777,24.4468360945071,0 79.7245136349955,24.4468382708637,0 79.7245126582936,24.4468404978728,0 79.7245017582854,24.4468673978692,0 79.7245009287269,24.4468696208443,0 79.724500226594,24.4468718803085,0 79.7244996537875,24.4468741701454,0 79.7244992118579,24.4468764841561,0 79.7244989020017,24.4468788160764,0 79.7244987250576,24.4468811595937,0 79.7244986815046,24.4468835083638,0 79.7244987714607,24.4468858560285,0 79.7244989946823,24.4468881962324,0 79.7244993505652,24.4468905226404,0 79.724499838146,24.4468928289548,0 79.7245004561047,24.4468951089321,0 79.7245012027685,24.4468973564004,0 79.7245012988266,24.446897599351,0 79.7244900345428,24.4468970084376,0 79.7244162507641,24.4468778620141,0 79.7244137310926,24.446877273403,0 79.7244111810335,24.4468768071821,0 79.7244086076759,24.4468764646474,0 79.7244060181735,24.4468762467511,0 79.7244034197248,24.4468761540991,0 79.7244008195534,24.4468761869488,0 79.7243982248874,24.4468763452089,0 79.7243956429398,24.4468766284395,0 79.7243930808883,24.4468770358532,0 79.724390545855,24.4468775663175,0 79.7243880448872,24.4468782183576,0 79.7243855849373,24.4468789901611,0 79.7243831728438,24.4468798795822,0 79.7243808153121,24.4468808841486,0 79.7243785188959,24.4468820010677,0 79.724376289979,24.4468832272344,0 79.7243741347577,24.4468845592401,0 79.7243720592233,24.446885993382,0 79.7243700691456,24.4468875256734,0 79.7243681700568,24.4468891518544,0 79.7243663672362,24.4468908674046,0 79.7243646656956,24.4468926675548,0 79.7243630701651,24.4468945473008,0 79.72436158508,24.4468965014171,0 79.7243602145689,24.4468985244712,0 79.7243589624417,24.4469006108395,0 79.7243578321791,24.4469027547219,0 79.7243568269231,24.4469049501585,0 79.7243559494684,24.4469071910464,0 79.7243552022541,24.446909471156,0 79.7243545873576,24.4469117841487,0 79.724354106488,24.4469141235948,0 79.7243537609823,24.4469164829907,0 79.7243535518009,24.4469188557775,0 79.7243534795253,24.446921235359,0 79.7243535443564,24.4469236151202,0 79.7243537461141,24.4469259884457,0 79.7243540842375,24.4469283487376,0 79.7243545577866,24.4469306894347,0 79.7243551654449,24.44693300403,0 79.7243559055234,24.4469352860891,0 79.7243567759646,24.4469375292681,0 79.7243577743487,24.446939727331,0 79.7243588979004,24.4469418741676,0 79.7243601434963,24.4469439638097,0 79.7243615076737,24.4469459904484,0 79.7243629866404,24.4469479484497,0 79.7243645762849,24.4469498323706,0 79.7243662721882,24.4469516369739,0 79.7243680696358,24.4469533572429,0 79.7243699636309,24.4469549883956,0 79.7243719489085,24.4469565258973,0 79.7243740199495,24.446957965474,0 79.7243761709967,24.4469593031237,0 79.7243783960704,24.446960535128,0 79.7243939679129,24.4469686517316,0 79.7243916876932,24.4469695405629,0 79.7243893516517,24.4469705875845,0 79.7243870791554,24.4469717458875,0 79.7243848765246,24.4469730122506,0 79.724382749885,24.4469743831518,0 79.7243807051512,24.4469758547783,0 79.7243703051523,24.4469837547762,0 79.7243683575336,24.446985314991,0 79.7243665020001,24.4469869665821,0 79.7243647436611,24.4469887050018,0 79.7243630873582,24.4469905254634,0 79.7243615376522,24.446992422954,0 79.7243600988103,24.4469943922489,0 79.7243587747943,24.4469964279255,0 79.72435756925,24.4469985243786,0 79.724356485497,24.4470006758354,0 79.7243555265193,24.4470028763718,0 79.7243546949576,24.4470051199285,0 79.7243539931016,24.4470074003279,0 79.724353422884,24.4470097112907,0 79.7243529858748,24.4470120464537,0 79.7243526832774,24.4470143993867,0 79.724352515925,24.447016763611,0 79.7243524842785,24.4470191326166,0 79.7243525884248,24.4470214998802,0 79.7243528280774,24.4470238588836,0 79.7243532025764,24.447026203131,0 79.7243537108904,24.4470285261676,0 79.7243543516199,24.4470308215967,0 79.7243551230007,24.4470330830978,0 79.7243560229086,24.4470353044437,0 79.7243570488657,24.4470374795179,0 79.7243581980471,24.4470396023311,0 79.7243866522889,24.4470888710817,0 79.7243843804284,24.4470999669588,0 79.7243612509202,24.4471252448238,0 79.7244521941461,24.4472400612264,0</coordinates></LinearRing></outerBoundaryIs></Polygon>
  </Placemark>
  
    </Document>
</kml>