<?xml version="1.0" encoding="UTF-8"?>
<kml xmlns="http://www.opengis.net/kml/2.2">
    <Document>
        <Placemark xmlns:ns0="http://www.opengis.net/kml/2.2">
	<Style><LineStyle><color>ff0000ff</color></LineStyle><PolyStyle><fill>0</fill></PolyStyle></Style>
	<ExtendedData><SchemaData schemaUrl="#Wave23_v27MAR2025">
		<SimpleData name="area(ha)">13.344430047595717</SimpleData>
		<SimpleData name="site_id">230084_5.6</SimpleData>
		<SimpleData name="Land_parc">230084</SimpleData>
		<SimpleData name="district">Damoh</SimpleData>
		<SimpleData name="block">Batyagarh</SimpleData>
		<SimpleData name="village">Achalpura</SimpleData>
		<SimpleData name="Land Type">Community</SimpleData>
		<SimpleData name="Instance">Wave 2023</SimpleData>
	</SchemaData></ExtendedData>
      <MultiGeometry><Polygon><outerBoundaryIs><LinearRing><coordinates>79.5392269,24.2626551,0 79.53935,24.2626587,0 79.5393804,24.2626628,0 79.5394489,24.2627017,0 79.5395425,24.2626411,0 79.5395705,24.2626268,0 79.5395807,24.2626013,0 79.539628,24.2625967,0 79.539677,24.2625735,0 79.5397252,24.2625518,0 79.5397737,24.2625153,0 79.5398564,24.2625103,0 79.5398882,24.2625331,0 79.5399015,24.2625606,0 79.5399368,24.2626191,0 79.5399956,24.2626521,0 79.5400676,24.2626562,0 79.5401523,24.262565,0 79.5402144,24.2625294,0 79.5402426,24.2625322,0 79.5402739,24.2625356,0 79.5403333,24.2625304,0 79.5403612,24.262524,0 79.5403957,24.2625139,0 79.5404278,24.2625077,0 79.5404762,24.2624754,0 79.5404996,24.2624553,0 79.5405116,24.2624344,0 79.5405491,24.2623934,0 79.5405885,24.2623536,0 79.5406456,24.2623248,0 79.5406821,24.2622711,0 79.5407112,24.2622132,0 79.5407077,24.262149,0 79.5407039,24.262121,0 79.5407112,24.2620951,0 79.5407054,24.2620667,0 79.5406994,24.2620363,0 79.5406937,24.2620074,0 79.5406631,24.2619575,0 79.5406418,24.2619308,0 79.5406201,24.2619084,0 79.5405973,24.2618793,0 79.5405424,24.2618442,0 79.5405099,24.2618392,0 79.5404861,24.2618259,0 79.5404547,24.2618257,0 79.540428,24.2618163,0 79.540381,24.2617774,0 79.5403642,24.2617574,0 79.5403389,24.2617371,0 79.5403105,24.2617221,0 79.5402798,24.2617153,0 79.5402505,24.2617046,0 79.5402246,24.2616854,0 79.5401943,24.2616689,0 79.5401659,24.2616577,0 79.540139,24.2616466,0 79.5401079,24.2616361,0 79.5400843,24.2616252,0 79.5400521,24.2616076,0 79.540036,24.2615968,0 79.5400006,24.2615852,0 79.539985,24.2615702,0 79.5399234,24.2615418,0 79.5398769,24.2614913,0 79.5398473,24.2614774,0 79.5398168,24.2614586,0 79.5397834,24.2614552,0 79.5397448,24.2614356,0 79.5396768,24.2614242,0 79.5396225,24.2614145,0 79.5395434,24.2614437,0 79.539498,24.261453,0 79.5394511537014,24.2614581300524,0 79.5392778485953,24.2617618606508,0 79.5391526,24.2619545,0 79.5391011,24.2620438,0 79.5390397774057,24.2621437572119,0 79.5389584848044,24.262278202668,0 79.5389424,24.2625397,0 79.5392269,24.2626551,0</coordinates></LinearRing></outerBoundaryIs></Polygon><Polygon><outerBoundaryIs><LinearRing><coordinates>79.5380468,24.2627293,0 79.5379865,24.2626636,0 79.5379781,24.2626517,0 79.5378885,24.2626056,0 79.5377726,24.2625316,0 79.5377393,24.2625112,0 79.5376845,24.2624694,0 79.5376301,24.2624341,0 79.5375656,24.2624007,0 79.5375139,24.2623568,0 79.5374937,24.262298,0 79.5374697,24.2622739,0 79.5373589,24.262199,0 79.5373131,24.2621543,0 79.5372245,24.2620577,0 79.5371941,24.2620381,0 79.5371027,24.262019,0 79.5370463,24.2619924,0 79.5369859,24.2619685,0 79.5369244,24.2619504,0 79.5368624,24.261936,0 79.5367688,24.2619576,0 79.5367356,24.2619513,0 79.5366818,24.2619308,0 79.5366257,24.2619124,0 79.536572,24.2618949,0 79.5365443,24.2619071,0 79.5365047,24.26195,0 79.5364822,24.2619946,0 79.5364535,24.262079,0 79.5364248,24.2621458,0 79.5364112,24.2621657,0 79.5363946,24.262184,0 79.5363774,24.2622042,0 79.5363464,24.2622409,0 79.5363042,24.2622771,0 79.5362461,24.2623346,0 79.5362025,24.2623731,0 79.5361727,24.2624166,0 79.5360817,24.2624938,0 79.5360647,24.2625218,0 79.5360606,24.2625605,0 79.5360329,24.2626131,0 79.5360209,24.2626301,0 79.5359928,24.2626629,0 79.5359731,24.2626825,0 79.5359486,24.2627347,0 79.5359306,24.2627573,0 79.5359033,24.262805,0 79.5358726,24.2628515,0 79.5358361,24.2628845,0 79.53581,24.2629018,0 79.5357853,24.2629151,0 79.5357599,24.2629318,0 79.5357299,24.2629407,0 79.5357131,24.2629629,0 79.5356779,24.2630051,0 79.5356593,24.2630263,0 79.5356304,24.2630721,0 79.5356015,24.2631047,0 79.5355704,24.2631454,0 79.5355449,24.2631863,0 79.5355258,24.2632038,0 79.5355055,24.2632315,0 79.5354967,24.2632587,0 79.5354705,24.2632765,0 79.5354103,24.2632651,0 79.5353715,24.2632795,0 79.5353075,24.2633062,0 79.5352479,24.2633094,0 79.5351855,24.2633126,0 79.5351034,24.2633404,0 79.5350838,24.2633641,0 79.5350234,24.263327,0 79.5349542,24.2632827,0 79.5348132,24.2632843,0 79.5348,24.2633202,0 79.5348676,24.2635106,0 79.5348735,24.263672,0 79.5348707,24.2637552,0 79.5347595,24.2638598,0 79.5346385,24.2639897,0 79.5344191,24.2642978,0 79.5345213,24.2644058,0 79.53457,24.2645503,0 79.5345994,24.2646569,0 79.5347006,24.2648041,0 79.5347735,24.2648682,0 79.5349139,24.2649769,0 79.5350652,24.2650722,0 79.5352097,24.2652054,0 79.5354138,24.2654502,0 79.5356543,24.2657929,0 79.5356548,24.2657942,0 79.5356541,24.2657942,0 79.5356545,24.2657953,0 79.5356573,24.2657991,0 79.535656,24.2658129,0 79.5356561,24.2658136,0 79.5357305,24.2658296,0 79.5357798,24.2658243,0 79.535824,24.2657991,0 79.5358464,24.2657555,0 79.5358783,24.2657432,0 79.5359712,24.2657768,0 79.5360373,24.2657976,0 79.5360886,24.2658213,0 79.5361118,24.265865,0 79.5361325,24.2659287,0 79.5361876,24.2659427,0 79.536282808064,24.2658985150689,0 79.5363614206895,24.2658056092388,0 79.5365561656026,24.2655590514589,0 79.536668724589,24.2653848530275,0 79.5367937901296,24.265191894765,0 79.5369545886817,24.2649524835874,0 79.53716541345,24.2646701927959,0 79.537388856438,24.2644690829401,0 79.5374727173496,24.2643128626801,0 79.5376014678568,24.2641153261255,0 79.5376908003858,24.2640295668977,0 79.5377372533008,24.2639330877664,0 79.5378909052506,24.2637579960097,0 79.5381803426444,24.2634221057009,0 79.5382553819687,24.2633220532684,0 79.5382884908374,24.2632327207395,0 79.5382983732478,24.263202291845,0 79.5383363092305,24.2631732641913,0 79.5383393,24.2631653,0 79.5383526,24.2631521,0 79.5383446,24.26282,0 79.5381851,24.2627535,0 79.5380468,24.2627293,0</coordinates></LinearRing></outerBoundaryIs></Polygon><Polygon><outerBoundaryIs><LinearRing><coordinates>79.5374695,24.2646717,0 79.5374215,24.2647137,0 79.5373985,24.2647329,0 79.5373701,24.2647842,0 79.5373698,24.2648727,0 79.5373715,24.2649004,0 79.5373616,24.2649228,0 79.5373601,24.2649508,0 79.5373447,24.2649848,0 79.5373216,24.2650004,0 79.5372617,24.2650194,0 79.5372171,24.2650504,0 79.5372012,24.2650771,0 79.5371907,24.2651022,0 79.5371312,24.2651231,0 79.5371013,24.2651275,0 79.5370787,24.2651456,0 79.5370301,24.2651792,0 79.5369773,24.2652135,0 79.5369543,24.2652616,0 79.536953,24.2653273,0 79.5369727,24.2653538,0 79.5369387,24.2654016,0 79.5370028,24.2654309,0 79.5370111,24.2655202,0 79.5370403,24.2655828,0 79.5370206,24.2655995,0 79.5370683,24.2656582,0 79.5371262,24.2656883,0 79.5371461,24.2656942,0 79.5371588,24.2657044,0 79.5372002,24.2658176,0 79.5372567,24.2658292,0 79.5373294,24.2658377,0 79.537378,24.2658576,0 79.5374401,24.2658762,0 79.5374486,24.2658941,0 79.5374681,24.2659158,0 79.5375392,24.265947,0 79.5376296,24.2659614,0 79.5376756,24.2659907,0 79.5376902,24.2660153,0 79.5377175,24.2660243,0 79.5377418,24.2660329,0 79.5377596,24.2660509,0 79.5377695,24.2660736,0 79.537796,24.2660865,0 79.5378248,24.2660953,0 79.5378428,24.2661399,0 79.5378431,24.2661863,0 79.5378467,24.2662152,0 79.5378669,24.2662645,0 79.5379189,24.2662976,0 79.5379749,24.2663197,0 79.5380007,24.2663318,0 79.5380244,24.2663454,0 79.5380487,24.2663564,0 79.5380764,24.2664033,0 79.538086,24.2664261,0 79.5380995,24.2664478,0 79.5381256,24.2664428,0 79.5381469,24.2664278,0 79.5381732,24.2664053,0 79.5382013,24.2663885,0 79.5382158,24.2663695,0 79.5382325,24.266348,0 79.5382518,24.2663291,0 79.5382789,24.266317,0 79.5382895,24.2662943,0 79.5383019,24.2662727,0 79.538305,24.2662443,0 79.5383256,24.2662313,0 79.5383639,24.2662091,0 79.5383846,24.2661964,0 79.5384069,24.2661865,0 79.53842,24.2661638,0 79.5384403,24.2661422,0 79.5384594,24.2661225,0 79.5384722,24.266099,0 79.5384782,24.2660707,0 79.5384848,24.2660458,0 79.5385015,24.2660255,0 79.5385147,24.2660059,0 79.5385335,24.2659871,0 79.538559,24.2659375,0 79.5385652,24.2659167,0 79.5385761,24.2658973,0 79.5386057,24.2658733,0 79.5386242,24.2658536,0 79.5386455,24.2658326,0 79.5386657,24.2657764,0 79.5386843,24.2657561,0 79.5387149,24.2657185,0 79.5387209,24.2656925,0 79.5387206,24.2656637,0 79.5387138,24.2656193,0 79.5387275,24.2655928,0 79.5387294,24.2655673,0 79.5387035,24.265549,0 79.5386749,24.2655347,0 79.5386702,24.2655065,0 79.5386219,24.265483,0 79.5386023,24.2654279,0 79.5385635,24.2653957,0 79.5385141,24.2653656,0 79.538506,24.265345,0 79.5384801,24.2652962,0 79.5384497,24.2652736,0 79.5384297,24.2652686,0 79.5383788,24.2652309,0 79.538322,24.2651631,0 79.5382869,24.265129,0 79.5382445,24.2650916,0 79.5381973,24.265039,0 79.5381573,24.2650087,0 79.5381086,24.2648961,0 79.5380485,24.2648181,0 79.5379166,24.2646496,0 79.5378421,24.2645682,0 79.5374984,24.2646072,0 79.537492,24.2645883,0 79.5374922,24.2646271,0 79.5374695,24.2646717,0</coordinates></LinearRing></outerBoundaryIs></Polygon></MultiGeometry>
  </Placemark>
  
    </Document>
</kml>