<?xml version="1.0" encoding="UTF-8"?>
<kml xmlns="http://www.opengis.net/kml/2.2">
    <Document>
        <Placemark xmlns:ns0="http://www.opengis.net/kml/2.2">
	<Style><LineStyle><color>ff0000ff</color></LineStyle><PolyStyle><fill>0</fill></PolyStyle></Style>
	<ExtendedData><SchemaData schemaUrl="#Wave23_v27MAR2025">
		<SimpleData name="area(ha)">0.319621810221373</SimpleData>
		<SimpleData name="site_id">230093_1.1</SimpleData>
		<SimpleData name="Land_parc">230093</SimpleData>
		<SimpleData name="district">Damoh</SimpleData>
		<SimpleData name="block">Hatta</SimpleData>
		<SimpleData name="village">Surajpura</SimpleData>
		<SimpleData name="Land Type">Farmer</SimpleData>
		<SimpleData name="Instance">Wave 2023</SimpleData>
	</SchemaData></ExtendedData>
      <Polygon><outerBoundaryIs><LinearRing><coordinates>79.4877643,24.3837271,0 79.4877951,24.3837286,0 79.4878633,24.3837233,0 79.4879064,24.3837022,0 79.4879072339949,24.3836632982489,0 79.4879095,24.3835576,0 79.487924118763,24.3834828718516,0 79.4879417,24.383393,0 79.4878584154125,24.3833923534431,0 79.4878019063378,24.3834036940034,0 79.4877532297999,24.3834134626672,0 79.4877127036096,24.3833904640677,0 79.4877034756027,24.3833903719483,0 79.4877035364157,24.3833852616856,0 79.4875214648906,24.3832819359055,0 79.4872344329645,24.3831552803759,0 79.4871717,24.383118,0 79.487160856403,24.3831140618711,0 79.4870530323528,24.3830749027625,0 79.4870708604228,24.3832795002234,0 79.4871582179655,24.3834069675217,0 79.4872611750694,24.3834573048907,0 79.4872986140163,24.3835644747064,0 79.4873024583006,24.3835669631094,0 79.4873070160318,24.3835670086198,0 79.4873069817204,24.3835698911163,0 79.4873192,24.3835778,0 79.4873957,24.3835901,0 79.487453,24.3835857,0 79.487488,24.3836443,0 79.4875005482735,24.3836592384256,0 79.4875030967949,24.3836592638701,0 79.4875030614882,24.3836622303483,0 79.4875279,24.3836918,0 79.4876011573289,24.383703707398,0 79.4876774,24.3837161,0 79.4877643,24.3837271,0</coordinates></LinearRing></outerBoundaryIs></Polygon>
  </Placemark>
  
    </Document>
</kml>