<?xml version="1.0" encoding="UTF-8"?>
<kml xmlns="http://www.opengis.net/kml/2.2">
    <Document>
        <Placemark xmlns:ns0="http://www.opengis.net/kml/2.2">
	<Style><LineStyle><color>ff0000ff</color></LineStyle><PolyStyle><fill>0</fill></PolyStyle></Style>
	<ExtendedData><SchemaData schemaUrl="#Wave23_v27MAR2025">
		<SimpleData name="area(ha)">0.313841848069219</SimpleData>
		<SimpleData name="site_id">230069_1.1</SimpleData>
		<SimpleData name="Land_parc">230069</SimpleData>
		<SimpleData name="district">Chhatarpur</SimpleData>
		<SimpleData name="block">Bada Malahara</SimpleData>
		<SimpleData name="village">Rampura</SimpleData>
		<SimpleData name="Land Type">Farmer</SimpleData>
		<SimpleData name="Instance">Wave 2023</SimpleData>
	</SchemaData></ExtendedData>
      <Polygon><outerBoundaryIs><LinearRing><coordinates>79.184668611378,24.5282624469039,0 79.1845800202286,24.5284034905439,0 79.1845433195735,24.5284619205768,0 79.1844493507201,24.5285557904309,0 79.1843277439686,24.5287066525494,0 79.1845046265162,24.52888601061,0 79.1845425116474,24.528857044466,0 79.1845425486363,24.5288544729316,0 79.1845458234229,24.5288545123536,0 79.1846778240107,24.5287535873938,0 79.1848123284479,24.5286463077238,0 79.1849376202525,24.528574229144,0 79.1850647545836,24.5286345740043,0 79.185158723437,24.5287385011957,0 79.1852358119597,24.5286865363534,0 79.1852358736739,24.5286822441951,0 79.1852420686737,24.5286823187418,0 79.1854351286963,24.5285521779179,0 79.1854645828422,24.528532322974,0 79.1854363600453,24.5284665286845,0 79.185405621993,24.5283948706381,0 79.1852526922904,24.5284485105919,0 79.1851421406982,24.5284736543124,0 79.1850389592121,24.5283546406576,0 79.1849437754323,24.5284055258232,0 79.1849437417442,24.5284078684547,0 79.1849394891314,24.5284078172735,0 79.1848602341379,24.5284501868401,0 79.1847758,24.5285069,0 79.1847367848599,24.5284267193634,0 79.1846902261499,24.5283145304229,0 79.184668611378,24.5282624469039,0</coordinates></LinearRing></outerBoundaryIs></Polygon>
  </Placemark>
  
    </Document>
</kml>