<?xml version="1.0" encoding="UTF-8"?>
<kml xmlns="http://www.opengis.net/kml/2.2">
    <Document>
        <Placemark xmlns:ns0="http://www.opengis.net/kml/2.2">
	<Style><LineStyle><color>ff0000ff</color></LineStyle><PolyStyle><fill>0</fill></PolyStyle></Style>
	<ExtendedData><SchemaData schemaUrl="#Wave23_v27MAR2025">
		<SimpleData name="area(ha)">11.219430201486963</SimpleData>
		<SimpleData name="site_id">230013_1.1</SimpleData>
		<SimpleData name="Land_parc">230013</SimpleData>
		<SimpleData name="district">Chhatarpur</SimpleData>
		<SimpleData name="block">Bijawar</SimpleData>
		<SimpleData name="village">??????</SimpleData>
		<SimpleData name="Land Type">Community</SimpleData>
		<SimpleData name="Instance">Wave 2023</SimpleData>
	</SchemaData></ExtendedData>
      <Polygon><outerBoundaryIs><LinearRing><coordinates>79.7063673673854,24.6175654791547,0 79.7063946667971,24.6178522661493,0 79.7063693535462,24.6178520484711,0 79.7063557,24.6178398,0 79.7063501041946,24.6178179539801,0 79.7063736240823,24.6180229128631,0 79.7064655773088,24.618257904442,0 79.7067874136016,24.6184699077142,0 79.7070703852756,24.6186282375127,0 79.7071743378046,24.6187245122879,0 79.7072630401124,24.6187360322364,0 79.7073238074229,24.6187700328285,0 79.7075307021826,24.618766201444,0 79.7076852346882,24.6187087306775,0 79.7078441007401,24.6186251171068,0 79.7080147330342,24.6185682387842,0 79.7080208829565,24.6184116939092,0 79.7080238386543,24.6184073025887,0 79.7080686,24.6183408,0 79.7080616,24.6182897,0 79.7080329147922,24.6182535415448,0 79.7080517,24.618085,0 79.7090754,24.6172617,0 79.7091285071566,24.6172328254783,0 79.7093576,24.6171899,0 79.70935,24.6171783,0 79.709469,24.6170931,0 79.7095110199168,24.6170663280006,0 79.7095762,24.6170248,0 79.7096391,24.6170095,0 79.7097177944858,24.6169738659575,0 79.7097652,24.6169524,0 79.7098226,24.6169226,0 79.7098796,24.6168411,0 79.7099532,24.6167328,0 79.7099912,24.6166798,0 79.7100195519516,24.6166679994692,0 79.7101767462233,24.6166369052734,0 79.7102488,24.6166401,0 79.7103829,24.6167565,0 79.7104130839993,24.6168031620174,0 79.7104417,24.6168474,0 79.7104705,24.6168679,0 79.710516834625,24.6168040513634,0 79.7105541,24.6167527,0 79.7106818,24.6166169,0 79.7107074,24.6166023,0 79.7108088072656,24.6165393922799,0 79.7108088456134,24.6165356525314,0 79.7108147541138,24.6165357031648,0 79.7108283,24.6165273,0 79.7109391129428,24.6164812139487,0 79.7109714669004,24.616474447223,0 79.7109714,24.6164745,0 79.7110802,24.6164771,0 79.7111132,24.616475,0 79.7111405,24.6164641,0 79.7111044,24.6164172,0 79.7110886608829,24.6163882309121,0 79.7114399,24.6156668,0 79.7111119,24.615415,0 79.7109725625358,24.6153115698093,0 79.710571544298,24.6152809187338,0 79.7104693740463,24.615309015553,0 79.7103774208198,24.6152272793517,0 79.7104208431768,24.615142988894,0 79.7102599250304,24.615063806949,0 79.7098844493555,24.6151174463311,0 79.7096417950077,24.615081686743,0 79.709258656564,24.6151583144318,0 79.7093914778912,24.6154367283676,0 79.7091692575938,24.6156461773835,0 79.7091156182117,24.6155388986192,0 79.7090211107289,24.6154801507245,0 79.7089317117586,24.6155337901067,0 79.708758022313,24.6153192325508,0 79.7084208605003,24.6156487316398,0 79.7082624966102,24.6159271455756,0 79.7081169040016,24.6160420871087,0 79.7080326135439,24.6157636731729,0 79.707902346473,24.6156538401524,0 79.7076903432008,24.6155695496948,0 79.7075932814617,24.6155133560563,0 79.7074272548028,24.6153447751411,0 79.7071628892948,24.6154699337279,0 79.7066533,24.6162708,0 79.7064233,24.6169433,0 79.7063378644942,24.6177112935955,0 79.7063430229861,24.6177562462433,0 79.7063429,24.6177321,0 79.7063462945612,24.6176712493718,0 79.7063521691515,24.6176712998907,0 79.7063528181877,24.6176082259113,0 79.7063612,24.617558,0 79.7063826047557,24.6174909608111,0 79.7063975239227,24.6174910891045,0 79.7063673673854,24.6175654791547,0</coordinates></LinearRing></outerBoundaryIs><innerBoundaryIs><LinearRing><coordinates>79.7064542413646,24.6173511784261,0 79.7064546549756,24.6173109795581,0 79.706439606617,24.6173108501602,0 79.7064591,24.6172482,0 79.7064654314687,24.6171304714017,0 79.7065434400871,24.6171311421493,0 79.7064542413646,24.6173511784261,0</coordinates></LinearRing></innerBoundaryIs><innerBoundaryIs><LinearRing><coordinates>79.7067582911632,24.6166011417996,0 79.706758393555,24.6165911876642,0 79.7066596247186,24.6165903385605,0 79.7066603727246,24.6165176256604,0 79.7066621,24.6165135,0 79.7067411,24.6163975,0 79.7067606288175,24.6163738826434,0 79.7067817,24.6163484,0 79.7068351,24.6162157,0 79.7068753,24.6161143,0 79.7069179,24.616042,0 79.7069808,24.6159643,0 79.7070039,24.6159135,0 79.7070129,24.6158858,0 79.7069937,24.6159029,0 79.7070932347054,24.615774883944,0 79.7067582911632,24.6166011417996,0</coordinates></LinearRing></innerBoundaryIs><innerBoundaryIs><LinearRing><coordinates>79.71002022165,24.6156163692504,0 79.7099843854106,24.6156186555946,0 79.7099795,24.6154352,0 79.7099891,24.6152352,0 79.7100173423133,24.6151743599484,0 79.7100325901639,24.6151744906905,0 79.7100279582664,24.6156259535457,0 79.7100209699668,24.6156258936239,0 79.71002022165,24.6156163692504,0</coordinates></LinearRing></innerBoundaryIs><innerBoundaryIs><LinearRing><coordinates>79.7099204269387,24.6164791370402,0 79.7099199252179,24.6165280322108,0 79.709863449675,24.6165275478936,0 79.7099204269387,24.6164791370402,0</coordinates></LinearRing></innerBoundaryIs></Polygon>
  </Placemark>
  
    </Document>
</kml>