<?xml version="1.0" encoding="UTF-8"?>
<kml xmlns="http://www.opengis.net/kml/2.2">
    <Document>
        <Placemark xmlns:ns0="http://www.opengis.net/kml/2.2">
	<Style><LineStyle><color>ff0000ff</color></LineStyle><PolyStyle><fill>0</fill></PolyStyle></Style>
	<ExtendedData><SchemaData schemaUrl="#Wave23_v27MAR2025">
		<SimpleData name="area(ha)">0.332653296653803</SimpleData>
		<SimpleData name="site_id">230049_1.1</SimpleData>
		<SimpleData name="Land_parc">230049</SimpleData>
		<SimpleData name="district">Chhatarpur</SimpleData>
		<SimpleData name="block">Bijawar</SimpleData>
		<SimpleData name="village">Tapran</SimpleData>
		<SimpleData name="Land Type">Farmer</SimpleData>
		<SimpleData name="Instance">Wave 2023</SimpleData>
	</SchemaData></ExtendedData>
      <Polygon><outerBoundaryIs><LinearRing><coordinates>79.724611118918,24.4465554043476,0 79.7246583522664,24.4465250937516,0 79.7247240181578,24.4464829545695,0 79.7246293,24.4463039,0 79.7246094120958,24.4462537726513,0 79.7245833568099,24.4461881003919,0 79.7244834132206,24.4462150585168,0 79.7244832829956,24.4462150936428,0 79.7244334414259,24.4462285375771,0 79.724384338347,24.4462448916304,0 79.7243638912628,24.4462517016393,0 79.7242057921392,24.4463043572643,0 79.7241863708638,24.4463122401541,0 79.7239882716934,24.4463926463049,0 79.7239152154072,24.4464222989093,0 79.7237912113242,24.44649811848,0 79.7238411,24.4465788,0 79.7238451,24.4465954,0 79.7238626,24.4466401,0 79.7238713,24.4466901,0 79.7238746061077,24.4466990870286,0 79.7238751179893,24.4467004784819,0 79.7238862228693,24.4467306649881,0 79.7238926,24.446748,0 79.7239152,24.4467997,0 79.7239559331658,24.4468367786722,0 79.7242813901792,24.4466723603594,0 79.724292780078,24.4466666062515,0 79.7242814337597,24.4466680314848,0 79.7242785,24.4466684,0 79.7242815,24.4466085,0 79.7242520623194,24.4465419253223,0 79.7243075865357,24.4465250765386,0 79.7243538567159,24.44651159751,0 79.7243815709837,24.4465198003169,0 79.7243863,24.4465212,0 79.7243877768928,24.4465228114464,0 79.7244686067629,24.4466110053118,0 79.7245783739012,24.4465681797973,0 79.724611118918,24.4465554043476,0</coordinates></LinearRing></outerBoundaryIs></Polygon>
  </Placemark>
  
    </Document>
</kml>