<?xml version="1.0" encoding="UTF-8"?>
<kml xmlns="http://www.opengis.net/kml/2.2">
    <Document>
        <Placemark xmlns:ns0="http://www.opengis.net/kml/2.2">
	<Style><LineStyle><color>ff0000ff</color></LineStyle><PolyStyle><fill>0</fill></PolyStyle></Style>
	<ExtendedData><SchemaData schemaUrl="#Wave23_v27MAR2025">
		<SimpleData name="area(ha)">0.989019575310204</SimpleData>
		<SimpleData name="site_id">230096_1.1</SimpleData>
		<SimpleData name="Land_parc">230096</SimpleData>
		<SimpleData name="district">Damoh</SimpleData>
		<SimpleData name="block">Hatta</SimpleData>
		<SimpleData name="village">Surajpura</SimpleData>
		<SimpleData name="Land Type">Farmer</SimpleData>
		<SimpleData name="Instance">Wave 2023</SimpleData>
	</SchemaData></ExtendedData>
      <Polygon><outerBoundaryIs><LinearRing><coordinates>79.4931137878182,24.3817188261302,0 79.4930471205591,24.3817188261299,0 79.4930063919059,24.3817188261153,0 79.4930041316897,24.3817275389773,0 79.4929807677199,24.3818176041954,0 79.492952,24.3819285,0 79.4929457754837,24.3819513232632,0 79.4929331203494,24.3819977254678,0 79.4928974,24.3821287,0 79.4928889,24.3822106,0 79.4928994,24.382317,0 79.4928721,24.3823881,0 79.4928648,24.3824313,0 79.4928601113203,24.3824484872592,0 79.4928546546687,24.3824684896605,0 79.4928404359714,24.3825206109843,0 79.4928402227892,24.3825385870132,0 79.4928355448033,24.3825385404745,0 79.4928307,24.3825563,0 79.4928137,24.3826242,0 79.4928128250358,24.3826286120562,0 79.4927996,24.3826953,0 79.4927895,24.3827637,0 79.4927802171476,24.3828088828641,0 79.4927797,24.3828114,0 79.4927803,24.3828523,0 79.4927809,24.3828937,0 79.4927786202283,24.3828991645829,0 79.4927710625355,24.3829172802696,0 79.4927411046136,24.3829890889414,0 79.4927411,24.3829891,0 79.4927379,24.3830262,0 79.4928342660199,24.3830408689272,0 79.4928599596012,24.3830447800178,0 79.4929326775147,24.3830558491523,0 79.4931070808147,24.3830823967067,0 79.493111513095,24.3830830713828,0 79.4931295309252,24.3830832506017,0 79.4931295005846,24.383085809414,0 79.4932628,24.3831061,0 79.4932882633493,24.383084829382,0 79.4933270749529,24.383052408377,0 79.4933940351399,24.3829964735826,0 79.4933950879029,24.3829955941626,0 79.4934286,24.3829676,0 79.4934485,24.3829385,0 79.49345,24.3829467,0 79.4935564,24.3829212,0 79.4935319677207,24.3827903788374,0 79.4935274459602,24.3827830769291,0 79.493476,24.3827,0 79.4934989537205,24.3826354365572,0 79.4934995,24.3826339,0 79.4935297545871,24.3825883204186,0 79.4935913,24.3824956,0 79.4936301944614,24.3824321524842,0 79.4936431,24.3824111,0 79.4936493622189,24.3823660392601,0 79.4936523,24.3823449,0 79.4936516786862,24.3822757646565,0 79.4936512,24.3822225,0 79.4936572973381,24.3821349284229,0 79.4936694260107,24.3819765887681,0 79.4935400535025,24.3819434478851,0 79.4935373732471,24.3819455931961,0 79.4934656245857,24.3820030217057,0 79.4934614278545,24.3820063808182,0 79.4934378405433,24.3820252603705,0 79.4934066381033,24.3820502351439,0 79.493313651613,24.3819434478851,0 79.493341251569,24.3818566060612,0 79.4933524721041,24.3818213011929,0 79.4933581234127,24.3818035196163,0 79.4932691798133,24.3817740610137,0 79.493177366769,24.3817292620673,0 79.4931559788686,24.3817188261153,0 79.4931457086815,24.38171882612,0 79.4931137878182,24.3817188261302,0</coordinates></LinearRing></outerBoundaryIs></Polygon>
  </Placemark>
  
    </Document>
</kml>