<?xml version="1.0" encoding="UTF-8"?>
<kml xmlns="http://www.opengis.net/kml/2.2">
    <Document>
        <Placemark xmlns:ns0="http://www.opengis.net/kml/2.2">
	<Style><LineStyle><color>ff0000ff</color></LineStyle><PolyStyle><fill>0</fill></PolyStyle></Style>
	<ExtendedData><SchemaData schemaUrl="#Wave23_v27MAR2025">
		<SimpleData name="area(ha)">0.550648854631702</SimpleData>
		<SimpleData name="site_id">230090_1.1</SimpleData>
		<SimpleData name="Land_parc">230090</SimpleData>
		<SimpleData name="district">Damoh</SimpleData>
		<SimpleData name="block">Hatta</SimpleData>
		<SimpleData name="village">Surajpura</SimpleData>
		<SimpleData name="Land Type">Farmer</SimpleData>
		<SimpleData name="Instance">Wave 2023</SimpleData>
	</SchemaData></ExtendedData>
      <Polygon><outerBoundaryIs><LinearRing><coordinates>79.4913073067732,24.3872302913835,0 79.4915029343148,24.3872252725833,0 79.4915029880055,24.387220750252,0 79.4916299303793,24.3872220143793,0 79.4917382799576,24.3872192344842,0 79.491748396699,24.3871602643383,0 79.491748396699,24.3871123510746,0 79.4917443500024,24.3870441667833,0 79.491734233261,24.3869796680956,0 79.4917331395278,24.3869521494941,0 79.4917180464748,24.3865724041928,0 79.4915784354432,24.3865853039745,0 79.4915278517361,24.3866203176612,0 79.4914287076702,24.3866166320104,0 79.4912698748299,24.3866175534232,0 79.4911302637983,24.386639667326,0 79.4911155071063,24.3866406828107,0 79.4909026371164,24.3866553313382,0 79.4909041646785,24.3866730005121,0 79.4909119779494,24.3867633758637,0 79.4909431040821,24.3871234079832,0 79.4909844423349,24.3872155853258,0 79.4910017811823,24.3872542479953,0 79.4910685516757,24.3872413482818,0 79.4911798358313,24.3872302913835,0 79.4913073067732,24.3872302913835,0</coordinates></LinearRing></outerBoundaryIs></Polygon>
  </Placemark>
  
    </Document>
</kml>