<?xml version="1.0" encoding="UTF-8"?>
<kml xmlns="http://www.opengis.net/kml/2.2">
    <Document>
        <Placemark xmlns:ns0="http://www.opengis.net/kml/2.2">
	<Style><LineStyle><color>ff0000ff</color></LineStyle><PolyStyle><fill>0</fill></PolyStyle></Style>
	<ExtendedData><SchemaData schemaUrl="#Wave23_v27MAR2025">
		<SimpleData name="area(ha)">1.026433521296246</SimpleData>
		<SimpleData name="site_id">230044_1.1</SimpleData>
		<SimpleData name="Land_parc">230044</SimpleData>
		<SimpleData name="district">Chhatarpur</SimpleData>
		<SimpleData name="block">Bijawar</SimpleData>
		<SimpleData name="village">Patna</SimpleData>
		<SimpleData name="Land Type">Farmer</SimpleData>
		<SimpleData name="Instance">Wave 2023</SimpleData>
	</SchemaData></ExtendedData>
      <Polygon><outerBoundaryIs><LinearRing><coordinates>79.7876612000001,24.4087162000001,0 79.7876094000001,24.4087279,0 79.7875678224826,24.4087535221555,0 79.7875294,24.4087772,0 79.7874894999999,24.4088084000001,0 79.787480756488,24.4088150250442,0 79.7874440531657,24.4088428354952,0 79.7874214,24.4088600000001,0 79.7873529,24.408899,0 79.7872826373665,24.408907645306,0 79.7872188000001,24.4089155000001,0 79.7871824204069,24.4089310443199,0 79.7871081,24.4089628000001,0 79.7870848040677,24.4089703222849,0 79.7869771,24.4090051000001,0 79.7869658798669,24.4090323709189,0 79.7869920434689,24.4091101282562,0 79.7870426769107,24.4092606088619,0 79.7870816248375,24.4093030521303,0 79.7871121666666,24.4093363348782,0 79.7871210100009,24.409381355489,0 79.7871532,24.4094265000001,0 79.7871978,24.4096154999999,0 79.787206672827,24.4096536755422,0 79.7872216,24.4097179,0 79.7872457248502,24.4097442930091,0 79.7872743452847,24.4097756042476,0 79.7872813263,24.409783241593,0 79.7873731945925,24.4097513797716,0 79.787373252533,24.4097453145942,0 79.7873902890283,24.4097454510602,0 79.7874088344716,24.4097390191058,0 79.7874667426017,24.4096953652846,0 79.7874723881326,24.4096911145351,0 79.7875124938941,24.4096609172636,0 79.7875187912676,24.4096561757106,0 79.7875424686179,24.4096383480487,0 79.7875985949595,24.4096374571546,0 79.7876167372835,24.4096569601568,0 79.7876342307317,24.4096757656098,0 79.787658473673,24.409714113535,0 79.7876726,24.4097126,0 79.7877346,24.4096758000001,0 79.7877685103255,24.4096629786319,0 79.7877685561903,24.4096581759438,0 79.7877809501194,24.4096582751894,0 79.7878113000001,24.4096468,0 79.7878552,24.4096278000001,0 79.7878647000001,24.4096247,0 79.7879587,24.4096028000001,0 79.7880652311941,24.4095721259674,0 79.788065249135,24.4095702468314,0 79.788071581381,24.409570297525,0 79.7880938,24.4095638999999,0 79.7881147,24.4095572000001,0 79.7882225,24.4095319000001,0 79.7882258999999,24.4094523000001,0 79.7881912000001,24.4093054,0 79.7881698000001,24.4091894,0 79.7881559,24.4091405,0 79.7881156000001,24.4090474,0 79.7880877000001,24.4089979,0 79.7881184000001,24.4089813,0 79.7881084,24.4089289,0 79.7880734999999,24.4088387999999,0 79.7880596000001,24.4088111,0 79.7880651,24.4088234,0 79.7880007,24.4087718,0 79.7879682000001,24.4087606,0 79.7878760518081,24.4087284461727,0 79.7878507,24.4087196,0 79.7878170000001,24.4087105,0 79.7877797,24.4087045000001,0 79.7877776627481,24.4087045670153,0 79.7877189000001,24.4087065000001,0 79.7876893000001,24.4086989000001,0 79.7876790394719,24.4087052169813,0 79.7876612000001,24.4087162000001,0</coordinates></LinearRing></outerBoundaryIs></Polygon>
  </Placemark>
  
    </Document>
</kml>