<?xml version="1.0" encoding="UTF-8"?>
<kml xmlns="http://www.opengis.net/kml/2.2">
    <Document>
        <Placemark xmlns:ns0="http://www.opengis.net/kml/2.2">
	<Style><LineStyle><color>ff0000ff</color></LineStyle><PolyStyle><fill>0</fill></PolyStyle></Style>
	<ExtendedData><SchemaData schemaUrl="#Wave23_v27MAR2025">
		<SimpleData name="area(ha)">0.424306940748862</SimpleData>
		<SimpleData name="site_id">230054_1.1</SimpleData>
		<SimpleData name="Land_parc">230054</SimpleData>
		<SimpleData name="district">Chhatarpur</SimpleData>
		<SimpleData name="block">Bijawar</SimpleData>
		<SimpleData name="village">Nagda</SimpleData>
		<SimpleData name="Land Type">Farmer</SimpleData>
		<SimpleData name="Instance">Wave 2023</SimpleData>
	</SchemaData></ExtendedData>
      <Polygon><outerBoundaryIs><LinearRing><coordinates>79.6386089022346,24.3869462853241,0 79.6385606896989,24.3868981420471,0 79.638473998934,24.3868115756891,0 79.6383763143659,24.3868964848835,0 79.6383653651748,24.3869060021072,0 79.6383130576777,24.386951468644,0 79.6382799789374,24.3869802212023,0 79.6382734894454,24.3869858619676,0 79.6382625077479,24.3869954074248,0 79.6382135342331,24.3870379759145,0 79.6381780827252,24.3870687908509,0 79.6381706643806,24.3870752389746,0 79.6379246695944,24.3872890603147,0 79.6379922458227,24.38738932193,0 79.6380540756543,24.3874353962443,0 79.6381121391309,24.3874786638964,0 79.6382003545123,24.3875270127115,0 79.6382082923188,24.3875270840716,0 79.6382082467249,24.3875313382469,0 79.6382291346161,24.3875427864036,0 79.638306267779,24.3875850612149,0 79.6383584653824,24.3876136694147,0 79.6384576764698,24.3876196271685,0 79.6385030866891,24.3876200353205,0 79.6385564992133,24.3876205153807,0 79.638545934919,24.3874607955082,0 79.6386876270105,24.387278140728,0 79.6387704623871,24.387184827858,0 79.638707613287,24.3870800651964,0 79.6387060655083,24.3870800512874,0 79.6387060925171,24.3870775302348,0 79.6386549288355,24.3869922457596,0 79.6386519423031,24.3869892635218,0 79.6386089022346,24.3869462853241,0</coordinates></LinearRing></outerBoundaryIs></Polygon>
  </Placemark>
  
    </Document>
</kml>