<?xml version="1.0" encoding="UTF-8"?>
<kml xmlns="http://www.opengis.net/kml/2.2">
    <Document>
        <Placemark xmlns:ns0="http://www.opengis.net/kml/2.2">
	<Style><LineStyle><color>ff0000ff</color></LineStyle><PolyStyle><fill>0</fill></PolyStyle></Style>
	<ExtendedData><SchemaData schemaUrl="#Wave23_v27MAR2025">
		<SimpleData name="area(ha)">1.766129755473349</SimpleData>
		<SimpleData name="site_id">230078_1.1</SimpleData>
		<SimpleData name="Land_parc">230078</SimpleData>
		<SimpleData name="district">Panna</SimpleData>
		<SimpleData name="block">Shahnagar</SimpleData>
		<SimpleData name="village">Badagaon</SimpleData>
		<SimpleData name="Land Type">Farmer</SimpleData>
		<SimpleData name="Instance">Wave 2023</SimpleData>
	</SchemaData></ExtendedData>
      <Polygon><outerBoundaryIs><LinearRing><coordinates>79.8909268000001,23.9248729,0 79.8909186,23.9248774,0 79.8909034000001,23.9248859,0 79.8908644,23.9248993,0 79.8908136000001,23.9249263999999,0 79.8907947,23.9249382,0 79.890778,23.9249711000001,0 79.8907644,23.9250003,0 79.8907588,23.92504,0 79.8907590000001,23.9250701,0 79.8907695,23.9251434000001,0 79.8907786721016,23.9251677440011,0 79.8907828000001,23.9251787000001,0 79.8907838515252,23.9252147285745,0 79.8907847,23.9252437999999,0 79.8907848000001,23.9252784999999,0 79.8908336,23.9253218,0 79.8908204,23.925348,0 79.8908265000001,23.9253858000001,0 79.8908070000001,23.9254055,0 79.8908050000001,23.9254477000001,0 79.8907878000001,23.9254788,0 79.8907820848266,23.9254856527923,0 79.8907667,23.9255041,0 79.8907459,23.9255362,0 79.890718,23.9255564000001,0 79.8906861,23.925569,0 79.8906769641652,23.9255726846196,0 79.8906769426234,23.925575206168,0 79.8906708216622,23.925575161983,0 79.8906499000001,23.9255836,0 79.8906193,23.9255994000001,0 79.8905998,23.9256283999999,0 79.8905898000001,23.9256613,0 79.8905616000001,23.9256939,0 79.8905365000001,23.9257217000001,0 79.8905127000001,23.9257471,0 79.8904887,23.9257703,0 79.8904787000001,23.9257992,0 79.8904799000001,23.9258309,0 79.8904724000001,23.9258476,0 79.8904646,23.925872,0 79.8904573,23.9259034,0 79.8904413000001,23.9259325,0 79.8904387189177,23.9259347355837,0 79.8904159000001,23.9259545000001,0 79.8904108353929,23.9259566450103,0 79.8904121108998,23.9259633796868,0 79.8904212,23.9259706,0 79.8904512,23.9260075000001,0 79.8904705,23.9260488000001,0 79.8904442000001,23.9260683000001,0 79.8904456000001,23.9260836,0 79.8904054000001,23.9261152000001,0 79.8903978,23.9261389000001,0 79.8903879000001,23.9261372,0 79.8903952,23.9261477000001,0 79.8904112000001,23.9261783,0 79.8904177000001,23.9261973000001,0 79.8904309000001,23.9262183000001,0 79.8904392,23.926243,0 79.8904481000001,23.9262755,0 79.8904695077312,23.9262962071159,0 79.8904742838668,23.9262962416002,0 79.8904742450065,23.9263007893522,0 79.8904756000001,23.9263021000001,0 79.8905101000001,23.9263221,0 79.8905494000001,23.9263431000001,0 79.8905705000001,23.9263658,0 79.8906091162602,23.9263875273529,0 79.8906128,23.9263896,0 79.8906393000001,23.9264097000001,0 79.8906762000001,23.9264264000001,0 79.8907022000001,23.9264425,0 79.8907418000001,23.9264757000001,0 79.8907505000001,23.9264926000001,0 79.8907982000001,23.926495,0 79.8908271,23.9265065000001,0 79.8908925000001,23.9264813,0 79.8909257,23.9264794,0 79.8909703000001,23.9264471,0 79.8909921,23.9264438000001,0 79.8910245,23.9264196,0 79.8910490000001,23.9264001,0 79.8910770000001,23.9263753999999,0 79.8911011999999,23.9263466,0 79.8911264745336,23.9263009490985,0 79.8911269999999,23.9263000000001,0 79.8911426,23.9262747000001,0 79.8911693000001,23.9262383,0 79.8911877,23.9262281,0 79.8912079000001,23.9262267000001,0 79.8912277000001,23.9262023,0 79.8912655,23.9261978,0 79.8912935000001,23.9261963000001,0 79.8913269,23.9261894,0 79.8913539000001,23.9261948000001,0 79.8914191000001,23.9262026,0 79.8914213999999,23.9262029000001,0 79.8914219,23.9262086,0 79.8914315000001,23.9262119000001,0 79.8914539,23.9262297000001,0 79.8914573271029,23.9262318982618,0 79.8914790000001,23.9262458000001,0 79.8915194000001,23.9262512,0 79.8915496000001,23.9262576,0 79.8915968999999,23.9262572000001,0 79.89163,23.9262509000001,0 79.8916759,23.9262245,0 79.8917007,23.9262113,0 79.8917303000001,23.9261950000001,0 79.8917525569171,23.9261754553968,0 79.8917582000001,23.9261705000001,0 79.8917906,23.9261337,0 79.8918055756374,23.9261252232252,0 79.8918171,23.9261187,0 79.8918353000001,23.9260933000001,0 79.8918622,23.92608,0 79.8918800000001,23.9260558,0 79.891903,23.9260384999999,0 79.8919268,23.9260031,0 79.8919452,23.9259864000001,0 79.8919550764431,23.9259735086429,0 79.8920128641397,23.9258431234029,0 79.8920129000001,23.9258422,0 79.8920229,23.9258062999999,0 79.8920280000001,23.9257772,0 79.8920378,23.9257429,0 79.8920363,23.9257181000001,0 79.8920446,23.9256928999999,0 79.8920515089894,23.9256827473557,0 79.8920515713799,23.9256754352855,0 79.8920564609456,23.9256754705377,0 79.8920659,23.9256616,0 79.8920978,23.9256410000001,0 79.8921135,23.9256145,0 79.8921102000001,23.9255851000001,0 79.8920981,23.9255636000001,0 79.892083,23.9255435,0 79.8920567000001,23.9255182,0 79.8920529017723,23.9255195147721,0 79.8919995,23.925538,0 79.8919386000001,23.9255591000001,0 79.8919128000001,23.9255590000001,0 79.8918796,23.9255599,0 79.8918421000001,23.9255569,0 79.8918062,23.9255438000001,0 79.8917575000001,23.9255311000001,0 79.8917230000001,23.9255217,0 79.8917225,23.9254990000001,0 79.8917223775535,23.9254924368666,0 79.891722,23.9254722,0 79.8917195999999,23.9254553,0 79.8917039000001,23.9254433000001,0 79.891671,23.9254393000001,0 79.8916615000001,23.9254625000001,0 79.8916447000001,23.9254634,0 79.8916067,23.9254459999999,0 79.8915505,23.9254182,0 79.8915286000001,23.9254045000001,0 79.8914833000001,23.9254043000001,0 79.8914768999999,23.9253929,0 79.8914798,23.9253711,0 79.8914687,23.9253569000001,0 79.8914648145489,23.9253548540382,0 79.891448,23.925346,0 79.8914162000001,23.9253312000001,0 79.8913802999999,23.9253143000001,0 79.8913496000001,23.9252819000001,0 79.8913375000001,23.9252480000001,0 79.8912947,23.9252373000001,0 79.8912678555637,23.9252182212759,0 79.8912667000001,23.9252174000001,0 79.891269494966,23.9252169135609,0 79.8913006000001,23.9252115000001,0 79.8912698164287,23.9251792643737,0 79.8912688000001,23.9251782,0 79.891269877428,23.9251721202295,0 79.8912730000001,23.9251545,0 79.8912693821676,23.925133341164,0 79.8912684540802,23.9251279132587,0 79.8912664000001,23.9251159,0 79.8912720000001,23.9250705,0 79.8912379000001,23.9250331000001,0 79.8912407000001,23.9250023,0 79.8912263,23.9249658,0 79.8912399000001,23.9249282999999,0 79.8912473999999,23.9249043000001,0 79.891261,23.9248805000001,0 79.8912725292226,23.9248615433001,0 79.8912725679637,23.9248570059269,0 79.8912752769081,23.9248570254708,0 79.8912817999999,23.9248463000001,0 79.8912972,23.924785,0 79.8912733,23.9247436000001,0 79.8912403000001,23.9247579,0 79.8912221,23.9247560000001,0 79.8911805999999,23.9247543999999,0 79.8911599,23.9247433000001,0 79.8911226999999,23.9247459000001,0 79.8910906,23.9247492000001,0 79.8910769465862,23.9247545157306,0 79.8910531000001,23.9247638,0 79.8910488583176,23.9247650794588,0 79.8910226,23.9247730000001,0 79.8910003,23.9247806,0 79.8909787000001,23.9247840000001,0 79.890963,23.9247855,0 79.8909504000001,23.9247948000001,0 79.8909475,23.9248039,0 79.8909508000001,23.9248257,0 79.8909349,23.9248439,0 79.8909252999999,23.924871,0 79.8909268000001,23.9248729,0</coordinates></LinearRing></outerBoundaryIs></Polygon>
  </Placemark>
  
    </Document>
</kml>