<?xml version="1.0" encoding="UTF-8"?>
<kml xmlns="http://www.opengis.net/kml/2.2">
    <Document>
        <Placemark xmlns:ns0="http://www.opengis.net/kml/2.2">
	<Style><LineStyle><color>ff0000ff</color></LineStyle><PolyStyle><fill>0</fill></PolyStyle></Style>
	<ExtendedData><SchemaData schemaUrl="#Wave23_v27MAR2025">
		<SimpleData name="area(ha)">1.411048882272589</SimpleData>
		<SimpleData name="site_id">230077_1.1</SimpleData>
		<SimpleData name="Land_parc">230077</SimpleData>
		<SimpleData name="district">Panna</SimpleData>
		<SimpleData name="block">Shahnagar</SimpleData>
		<SimpleData name="village">Badagaon</SimpleData>
		<SimpleData name="Land Type">Farmer</SimpleData>
		<SimpleData name="Instance">Wave 2023</SimpleData>
	</SchemaData></ExtendedData>
      <Polygon><outerBoundaryIs><LinearRing><coordinates>79.8977879079785,23.9292657254289,0 79.8977962207357,23.9293082756218,0 79.8977895705299,23.9293462668536,0 79.8977795952212,23.9293979349108,0 79.8977812577726,23.9294496029475,0 79.8978028709415,23.9294906334324,0 79.8978323,23.9295743,0 79.8978406,23.9295968,0 79.8978457,23.9296181,0 79.8978572,23.929649,0 79.8978576,23.9296445,0 79.8978609,23.9296551,0 79.8978633,23.9296712,0 79.8978522,23.9297154,0 79.8978984,23.9297611,0 79.8979116681056,23.92978048038,0 79.8979162,23.9297871,0 79.8979244138649,23.9298720368064,0 79.8979294999547,23.929924630301,0 79.8979875000074,23.9300093303017,0 79.8980422783507,23.9299632428928,0 79.8980672166225,23.9298978982795,0 79.8981061743568,23.9298733403607,0 79.8982061715571,23.9298103046972,0 79.8982600725911,23.9297763268178,0 79.8982357,23.9297483,0 79.8982478,23.9297227,0 79.898269,23.9297014,0 79.8982915,23.9296832,0 79.8983182,23.9296692,0 79.8983495,23.9296548,0 79.89837,23.9296345,0 79.8984230026334,23.9296577945325,0 79.8984711,23.9296755,0 79.8984934,23.9296949,0 79.8985228,23.9297274,0 79.8985521,23.9297607,0 79.8985842,23.9297923,0 79.8986192,23.929825,0 79.8986573,23.9298391,0 79.8987011,23.9298613,0 79.8987263587045,23.9298777865953,0 79.8987417,23.9298878,0 79.8987911,23.929905,0 79.898931743378,23.9298515491732,0 79.8989965828847,23.9298272348813,0 79.8991063112806,23.9297801259278,0 79.8990447968768,23.9296509561281,0 79.8989832824731,23.9295415416085,0 79.8990414717739,23.9295202665523,0 79.8991179491407,23.9294913932561,0 79.8991678256843,23.9294761967818,0 79.8992260149852,23.929468598544,0 79.8991944071116,23.9294295782409,0 79.8991919221834,23.9294295604388,0 79.8991919477755,23.9294265421595,0 79.8991779,23.9294092,0 79.8991861137503,23.9293219524665,0 79.8991628380299,23.9292991577245,0 79.8991387310339,23.9292672450789,0 79.8991270931737,23.9292360922506,0 79.8991054800048,23.9291570704085,0 79.8991121302107,23.929102362951,0 79.8990664100457,23.929034738423,0 79.8990738915273,23.9289276028621,0 79.8990894652717,23.9287966392377,0 79.8990905170418,23.9287877946208,0 79.8990373153953,23.928815148419,0 79.8989541878226,23.9288683363435,0 79.8987064676562,23.9288698559982,0 79.8986216775321,23.9288485808313,0 79.8982326404921,23.9288455415214,0 79.8981412001622,23.928851620141,0 79.8981324869915,23.9287897799019,0 79.8981270684748,23.9287513228807,0 79.8979201138915,23.9287855487742,0 79.897920090905,23.9287882567017,0 79.8979044193761,23.9287881443016,0 79.8977870767027,23.9288075501423,0 79.8978178339046,23.9289481181892,0 79.8977779326697,23.928981550567,0 79.8977430190892,23.9290165025891,0 79.8977463441921,23.929077288692,0 79.8977563195009,23.9291365551147,0 79.8977829203241,23.9292110180175,0 79.8977879079785,23.9292657254289,0</coordinates></LinearRing></outerBoundaryIs><innerBoundaryIs><LinearRing><coordinates>79.8987083803066,23.9292424927093,0 79.8985862626394,23.9292135141007,0 79.8986684572231,23.9290374957456,0 79.8987447807652,23.9290997461668,0 79.8987083803066,23.9292424927093,0</coordinates></LinearRing></innerBoundaryIs><innerBoundaryIs><LinearRing><coordinates>79.8982460046338,23.9296194107576,0 79.8982532785833,23.9295678832238,0 79.8983351105145,23.9295645588661,0 79.8983205626156,23.929624397292,0 79.8982460046338,23.9296194107576,0</coordinates></LinearRing></innerBoundaryIs></Polygon>
  </Placemark>
  
    </Document>
</kml>