<?xml version="1.0" encoding="UTF-8"?>
<kml xmlns="http://www.opengis.net/kml/2.2">
    <Document>
        <Placemark xmlns:ns0="http://www.opengis.net/kml/2.2">
	<Style><LineStyle><color>ff0000ff</color></LineStyle><PolyStyle><fill>0</fill></PolyStyle></Style>
	<ExtendedData><SchemaData schemaUrl="#Wave23_v27MAR2025">
		<SimpleData name="area(ha)">0.885233491251778</SimpleData>
		<SimpleData name="site_id">230034_1.1</SimpleData>
		<SimpleData name="Land_parc">230034</SimpleData>
		<SimpleData name="district">Chhatarpur</SimpleData>
		<SimpleData name="block">Bijawar</SimpleData>
		<SimpleData name="village">Patna</SimpleData>
		<SimpleData name="Land Type">Farmer</SimpleData>
		<SimpleData name="Instance">Wave 2023</SimpleData>
	</SchemaData></ExtendedData>
      <Polygon><outerBoundaryIs><LinearRing><coordinates>79.7875124000001,24.4100098000001,0 79.787500061058,24.4100172441599,0 79.7874398000001,24.4100536000001,0 79.7873700839517,24.4100769969326,0 79.7873369999999,24.4100880999999,0 79.7872310000001,24.4100923999999,0 79.7870737186669,24.4101304650204,0 79.7870367999999,24.4101394000001,0 79.7869854796704,24.4101937309498,0 79.7869635000001,24.4102169999999,0 79.7869743999999,24.4102565,0 79.7870265,24.4103563000001,0 79.7870702880883,24.4104894774402,0 79.7870715454618,24.4104933016217,0 79.7870877055293,24.4105047969276,0 79.7871089197647,24.410555938425,0 79.7871464468775,24.4106464055349,0 79.7871611322145,24.4106453565821,0 79.7873677758858,24.4105698319917,0 79.7876583357688,24.4104460555794,0 79.7879405040307,24.4103631883204,0 79.7883317633678,24.4102771742034,0 79.7884533155415,24.4102412727577,0 79.7885351042281,24.4102171157214,0 79.7885402565056,24.4102061813045,0 79.7885443,24.4101976000001,0 79.7885438000001,24.4101639,0 79.7885531090792,24.4101181303664,0 79.7885531296049,24.410115979687,0 79.7885535458279,24.4101159830179,0 79.7885558000001,24.4101048999999,0 79.7885964000001,24.4100126000001,0 79.7886752,24.4099350000001,0 79.7886633000001,24.4098530000001,0 79.7886288000001,24.4097705,0 79.788457810622,24.4097703154539,0 79.7884435,24.4097702999999,0 79.788351,24.4097562,0 79.7883581,24.4097687,0 79.7882724000001,24.4097760000001,0 79.7881327,24.4097867,0 79.7880879186891,24.4097747600438,0 79.7879469252109,24.4098107967156,0 79.7879399000001,24.4098491000001,0 79.7878482999999,24.4098984000001,0 79.7877659822918,24.4099276972158,0 79.7877659691904,24.4099290690968,0 79.7877622121833,24.4099290390117,0 79.7876696000001,24.409962,0 79.7876670291891,24.4099627817113,0 79.7875124000001,24.4100098000001,0</coordinates></LinearRing></outerBoundaryIs></Polygon>
  </Placemark>
  
    </Document>
</kml>