<?xml version="1.0" encoding="UTF-8"?>
<kml xmlns="http://www.opengis.net/kml/2.2">
    <Document>
        <Placemark xmlns:ns0="http://www.opengis.net/kml/2.2">
	<Style><LineStyle><color>ff0000ff</color></LineStyle><PolyStyle><fill>0</fill></PolyStyle></Style>
	<ExtendedData><SchemaData schemaUrl="#Wave23_v27MAR2025">
		<SimpleData name="area(ha)">26.248928539767554</SimpleData>
		<SimpleData name="site_id">230072_1.2</SimpleData>
		<SimpleData name="Land_parc">230072</SimpleData>
		<SimpleData name="district">Panna</SimpleData>
		<SimpleData name="block">Shahnagar</SimpleData>
		<SimpleData name="village">Kachori</SimpleData>
		<SimpleData name="Land Type">Community</SimpleData>
		<SimpleData name="Instance">Wave 2023</SimpleData>
	</SchemaData></ExtendedData>
      <Polygon><outerBoundaryIs><LinearRing><coordinates>80.3538252,23.9781977,0 80.3538183,23.9782214,0 80.3538116,23.9782546,0 80.3538018,23.9782822,0 80.3537896,23.9783086,0 80.3537811,23.9783387,0 80.3537766700035,23.9783506384672,0 80.3537693,23.9783705,0 80.3537653,23.9784056,0 80.353758,23.978442,0 80.3537463,23.9784748,0 80.3537407,23.9784837,0 80.353729,23.978485,0 80.353677423196,23.9785409908403,0 80.3536065175163,23.9786179646465,0 80.3535785905906,23.9786482815309,0 80.3535584,23.9786702,0 80.3535347,23.9786842,0 80.3534152,23.9786897,0 80.3533918550285,23.9787073793998,0 80.3532784,23.9787933,0 80.3532753306728,23.9787972075381,0 80.3532535,23.978825,0 80.3531719,23.979004,0 80.3531622,23.9790328,0 80.3531578,23.979067,0 80.3531628,23.9791014,0 80.353189,23.9792767,0 80.3531789,23.9793131,0 80.3531615,23.9793439,0 80.3531285,23.9793818,0 80.353111,23.9794031,0 80.3530897,23.9794333,0 80.35307,23.9794574,0 80.3530487,23.9794955,0 80.3530211,23.9795341,0 80.3529975,23.9795623,0 80.3529716,23.9795859,0 80.3529254,23.9796358,0 80.3529156,23.9796481,0 80.3528987,23.979659,0 80.3528957,23.9796605,0 80.3528744,23.979665,0 80.3528653,23.9796791,0 80.3528025,23.9798378,0 80.3526286,23.980088,0 80.3526171,23.9800994,0 80.3526558,23.9800761,0 80.3526655,23.9800915,0 80.3525703,23.9802207,0 80.3524216,23.9803388,0 80.3520159,23.9804832,0 80.3519226,23.9804432,0 80.3517507,23.9804832,0 80.3517016470509,23.980505541707,0 80.3517016415964,23.9805066314775,0 80.3516992763179,23.9805066214829,0 80.3515046003866,23.9805952885462,0 80.3515045962341,23.980596117933,0 80.3515027961008,23.9805961103241,0 80.3514873478606,23.9806031463605,0 80.3513075534541,23.9806850351254,0 80.3513075506044,23.9806856041285,0 80.3513063156171,23.9806855989068,0 80.3512231,23.9807235,0 80.3511017,23.980945,0 80.3510688,23.9810557,0 80.3510492,23.9812554,0 80.3510428,23.9814126,0 80.3509959,23.98153,0 80.3510666,23.9816244,0 80.3511561,23.9818384,0 80.3511708,23.9820962,0 80.3512456459764,23.9823938423177,0 80.3513182251433,23.9826055897696,0 80.3514021552583,23.9827564902997,0 80.3514875,23.9828845,0 80.3515783,23.9830494,0 80.3516751,23.9832024,0 80.351753731186,23.9833191395009,0 80.3518187701816,23.9833824235962,0 80.351911,23.9834882,0 80.3522283,23.9836953,0 80.3523598,23.983802,0 80.3525247,23.9838969,0 80.3527127,23.9840033,0 80.3529068,23.9840876,0 80.3531748,23.9841501,0 80.3533829,23.9841996,0 80.3534389593015,23.9842170504979,0 80.3534524949936,23.9842171075466,0 80.3534524742747,23.9842212575215,0 80.3536248,23.9842749,0 80.3538614,23.9843625,0 80.3540359,23.9844367,0 80.3540975,23.9844545,0 80.3543087739658,23.9844916716666,0 80.3543358391224,23.9844917855841,0 80.3543358159693,23.9844964294302,0 80.3543527,23.9844994,0 80.354432,23.9845201,0 80.3545,23.984555,0 80.3545265817109,23.9845829074862,0 80.3545319882865,23.9845829302353,0 80.3545319602547,23.9845885542853,0 80.3545401,23.9845971,0 80.3545647,23.9846214,0 80.3546076,23.9846566,0 80.3546096,23.9846613,0 80.3546243,23.9846547,0 80.3546193,23.9846595,0 80.3546136,23.9846665,0 80.354628369378,23.9846736549437,0 80.3546298379238,23.9846736611219,0 80.3546298344176,23.9846743646739,0 80.3546361,23.9846774,0 80.3546729,23.9846822,0 80.3546872,23.98467,0 80.3546996,23.9846697,0 80.3547109,23.9846517,0 80.3547982,23.9845481,0 80.3548273088353,23.9844996000256,0 80.3548273374645,23.9844938534746,0 80.3548307492009,23.9844938678233,0 80.3548641,23.9844383,0 80.3548726,23.9844075,0 80.3548794,23.9841983,0 80.3549306,23.9840515,0 80.3549625,23.9837611,0 80.3549666,23.9837261,0 80.3549332,23.9835679,0 80.3549267,23.9835343,0 80.3549292,23.9835034,0 80.3550343,23.9833739,0 80.3550423,23.9833629,0 80.3551024,23.9833385,0 80.3551280150284,23.9833346402015,0 80.3551316,23.9833341,0 80.3551499,23.9833263,0 80.3551671,23.9833089,0 80.355199,23.9832847,0 80.3552756834302,23.9832312693987,0 80.3553197,23.9832006,0 80.3553541,23.9831784,0 80.3555863,23.983037,0 80.3556931,23.9829511,0 80.3556943,23.9829215,0 80.3557011,23.9828951,0 80.3556988341594,23.9828717702345,0 80.3556984,23.9828673,0 80.3557031,23.9828315,0 80.3557065,23.9827912,0 80.3557145200362,23.9827341731508,0 80.3557205603733,23.9826912230095,0 80.3557210379262,23.9826878273423,0 80.3557264,23.9826497,0 80.3557256,23.9826256,0 80.3557193,23.982594,0 80.3557053,23.9825696,0 80.3556682,23.9822001,0 80.3556771,23.9821652,0 80.3556919,23.9821008,0 80.3557218,23.9820248,0 80.3557437,23.9819945,0 80.3557517575906,23.9819688001003,0 80.3557800377751,23.9818785996108,0 80.3557991,23.9818178,0 80.3558107,23.981552,0 80.3558023,23.9815178,0 80.3557993,23.9814855,0 80.3557948,23.9814413,0 80.3557966,23.981318,0 80.3558174,23.981257,0 80.3558264995174,23.9812480114539,0 80.3558265067363,23.9812465599826,0 80.3558279627193,23.981246566096,0 80.355842,23.9812327,0 80.3558483,23.9812279,0 80.3559474344839,23.9808857906536,0 80.3559727,23.9807986,0 80.3560256524113,23.9807342608403,0 80.3560392,23.9807178,0 80.3560791,23.9805453,0 80.3560935,23.9804111,0 80.356102,23.9803823,0 80.3561069,23.980293,0 80.3561067,23.980262,0 80.3561316,23.9801807,0 80.3561443,23.9801508,0 80.3562464,23.9799211,0 80.3562358,23.9797496,0 80.3562203,23.9797219,0 80.3562159,23.9795113,0 80.3562216,23.9794747,0 80.3562254,23.9794365,0 80.3562614,23.9791623,0 80.3562644,23.9791056,0 80.3562964,23.9790262,0 80.3563027,23.9790022,0 80.3563012,23.9789649,0 80.3562982,23.9789365,0 80.3562962,23.9789032,0 80.3561793,23.9786416,0 80.356121,23.9786048,0 80.3560961,23.9785856,0 80.3560365647213,23.9785393093896,0 80.3559599,23.9784797,0 80.3559305,23.9784606,0 80.3558433802279,23.97835641416,0 80.3558408798084,23.9783564036625,0 80.3558408945382,23.9783534415403,0 80.3558039,23.9783092,0 80.3557886,23.9782834,0 80.3557542,23.9782561,0 80.3557191,23.9782232,0 80.3556529453412,23.9781749759689,0 80.3556451882567,23.9781749433928,0 80.3556452161207,23.9781693416802,0 80.3555682,23.9781132,0 80.3555409,23.9780985,0 80.3554985,23.9780468,0 80.3554556,23.9779963,0 80.3554184,23.9779875,0 80.3553648,23.9779563,0 80.3551899,23.9778575,0 80.3550808,23.9777816,0 80.3550528,23.9777609,0 80.3550181,23.9777341,0 80.3549662,23.9777029,0 80.3549049,23.9776743,0 80.3548613916182,23.9776571109815,0 80.35471,23.9775973,0 80.3543005342577,23.9774467363505,0 80.3542946579136,23.9774467116214,0 80.3539716,23.9776357,0 80.353966,23.97766,0 80.3538463,23.9779195,0 80.3538391,23.9779543,0 80.3538332,23.9779903,0 80.3538287,23.9780221,0 80.3538433,23.9781429,0 80.3538324,23.9781689,0 80.3538252,23.9781977,0</coordinates></LinearRing></outerBoundaryIs></Polygon>
  </Placemark>
  
    </Document>
</kml>