<?xml version="1.0" encoding="UTF-8"?>
<kml xmlns="http://www.opengis.net/kml/2.2">
    <Document>
        <Placemark xmlns:ns0="http://www.opengis.net/kml/2.2">
	<Style><LineStyle><color>ff0000ff</color></LineStyle><PolyStyle><fill>0</fill></PolyStyle></Style>
	<ExtendedData><SchemaData schemaUrl="#Wave23_v27MAR2025">
		<SimpleData name="area(ha)">0.930382942138406</SimpleData>
		<SimpleData name="site_id">230097_1.1</SimpleData>
		<SimpleData name="Land_parc">230097</SimpleData>
		<SimpleData name="district">Damoh</SimpleData>
		<SimpleData name="block">Hatta</SimpleData>
		<SimpleData name="village">Surajpura</SimpleData>
		<SimpleData name="Land Type">Farmer</SimpleData>
		<SimpleData name="Instance">Wave 2023</SimpleData>
	</SchemaData></ExtendedData>
      <Polygon><outerBoundaryIs><LinearRing><coordinates>79.4937803531442,24.3882771090182,0 79.4936692685502,24.3882736910077,0 79.4935663736806,24.3882910628688,0 79.4934033454456,24.3882750273047,0 79.4932710520418,24.3882763636017,0 79.4931641482812,24.3882576554436,0 79.4930465541445,24.3882616643346,0 79.4928058188285,24.3882306417575,0 79.4927945000001,24.3883712,0 79.4928117000001,24.3884696,0 79.4928084,24.3885048000001,0 79.4928229,24.3885618,0 79.4928200030106,24.3885883235507,0 79.4928194684299,24.3885932179324,0 79.4928484112196,24.3886014069107,0 79.4928650918699,24.3886029233334,0 79.4928668668147,24.3886045318775,0 79.4928893546341,24.3886249114635,0 79.4928976949594,24.3886514488619,0 79.4928878382114,24.3886848101626,0 79.4928696411382,24.388711347561,0 79.492865571873,24.3887136952144,0 79.4928506530678,24.3887223022172,0 79.4928601,24.3887721,0 79.4928592760799,24.3887821422733,0 79.4928647242872,24.3887851461788,0 79.492893145691,24.388800816504,0 79.4929075517073,24.3888190135772,0 79.4929128591869,24.3888538913009,0 79.4928901128456,24.3889069660977,0 79.4928630552584,24.388925843485,0 79.4928575097561,24.388929712439,0 79.4928323731169,24.3889306434259,0 79.4928270000001,24.3889743,0 79.4928251,24.3890753000001,0 79.4928609190268,24.389105923906,0 79.4928775000001,24.3891201,0 79.492899818049,24.3891309029812,0 79.4929299795488,24.3891455025521,0 79.4929251840776,24.3891311553723,0 79.4929174084552,24.3891078921139,0 79.492942429431,24.3890752890244,0 79.4930190087805,24.3890790800813,0 79.4930446162656,24.3891323436614,0 79.4930569193497,24.3891579340652,0 79.4930574897493,24.3891579412855,0 79.4931168180488,24.3891586922764,0 79.4932282751221,24.3891511101626,0 79.4933109201626,24.3891579340652,0 79.4933495889431,24.3891768893496,0 79.4934231354471,24.3891708236586,0 79.4934549803251,24.3891928117886,0 79.4934648251927,24.3892268213317,0 79.4934786097088,24.3892269584366,0 79.4934895000001,24.3892248,0 79.4935367,24.3892101,0 79.4936073000001,24.3891782,0 79.4936850000001,24.3891568,0 79.4937560000001,24.3891073,0 79.4938033000001,24.389066,0 79.4938190000001,24.3890265000001,0 79.4938112,24.3889623999999,0 79.4938025,24.3889259000001,0 79.4937831146505,24.3888687965531,0 79.4937804,24.3888608,0 79.4937822000001,24.3888200000001,0 79.4937739,24.3887462,0 79.4937724,24.388675,0 79.4937631000001,24.3886455,0 79.4937616,24.3885738999999,0 79.4937593,24.3884944000001,0 79.4937539000001,24.3884085000001,0 79.4937803531442,24.3882771090182,0</coordinates></LinearRing></outerBoundaryIs></Polygon>
  </Placemark>
  
    </Document>
</kml>