<?xml version="1.0" encoding="UTF-8"?>
<kml xmlns="http://www.opengis.net/kml/2.2">
    <Document>
        <Placemark xmlns:ns0="http://www.opengis.net/kml/2.2">
	<Style><LineStyle><color>ff0000ff</color></LineStyle><PolyStyle><fill>0</fill></PolyStyle></Style>
	<ExtendedData><SchemaData schemaUrl="#Wave23_v27MAR2025">
		<SimpleData name="area(ha)">0.357319148804323</SimpleData>
		<SimpleData name="site_id">230029_1.1</SimpleData>
		<SimpleData name="Land_parc">230029</SimpleData>
		<SimpleData name="district">Chhatarpur</SimpleData>
		<SimpleData name="block">Bijawar</SimpleData>
		<SimpleData name="village">Patna</SimpleData>
		<SimpleData name="Land Type">Farmer</SimpleData>
		<SimpleData name="Instance">Wave 2023</SimpleData>
	</SchemaData></ExtendedData>
      <Polygon><outerBoundaryIs><LinearRing><coordinates>79.7889698,24.4087986,0 79.7889600393252,24.4088123692838,0 79.7889449613815,24.4088336395769,0 79.7889567444846,24.4088851432247,0 79.7889261084166,24.4089452307874,0 79.7889166819342,24.4090160482352,0 79.7890713,24.4090779,0 79.7891525,24.4090999,0 79.7891924065459,24.4090847196618,0 79.7892701750261,24.4090525299352,0 79.7893526567475,24.4089860044743,0 79.7893997891598,24.4089366468516,0 79.7894492781926,24.4089001651181,0 79.7895105503286,24.4088486614763,0 79.7894728443988,24.4087907198542,0 79.7894186421247,24.4086683985647,0 79.7893715097124,24.4085396391846,0 79.7892866713704,24.4083464998682,0 79.7891069790487,24.4083883467451,0 79.7890612838639,24.4084042568779,0 79.7890068226726,24.408423219132,0 79.7888671929013,24.4084650659836,0 79.7889006868392,24.4085835815363,0 79.788908433762,24.4086109933573,0 79.7889473180021,24.4087241942554,0 79.7889595454051,24.4087646617113,0 79.7889604654098,24.4087677065311,0 79.7889698,24.4087986,0</coordinates></LinearRing></outerBoundaryIs></Polygon>
  </Placemark>
  
    </Document>
</kml>