<?xml version="1.0" encoding="UTF-8"?>
<kml xmlns="http://www.opengis.net/kml/2.2">
    <Document>
        <Placemark xmlns:ns0="http://www.opengis.net/kml/2.2">
	<Style><LineStyle><color>ff0000ff</color></LineStyle><PolyStyle><fill>0</fill></PolyStyle></Style>
	<ExtendedData><SchemaData schemaUrl="#Wave23_v27MAR2025">
		<SimpleData name="area(ha)">25.622856411613974</SimpleData>
		<SimpleData name="site_id">230006_1.1</SimpleData>
		<SimpleData name="Land_parc">230006</SimpleData>
		<SimpleData name="district">Chhatarpur</SimpleData>
		<SimpleData name="block">Bijawar</SimpleData>
		<SimpleData name="village">Malguwa</SimpleData>
		<SimpleData name="Land Type">Community</SimpleData>
		<SimpleData name="Instance">Wave 2023</SimpleData>
	</SchemaData></ExtendedData>
      <MultiGeometry><Polygon><outerBoundaryIs><LinearRing><coordinates>79.4705852626363,24.7303050536523,0 79.4705851687555,24.7303127301548,0 79.4706126732665,24.7303130107471,0 79.4706279,24.7302407,0 79.4706085960738,24.7302180112442,0 79.4706113670023,24.7302227042936,0 79.4705862728672,24.7302224482919,0 79.4705854183038,24.7302923249348,0 79.4703372548523,24.729973002657,0 79.4703153147316,24.7299488044388,0 79.4703801141718,24.7299494656035,0 79.4702766,24.7298278,0 79.4701458622046,24.7296761959809,0 79.470098658219,24.7296757142799,0 79.4700982462044,24.7297093943627,0 79.4700450074435,24.7296506758769,0 79.4700006557534,24.7296056059886,0 79.4700018336813,24.7295093219245,0 79.4696577,24.729161,0 79.4694273716379,24.7290230345637,0 79.4693454620102,24.7289397973825,0 79.4692367,24.7286041,0 79.4691337,24.7284571,0 79.4688929,24.7282184,0 79.4686361197873,24.7280126186437,0 79.4686358395836,24.7280355037314,0 79.4684537704469,24.7280336439503,0 79.4684383367728,24.7280179598086,0 79.4684392522123,24.7279432025483,0 79.468529586271,24.7279441253173,0 79.4683861845533,24.7278523673403,0 79.4682742639257,24.7278512239509,0 79.4682430496743,24.7278195030032,0 79.4682437708197,24.7277606193268,0 79.4681845108605,24.7277600138784,0 79.4681454063563,24.7277202745144,0 79.4681460303372,24.7276693276292,0 79.4680947579254,24.7276688037575,0 79.4680477631923,24.7276210459682,0 79.4680482899974,24.7275780358737,0 79.4680764837081,24.7275783239507,0 79.4680743,24.7275762,0 79.4679018,24.7273968,0 79.4679366,24.7273533,0 79.4678077,24.7268536,0 79.4677963,24.7266269,0 79.4675504,24.7260774,0 79.4674841,24.7259048,0 79.467435,24.725715,0 79.4673759,24.7254362,0 79.4668788,24.725433,0 79.466365078003,24.7254978584307,0 79.4661622918701,24.7253845074669,0 79.4660816921024,24.725418434594,0 79.4659548037287,24.7254018590532,0 79.4660685783932,24.7254239545851,0 79.4655014697532,24.7256626676439,0 79.4655015535317,24.7256558384389,0 79.465365812671,24.7256544491674,0 79.4653029766576,24.7257261916551,0 79.4653028833584,24.7257337959295,0 79.46529964293,24.7257299979073,0 79.4652576,24.725778,0 79.4654009,24.7258462,0 79.4656087,24.7259992,0 79.4658697089537,24.7262111281955,0 79.4660579177956,24.7267117755374,0 79.4661117154312,24.726858371067,0 79.4660822,24.7270424,0 79.4661749735896,24.7271708424447,0 79.4661757512779,24.7271074256294,0 79.4662032168841,24.7271077066062,0 79.4662364776877,24.7271983399035,0 79.466194524957,24.7271979107277,0 79.4662419,24.7272635,0 79.4662544,24.7273741,0 79.4662588506292,24.7273791548552,0 79.4662712756848,24.7273792819599,0 79.4662711065518,24.7273930746628,0 79.4662846,24.7274084,0 79.4663000324913,24.7274698691702,0 79.4663690145129,24.7274705748062,0 79.4663679074973,24.7275608565238,0 79.4663064259881,24.7275602276119,0 79.4661731,24.7276619,0 79.4660522,24.727805,0 79.465921,24.7278357,0 79.4656667,24.728128,0 79.4654067,24.7282786,0 79.4653545,24.7282803,0 79.465334,24.7283462,0 79.4655447,24.7284527,0 79.4658473,24.7284281,0 79.4661834,24.7284086,0 79.4664369,24.728374,0 79.4666315,24.7282748,0 79.4670602,24.728688,0 79.467446,24.7294386,0 79.4675348,24.7300285,0 79.468049,24.730503,0 79.4681255,24.7309343,0 79.4683417,24.7312429,0 79.4684315,24.7316196,0 79.4683558,24.7323833,0 79.4686652,24.7330112,0 79.4688294,24.7330247,0 79.4689952,24.7331542,0 79.4691937,24.7332228,0 79.469508,24.7335882,0 79.4699412,24.7339869,0 79.4700695,24.7341397,0 79.4703572,24.7343543,0 79.4705284,24.7347144,0 79.4708199,24.7351874,0 79.4712161,24.7359951,0 79.4713754396677,24.7360657284574,0 79.4714044308841,24.7360785789969,0 79.4719351,24.7363138,0 79.472035864572,24.7361965764641,0 79.4720958993649,24.736126735398,0 79.4723667,24.7358117,0 79.4723123,24.7357493,0 79.4724239,24.735522,0 79.4725548,24.7353458,0 79.4724536,24.7349986,0 79.4723542,24.7348888,0 79.4722419,24.7347187,0 79.4718891,24.7344449,0 79.4717291,24.7340459,0 79.4716393,24.7337225,0 79.4714133,24.7331758,0 79.47125,24.7328019,0 79.4711037,24.7326187,0 79.4709311,24.7324888,0 79.4707612,24.7319062,0 79.4707959,24.7315286,0 79.4707823,24.7312727,0 79.4707521,24.7311487,0 79.4706108,24.7309244,0 79.4706394807973,24.7308550429725,0 79.4705785439728,24.7308544213085,0 79.4705818563883,24.7305835757367,0 79.470514126774,24.7305828847522,0 79.4705852626363,24.7303050536523,0</coordinates></LinearRing></outerBoundaryIs><innerBoundaryIs><LinearRing><coordinates>79.4678107252447,24.7271241428646,0 79.4678561275361,24.7271246068382,0 79.4678544981605,24.7272576201831,0 79.4678107252447,24.7271241428646,0</coordinates></LinearRing></innerBoundaryIs><innerBoundaryIs><LinearRing><coordinates>79.4675433323424,24.726308772309,0 79.4675695454429,24.726309040227,0 79.4675706515278,24.7262187584435,0 79.467602587419,24.7262190848455,0 79.4676257534053,24.7262726501782,0 79.4676676615609,24.7263695517966,0 79.4676672844769,24.7264003322447,0 79.4675730425065,24.7263993690568,0 79.4675433323424,24.726308772309,0</coordinates></LinearRing></innerBoundaryIs><innerBoundaryIs><LinearRing><coordinates>79.4654011259633,24.7257838671551,0 79.4654004938493,24.7258353902003,0 79.465389466205,24.7258352773319,0 79.4653154089024,24.7257484767921,0 79.4654011259633,24.7257838671551,0</coordinates></LinearRing></innerBoundaryIs><innerBoundaryIs><LinearRing><coordinates>79.4655138220362,24.725830396353,0 79.4654993384275,24.725836401843,0 79.4654994847206,24.7258244768649,0 79.4655138220362,24.725830396353,0</coordinates></LinearRing></innerBoundaryIs></Polygon><Polygon><outerBoundaryIs><LinearRing><coordinates>79.465800301526,24.7254783095174,0 79.4658006207065,24.7254522862105,0 79.4657303564801,24.7254775938071,0 79.465800301526,24.7254783095174,0</coordinates></LinearRing></outerBoundaryIs></Polygon><Polygon><outerBoundaryIs><LinearRing><coordinates>79.4654241,24.7255879,0 79.4653968303442,24.725619034959,0 79.4654031821021,24.7256162721512,0 79.465519384356,24.7255657278844,0 79.4656817907746,24.725495086058,0 79.4654241,24.7255879,0</coordinates></LinearRing></outerBoundaryIs></Polygon><Polygon><outerBoundaryIs><LinearRing><coordinates>79.468246471196,24.7277436594052,0 79.4681155353784,24.7276163069512,0 79.4682174,24.7277245,0 79.468246471196,24.7277436594052,0</coordinates></LinearRing></outerBoundaryIs></Polygon><Polygon><outerBoundaryIs><LinearRing><coordinates>79.4705818563883,24.7305835757367,0 79.4706408427685,24.730584177497,0 79.4705966188549,24.7304934332168,0 79.4705829605161,24.7304932938772,0 79.4705818563883,24.7305835757367,0</coordinates></LinearRing></outerBoundaryIs></Polygon><Polygon><outerBoundaryIs><LinearRing><coordinates>79.4706747644726,24.7307697184843,0 79.4707007,24.730707,0 79.4706670522866,24.7306379574728,0 79.4706747644726,24.7307697184843,0</coordinates></LinearRing></outerBoundaryIs></Polygon></MultiGeometry>
  </Placemark>
  
    </Document>
</kml>