<?xml version="1.0" encoding="UTF-8"?>
<kml xmlns="http://www.opengis.net/kml/2.2">
    <Document>
        <Placemark xmlns:ns0="http://www.opengis.net/kml/2.2">
	<Style><LineStyle><color>ff0000ff</color></LineStyle><PolyStyle><fill>0</fill></PolyStyle></Style>
	<ExtendedData><SchemaData schemaUrl="#Wave23_v27MAR2025">
		<SimpleData name="area(ha)">0.441245076841715</SimpleData>
		<SimpleData name="site_id">230042_1.1</SimpleData>
		<SimpleData name="Land_parc">230042</SimpleData>
		<SimpleData name="district">Chhatarpur</SimpleData>
		<SimpleData name="block">Bijawar</SimpleData>
		<SimpleData name="village">Patna</SimpleData>
		<SimpleData name="Land Type">Farmer</SimpleData>
		<SimpleData name="Instance">Wave 2023</SimpleData>
	</SchemaData></ExtendedData>
      <Polygon><outerBoundaryIs><LinearRing><coordinates>79.7872585879763,24.4086009818117,0 79.7873247615549,24.4087856052792,0 79.7875138,24.4087127,0 79.7875810538647,24.4086391014938,0 79.7876516,24.4085619,0 79.7876745,24.4085091,0 79.78767,24.4085146,0 79.7876811914834,24.4084798765075,0 79.7876950520054,24.4084368718362,0 79.7877246189234,24.4083253282154,0 79.7876827086716,24.4083210077144,0 79.787649997654,24.4083176355483,0 79.7876612612418,24.408265068977,0 79.7876833809855,24.4082506075035,0 79.7877161712326,24.4082291698426,0 79.787707623628,24.4081726340075,0 79.7877050192963,24.408073194811,0 79.7877145698235,24.408012044403,0 79.7877310257856,24.4079066795034,0 79.7877395888795,24.4078518512982,0 79.7877428243359,24.4078311351423,0 79.7876872425616,24.4078462439009,0 79.7876871930196,24.407851431735,0 79.7876687023644,24.4078512836656,0 79.7875845157324,24.4078741680062,0 79.7873194557797,24.4080113803149,0 79.7872910691817,24.4080250180402,0 79.7872910324022,24.4080288681343,0 79.7872831861249,24.4080288052823,0 79.7872064653359,24.4080656640728,0 79.787137504407,24.4080778805211,0 79.7870445798072,24.4081291650571,0 79.7871656633766,24.4083740484297,0 79.7872460389088,24.4085703354825,0 79.7872585879763,24.4086009818117,0</coordinates></LinearRing></outerBoundaryIs></Polygon>
  </Placemark>
  
    </Document>
</kml>