<?xml version="1.0" encoding="UTF-8"?>
<kml xmlns="http://www.opengis.net/kml/2.2">
    <Document>
        <Placemark xmlns:ns0="http://www.opengis.net/kml/2.2">
	<Style><LineStyle><color>ff0000ff</color></LineStyle><PolyStyle><fill>0</fill></PolyStyle></Style>
	<ExtendedData><SchemaData schemaUrl="#Wave23_v27MAR2025">
		<SimpleData name="area(ha)">1.184736178912971</SimpleData>
		<SimpleData name="site_id">230089_1.1</SimpleData>
		<SimpleData name="Land_parc">230089</SimpleData>
		<SimpleData name="district">Damoh</SimpleData>
		<SimpleData name="block">Hatta</SimpleData>
		<SimpleData name="village">Surajpura</SimpleData>
		<SimpleData name="Land Type">Farmer</SimpleData>
		<SimpleData name="Instance">Wave 2023</SimpleData>
	</SchemaData></ExtendedData>
      <Polygon><outerBoundaryIs><LinearRing><coordinates>79.489754,24.3857547999999,0 79.489749402957,24.3857585169568,0 79.4897456702795,24.3857615350273,0 79.4897312513713,24.3857731934877,0 79.4897100868158,24.38579638266,0 79.4896878531036,24.3858189967137,0 79.4896537252377,24.3858433951511,0 79.4896460731309,24.3858461701094,0 79.4896129000001,24.3858582000001,0 79.4895868000001,24.3858651,0 79.4895063,24.3858639,0 79.4894494000001,24.3858799,0 79.4894052,24.3859051999999,0 79.4893724932002,24.3859020090964,0 79.4893496816168,24.3858981407871,0 79.4893248007647,24.3858939215742,0 79.4892532877108,24.3858921209651,0 79.4892511555456,24.3858926584001,0 79.4891649,24.3859144,0 79.489152322959,24.3859129559204,0 79.4890710497246,24.3859036242072,0 79.4890538381882,24.3859040004999,0 79.4889166984836,24.3859069986907,0 79.4888598,24.3859341,0 79.4887713053042,24.3859539844358,0 79.4887672,24.3859587999999,0 79.4887572721867,24.3859706149187,0 79.4887551,24.3859732000001,0 79.4887430999999,24.3859780000001,0 79.4887240000001,24.3859931999999,0 79.4886910000001,24.3860028,0 79.4886984,24.3859930000001,0 79.4886890000001,24.3859938,0 79.4886726,24.3859993000001,0 79.4886582783094,24.38600446247,0 79.4886572718477,24.3860048252642,0 79.4886355000001,24.3860178,0 79.4886314120921,24.3860163394948,0 79.4886206000001,24.3860246,0 79.488588802412,24.3860514982618,0 79.4885931000001,24.3860550000001,0 79.4886058999999,24.3860676000001,0 79.4886270000001,24.3860785000001,0 79.4886506000001,24.3860916000001,0 79.4886714,24.3861057,0 79.4886963000001,24.3861273,0 79.4887137,24.3861469,0 79.4887331,24.3861656,0 79.4887547928103,24.3861790822015,0 79.4887796000001,24.3861945,0 79.4887986000001,24.3861988,0 79.4888538302965,24.3861944889343,0 79.4888628313203,24.3862011627106,0 79.4889171000001,24.3862414,0 79.4889510065268,24.3862605830273,0 79.488965,24.3862685000001,0 79.4889775999999,24.3862785000001,0 79.4889899000001,24.3862884,0 79.4890094000001,24.3862795,0 79.4890311999999,24.3862645,0 79.4890559,24.3862531999999,0 79.4890927000001,24.3862388,0 79.4891252999999,24.3862225000001,0 79.489160044486,24.3862107079932,0 79.4891911,24.386215,0 79.4892266445365,24.386213818923,0 79.4892533563585,24.3862140173656,0 79.4892988606142,24.386215983315,0 79.4893413147252,24.3862182247804,0 79.4893449618834,24.3861483141696,0 79.4893491595893,24.3861175309933,0 79.4893309695305,24.3860895462875,0 79.4893533572953,24.3860503676993,0 79.489414923648,24.38602937917,0 79.4894443075892,24.3860545654051,0 79.4894387106479,24.3860923447581,0 79.4894249239236,24.3861164715269,0 79.4894219198244,24.3861217286993,0 79.4893939351187,24.3861441164638,0 79.4893925358833,24.3861972874048,0 79.4894621800231,24.3862820244351,0 79.4894829000001,24.3862815,0 79.4895222000001,24.3862753,0 79.4895519525466,24.3862709580397,0 79.4895734204902,24.3862753178729,0 79.4896019000001,24.3862772,0 79.4896490000001,24.3862896999999,0 79.4896649,24.3862856,0 79.4897278,24.3862629,0 79.4897474000001,24.3862709,0 79.4897632,24.3862745000001,0 79.489787224947,24.3862739154983,0 79.4898180005725,24.3862818342293,0 79.4898804976041,24.3863016088402,0 79.4898889715631,24.386304290073,0 79.4899033224969,24.3863018363829,0 79.489918268307,24.3862992809805,0 79.4899497215162,24.3863001382385,0 79.4899717808369,24.3862922025217,0 79.4900492012445,24.3862714978099,0 79.4901295927515,24.386250550818,0 79.4901534457087,24.3862415455363,0 79.4901778341037,24.3862374389582,0 79.490191,24.3862524,0 79.4902327872033,24.3862529571633,0 79.490236,24.3862530000001,0 79.490279,24.3862530999999,0 79.4902378999999,24.3861424,0 79.4902465,24.3861038,0 79.4902711,24.3860759,0 79.490299,24.3860634000001,0 79.4903733,24.3860423000001,0 79.4904077,24.3860488000001,0 79.4904431,24.3860502,0 79.4904843000001,24.3860462000001,0 79.4905161000001,24.3860335,0 79.4905827000001,24.3860191000001,0 79.4906517000001,24.3860248000001,0 79.4906877000001,24.3860305,0 79.490726,24.3860383000001,0 79.4907324173939,24.3860392068062,0 79.4907687305387,24.3860395686052,0 79.4908272000001,24.3860294000001,0 79.4908456,24.3860094,0 79.4908576000001,24.3859854,0 79.4908671,24.3859481000001,0 79.4908721,24.3859189,0 79.4908683000001,24.3858486,0 79.4908608,24.3858261,0 79.4908562,24.3857945,0 79.4908487000001,24.3857606,0 79.4908442,24.3857286,0 79.4908408000001,24.3857054999999,0 79.4908332,24.3856709000001,0 79.4908276000001,24.3856467,0 79.4908257999999,24.3856104000001,0 79.4908246049595,24.3855886376831,0 79.4908239000001,24.3855758,0 79.4908231000001,24.385548,0 79.4908158,24.3855063,0 79.4908177,24.3854777000001,0 79.4908128999999,24.3854435999999,0 79.4907825062406,24.3854202359899,0 79.4907497555661,24.385422424344,0 79.4906749200196,24.3854332872538,0 79.4906432944018,24.3854344673418,0 79.4906120526175,24.3854408164735,0 79.4905741,24.3854429,0 79.4905359943135,24.3854468549561,0 79.49049599905,24.3854404756287,0 79.4904636,24.3854338,0 79.4904300365092,24.385433701596,0 79.4903965802666,24.3854265718435,0 79.4903599753115,24.385434634527,0 79.490328370526,24.3854465529884,0 79.4902929017303,24.3854557955916,0 79.4902683722795,24.3854655417585,0 79.4901984932286,24.3854854929722,0 79.490161272063,24.3854954524424,0 79.4901301802539,24.3855016670409,0 79.4900645173564,24.385519634544,0 79.4900054000001,24.3855602,0 79.489984437052,24.3855768771233,0 79.4899612872221,24.3856016569206,0 79.4899470636279,24.3856246227178,0 79.4899180329409,24.3856447223675,0 79.4898892480978,24.3856696136299,0 79.4898624005538,24.3856928296275,0 79.4898449602103,24.3857027388792,0 79.4898375967482,24.3857069226489,0 79.4898088,24.3857185000001,0 79.489779,24.3857375000001,0 79.489754,24.3857547999999,0</coordinates></LinearRing></outerBoundaryIs></Polygon>
  </Placemark>
  
    </Document>
</kml>