<?xml version="1.0" encoding="UTF-8"?>
<kml xmlns="http://www.opengis.net/kml/2.2">
    <Document>
        <Placemark xmlns:ns0="http://www.opengis.net/kml/2.2">
	<Style><LineStyle><color>ff0000ff</color></LineStyle><PolyStyle><fill>0</fill></PolyStyle></Style>
	<ExtendedData><SchemaData schemaUrl="#Wave23_v27MAR2025">
		<SimpleData name="area(ha)">1.447125215455578</SimpleData>
		<SimpleData name="site_id">230095_1.1</SimpleData>
		<SimpleData name="Land_parc">230095</SimpleData>
		<SimpleData name="district">Damoh</SimpleData>
		<SimpleData name="block">Hatta</SimpleData>
		<SimpleData name="village">Surajpura</SimpleData>
		<SimpleData name="Land Type">Farmer</SimpleData>
		<SimpleData name="Instance">Wave 2023</SimpleData>
	</SchemaData></ExtendedData>
      <Polygon><outerBoundaryIs><LinearRing><coordinates>79.4940959,24.3828783,0 79.4941177470124,24.3828871138163,0 79.4941192,24.3828877,0 79.4941556,24.3829072,0 79.4941604364405,24.3829129059138,0 79.4941734,24.3829282,0 79.4941852,24.3829476,0 79.4941936,24.3829713,0 79.4941818,24.3829888,0 79.4941777251561,24.3830033754036,0 79.4941766,24.3830074,0 79.4941836,24.3830245,0 79.4941986,24.3830447,0 79.4942224,24.3830624,0 79.4942349,24.3830839,0 79.4942615,24.3831011,0 79.4942806,24.3831151,0 79.4943018,24.3831305,0 79.4943198,24.3831485,0 79.4943396,24.3831623,0 79.4943655,24.3831853,0 79.4943755,24.3832035,0 79.4943786,24.38323,0 79.4943659,24.3832417,0 79.494367,24.3832649,0 79.4943766281395,24.3832762452608,0 79.4943827,24.3832834,0 79.4943975,24.3833003,0 79.4944049,24.3833176,0 79.4944083143467,24.3833260241836,0 79.4944156,24.383344,0 79.4944199,24.3833607,0 79.4944219888633,24.3833669937189,0 79.4944276,24.3833839,0 79.4944396,24.3833998,0 79.49445,24.3834263,0 79.4944751,24.3834416,0 79.4944973,24.3834543,0 79.4945026737151,24.3834580932111,0 79.4945053388739,24.3834581196968,0 79.4945053170829,24.3834599591179,0 79.4945143,24.3834663,0 79.4945574,24.3834936,0 79.4946209,24.38351,0 79.4946217,24.3835087,0 79.4946457,24.3834756,0 79.4946572,24.3834642,0 79.4946757,24.3834673,0 79.494719,24.3834645,0 79.4947402128076,24.3834604536273,0 79.4947536,24.3834579,0 79.4947824,24.3834565,0 79.4948041,24.3834729,0 79.4948188,24.3834965,0 79.4948333,24.3835081,0 79.4948995,24.3834902,0 79.4949256,24.383489,0 79.494977,24.3834998,0 79.494996,24.3835013,0 79.4950143,24.3834897,0 79.4950336,24.3834824,0 79.4950683,24.3834721,0 79.4950967772483,24.3834664602528,0 79.4950968064255,24.3834639963842,0 79.4951086254234,24.3834641137915,0 79.4951092,24.383464,0 79.49514,24.3834616,0 79.4951715,24.3834574,0 79.4951938,24.3834383,0 79.4952107,24.3834177,0 79.4952224,24.3833916,0 79.4952396,24.3833714,0 79.4952685,24.3833578,0 79.4952953821131,24.3833460437567,0 79.4953044,24.3833421,0 79.4953253,24.3833389,0 79.4953606,24.3833294,0 79.4953847,24.3833271,0 79.4954113,24.3833271,0 79.4954423,24.3833198,0 79.4954714,24.3833116,0 79.4954816,24.3832839,0 79.4954686,24.3832629,0 79.4954395,24.3832415,0 79.4954908083493,24.3831970167894,0 79.4955112371694,24.3831793054375,0 79.495463809761,24.3831290396911,0 79.495432766366,24.3830772031218,0 79.4954017229713,24.3829955212098,0 79.4955129618024,24.382993165,0 79.4955405559311,24.3830654220801,0 79.4955629761606,24.3830968381889,0 79.4955828094406,24.3831227564729,0 79.4956028,24.3831408,0 79.4956236,24.3831402,0 79.4956598,24.3831282,0 79.4956852,24.3831209,0 79.4957169,24.3831097,0 79.4957415,24.3831076,0 79.4957831,24.3831042,0 79.4958177,24.3830992,0 79.4958531,24.3830863,0 79.4958728,24.3830691,0 79.4958983,24.3830494,0 79.4959189,24.3830349,0 79.4959381,24.3830163,0 79.4959522,24.3829976,0 79.4959691272418,24.3829601780585,0 79.4959846489391,24.3829209078787,0 79.4959492939618,24.3828792814749,0 79.495704036899,24.3827476458138,0 79.4956968240708,24.3827475741932,0 79.4956968687634,24.3827437984845,0 79.4955629761606,24.3826719346552,0 79.4955258840085,24.3826555790396,0 79.4955141960639,24.3826504252909,0 79.4953163840133,24.3825632007253,0 79.4953046524459,24.3825630842057,0 79.4953047120031,24.3825580539796,0 79.4951283686343,24.3824802956255,0 79.4950455862483,24.3824425961101,0 79.4949834994589,24.382389188444,0 79.4949409678873,24.3823788762501,0 79.4949124820034,24.3823785932538,0 79.4949125602221,24.3823719885273,0 79.4948792,24.3823639,0 79.4948268,24.3823306,0 79.4947536,24.3823391,0 79.49472,24.3823326,0 79.4946829,24.3823571,0 79.4946626,24.3823707,0 79.4946309,24.3823855,0 79.4946111,24.3824021,0 79.4945678,24.3824328,0 79.4945625,24.3824635,0 79.4945566,24.3824953,0 79.4945446,24.3825263,0 79.4945333,24.3825508,0 79.4945189,24.3825718,0 79.4945203,24.3825924,0 79.494567,24.3826198,0 79.4945394,24.3826349,0 79.4945150111567,24.3826416444019,0 79.4945149650505,24.3826455364908,0 79.4944982473991,24.3826453703597,0 79.494467,24.3826487,0 79.4944231,24.3826561,0 79.4943873,24.382671,0 79.4943511,24.3826821,0 79.4943193,24.3826946,0 79.4942859,24.3827093,0 79.4942557,24.3827279,0 79.4942259,24.3827507,0 79.4941824,24.3827702,0 79.4941635,24.3827788,0 79.4941366,24.3827927,0 79.49411872279,24.3828047652784,0 79.4941123,24.3828091,0 79.4940926,24.3828335,0 79.4940959,24.3828783,0</coordinates></LinearRing></outerBoundaryIs></Polygon>
  </Placemark>
  
    </Document>
</kml>