<?xml version="1.0" encoding="UTF-8"?>
<kml xmlns="http://www.opengis.net/kml/2.2">
    <Document>
        <Placemark xmlns:ns0="http://www.opengis.net/kml/2.2">
	<Style><LineStyle><color>ff0000ff</color></LineStyle><PolyStyle><fill>0</fill></PolyStyle></Style>
	<ExtendedData><SchemaData schemaUrl="#Wave23_v27MAR2025">
		<SimpleData name="area(ha)">1.058975999701082</SimpleData>
		<SimpleData name="site_id">230023_1.1</SimpleData>
		<SimpleData name="Land_parc">230023</SimpleData>
		<SimpleData name="district">Chhatarpur</SimpleData>
		<SimpleData name="block">Bijawar</SimpleData>
		<SimpleData name="village">Matipura</SimpleData>
		<SimpleData name="Land Type">Farmer</SimpleData>
		<SimpleData name="Instance">Wave 2023</SimpleData>
	</SchemaData></ExtendedData>
      <Polygon><outerBoundaryIs><LinearRing><coordinates>79.6708912000001,24.4419702,0 79.6708787,24.4419863000001,0 79.6708754,24.4420005,0 79.6708834,24.4420208000001,0 79.6708853,24.4420597000001,0 79.6708642838208,24.4420830205918,0 79.6708642258125,24.4420885521089,0 79.6708593376126,24.4420885091474,0 79.6708397,24.4421103,0 79.6707898000001,24.4421565000001,0 79.6708104000001,24.4421973999999,0 79.6708188,24.4422225000001,0 79.6708740000001,24.4422681999999,0 79.6709096476095,24.4422695544038,0 79.6710587000073,24.4422708642855,0 79.6710722,24.4422679000001,0 79.6711010000001,24.4422796,0 79.6711438000001,24.4423130999999,0 79.6711624,24.4423297000001,0 79.6711905,24.4423676,0 79.6711999000001,24.4423813000001,0 79.671229,24.4423958,0 79.6712638000001,24.4424061,0 79.6712824,24.4424195,0 79.6713037,24.4424248,0 79.6713279000001,24.4424445,0 79.6714252368468,24.4425449894861,0 79.6714514000001,24.442572,0 79.6715093000001,24.4425787000001,0 79.6714981000001,24.4425632000001,0 79.671506661483,24.4425457047974,0 79.6715119,24.442535,0 79.6715299000001,24.4425265,0 79.6715457000001,24.4425042999999,0 79.6716460000001,24.4423964000001,0 79.6716528000001,24.4424200000001,0 79.6716870000001,24.4424299,0 79.6717128000001,24.4424341,0 79.6717329999999,24.4424703,0 79.6717499000001,24.4424735000001,0 79.6717702,24.4424971000001,0 79.6717914,24.4425065999999,0 79.6718162000001,24.4425177,0 79.671838,24.4425242,0 79.6718849000001,24.4425469000001,0 79.6719102000001,24.4425586,0 79.6719346,24.4425591,0 79.6719580000001,24.4425648,0 79.6719765,24.4425652,0 79.6720249,24.4425845,0 79.6720439000001,24.4425872,0 79.6720710000001,24.4426070000001,0 79.6720861000001,24.4426302000001,0 79.6721056000001,24.4426387000001,0 79.6721161747621,24.4426413595213,0 79.6721407531978,24.4426415753345,0 79.6721407432285,24.4426425268721,0 79.6721569000001,24.4426422,0 79.6721887,24.4426391999999,0 79.6722131000001,24.4426381,0 79.6722368000001,24.4426492000001,0 79.672253,24.4426622,0 79.6722789,24.4426731000001,0 79.6722969000001,24.4426824,0 79.6723181000001,24.4426917,0 79.6723631,24.4427102000001,0 79.6723783000001,24.4427164000001,0 79.6723896,24.4427291000001,0 79.6724032,24.4427394,0 79.6724208000001,24.4427422999999,0 79.6724424000001,24.4427456,0 79.6724927000001,24.4427545,0 79.6725268000001,24.4427499,0 79.6725491,24.4427422000001,0 79.6725974000001,24.4427160000001,0 79.6726105000001,24.4427014000001,0 79.6726706000001,24.4426843000001,0 79.6726889,24.4426820000001,0 79.6727127,24.4426945000001,0 79.6727393000001,24.4427027,0 79.6727796000001,24.442724,0 79.6728000999999,24.4427262,0 79.6728237,24.4427337000001,0 79.6728529000001,24.4427337000001,0 79.6728702000001,24.4427349,0 79.6729032,24.4427490999999,0 79.6729453000001,24.4427621,0 79.6729621,24.4427669,0 79.6729855,24.4427713,0 79.6730072000001,24.4427731,0 79.6730366,24.4427718000001,0 79.6730796,24.4427458000001,0 79.6730804566367,24.4427462755812,0 79.6730852167591,24.4427301721883,0 79.6730603,24.4427102000001,0 79.6730352000001,24.4426818,0 79.673011,24.4426586000001,0 79.6729912,24.4426337,0 79.6729687000001,24.4426046000001,0 79.6729297719191,24.44255819967,0 79.6729041,24.4425276000001,0 79.6728845000001,24.4425007,0 79.6728568,24.4424726,0 79.6728337000001,24.4424539,0 79.6728125000001,24.4424411,0 79.6727878,24.4424278,0 79.67276,24.4424234,0 79.672734884205,24.4424231289664,0 79.6727322,24.4424231,0 79.6727013,24.4424202999999,0 79.6726749000001,24.4424111000001,0 79.672625,24.4424014,0 79.6725983,24.4423922000001,0 79.672564,24.4423893000001,0 79.6725628000001,24.4424010000001,0 79.6725342,24.4424013,0 79.6725172,24.4423829,0 79.6724846,24.4423126000001,0 79.672462849704,24.442303732973,0 79.6724404149968,24.4422845100739,0 79.6724313,24.4422767,0 79.6724291,24.4422744999999,0 79.6724244,24.4422749,0 79.6724102000001,24.4422761000001,0 79.6723478000001,24.4422532999999,0 79.672307,24.4422422000001,0 79.6722603000001,24.4422167000001,0 79.6722282000001,24.4421935,0 79.6722017,24.4421916,0 79.6721614237419,24.4421902489472,0 79.6721454831873,24.4421901089843,0 79.6721454873217,24.4421897143627,0 79.6720913999999,24.4421879000001,0 79.6720791,24.4421894,0 79.6720476000001,24.4421758999999,0 79.6720175000001,24.4421609,0 79.6719633,24.4421125000001,0 79.6719352740757,24.4420979615524,0 79.6719313,24.4420959000001,0 79.6718957000001,24.4420555999999,0 79.6718667,24.4420449999999,0 79.6718379000001,24.4420412,0 79.6718056,24.4420338000001,0 79.6717875,24.4420148,0 79.6717774481934,24.442006273915,0 79.6717651000001,24.4419958,0 79.6717453000001,24.4419725,0 79.6717223,24.4419447,0 79.6717001000001,24.4419278,0 79.6716783000001,24.4419134000001,0 79.6716493,24.4419007999999,0 79.6716060000001,24.4418855000001,0 79.6715854,24.4418677,0 79.6715556,24.4418506000001,0 79.6715287000001,24.4418357000001,0 79.6714953,24.4418236999999,0 79.6714647,24.441815,0 79.6714379,24.4418121,0 79.6714154,24.4418139000001,0 79.6713856,24.4418193999999,0 79.6713592,24.4418297000001,0 79.6713304,24.4418347,0 79.6712994,24.4418474,0 79.6712731000001,24.4418577999999,0 79.6712611247489,24.4418654856101,0 79.6712463,24.4418749999999,0 79.6712121,24.4418967,0 79.6711838,24.4419032000001,0 79.6711620439272,24.4419075382655,0 79.6711620121843,24.441910565888,0 79.6711482945489,24.4419104453534,0 79.6711211999999,24.4419182000001,0 79.6710903000001,24.4419189,0 79.6710657,24.441921,0 79.671038,24.4419201000001,0 79.6710091000001,24.4419243000001,0 79.6709726999999,24.4419313,0 79.67096446613,24.4419359468386,0 79.6709424000001,24.4419483999999,0 79.6708912000001,24.4419702,0</coordinates></LinearRing></outerBoundaryIs></Polygon>
  </Placemark>
  
    </Document>
</kml>