<?xml version="1.0" encoding="UTF-8"?>
<kml xmlns="http://www.opengis.net/kml/2.2">
    <Document>
        <Placemark xmlns:ns0="http://www.opengis.net/kml/2.2">
	<Style><LineStyle><color>ff0000ff</color></LineStyle><PolyStyle><fill>0</fill></PolyStyle></Style>
	<ExtendedData><SchemaData schemaUrl="#Wave23_v27MAR2025">
		<SimpleData name="area(ha)">19.861163824765487</SimpleData>
		<SimpleData name="site_id">230085_1.3</SimpleData>
		<SimpleData name="Land_parc">230085</SimpleData>
		<SimpleData name="district">Damoh</SimpleData>
		<SimpleData name="block">Batyagarh</SimpleData>
		<SimpleData name="village">Jangupura</SimpleData>
		<SimpleData name="Land Type">Community</SimpleData>
		<SimpleData name="Instance">Wave 2023</SimpleData>
	</SchemaData></ExtendedData>
      <Polygon><outerBoundaryIs><LinearRing><coordinates>79.4613231068915,24.3091884341214,0 79.4613228,24.3092074,0 79.4613248,24.3092666,0 79.4613294,24.3092854,0 79.4613367,24.3093119,0 79.4613403,24.3093509,0 79.4613402,24.3093692,0 79.4613608,24.3094359,0 79.4613782,24.3095073,0 79.4613991,24.3095964,0 79.4614055,24.3096131,0 79.4614414,24.3097097,0 79.4614481,24.3097218,0 79.4614552,24.309812,0 79.4614646,24.3098563,0 79.4614962,24.3099079,0 79.4615048,24.3099474,0 79.4615574,24.3101413,0 79.4616155,24.3102967,0 79.4616382,24.310349,0 79.4616845,24.3104809,0 79.4616957,24.3105822,0 79.4617118,24.310629,0 79.4617421,24.3107074,0 79.4617616,24.3107807,0 79.4617439,24.3109126,0 79.4618115,24.3109764,0 79.4618233,24.3110241,0 79.461835,24.3110595,0 79.4618382,24.3111245,0 79.4618732,24.3113309,0 79.4619199,24.3113664,0 79.4619383,24.3114021,0 79.4619635,24.3114391,0 79.461981,24.3114649,0 79.4619904,24.3115198,0 79.4620129,24.3115613,0 79.4620288,24.3116167,0 79.4620447,24.3116666,0 79.4620738,24.3117427,0 79.4621073,24.3118113,0 79.4621458,24.3118734,0 79.4621804,24.3119073,0 79.4622071,24.3119843,0 79.4622793,24.3120508,0 79.4623015,24.3120968,0 79.4623291,24.312161,0 79.4623414,24.3121803,0 79.4624114,24.3122207,0 79.4624458,24.3122584,0 79.4624664,24.312305,0 79.4624997,24.3123545,0 79.4625067,24.3124236,0 79.4624963,24.3124601,0 79.4624926,24.3124873,0 79.4625021,24.3125381,0 79.4624887,24.3126491,0 79.4624867,24.3127225,0 79.4625029,24.3127609,0 79.4625455,24.3128115,0 79.4625571,24.3128674,0 79.4625822,24.312913,0 79.4625899,24.3129493,0 79.4626357,24.3130058,0 79.4626416,24.3130447,0 79.4626581,24.3130672,0 79.4626867,24.3131121,0 79.4627179,24.3131622,0 79.4627373,24.3131937,0 79.462739,24.3131953,0 79.4627755,24.3132518,0 79.4627992,24.3132827,0 79.4628518,24.3133232,0 79.4628719,24.3133772,0 79.4629398,24.3134259,0 79.4630114,24.3134975,0 79.4630709,24.3135638,0 79.4632276,24.3136598,0 79.4632794,24.3136533,0 79.4632799,24.3136502,0 79.4633449,24.3136637,0 79.4634201,24.3137189,0 79.4634403,24.3137289,0 79.4635074,24.3137433,0 79.4635829,24.3137765,0 79.4636242,24.3138122,0 79.4637107,24.3138712,0 79.4637731,24.3138982,0 79.4637957,24.3139216,0 79.4639336,24.3140071,0 79.4639479,24.3140282,0 79.464007,24.3140507,0 79.4640565,24.3140701,0 79.4640929,24.3140934,0 79.4641367,24.3141517,0 79.4641665,24.3141782,0 79.4642839,24.3142619,0 79.4643264,24.3142979,0 79.464412,24.3143828,0 79.4644678,24.3144337,0 79.4645053,24.3144347,0 79.4646039,24.3145142,0 79.4646388,24.314548,0 79.4646937,24.3145877,0 79.4647367,24.3145913,0 79.4648526,24.314638,0 79.4649181,24.314669,0 79.4651572,24.3147899,0 79.4652138,24.314804,0 79.4653023,24.3148292,0 79.4653495,24.3148543,0 79.4654087,24.3148843,0 79.4654561,24.3149062,0 79.4655114,24.3148918,0 79.4656926,24.3150275,0 79.4657186,24.3150397,0 79.4657409,24.3150491,0 79.4657577,24.3150664,0 79.4657718,24.3150741,0 79.4659083,24.3151367,0 79.4660005,24.3151865,0 79.4660562,24.3152339,0 79.4661135,24.3152547,0 79.4661991,24.3152863,0 79.4662441,24.3153081,0 79.4662545,24.3153177,0 79.4663188,24.3153461,0 79.4663938,24.3153723,0 79.4664486,24.315396,0 79.46648,24.3154375,0 79.4667901,24.3155542,0 79.4668701,24.3155531,0 79.4669114,24.3155564,0 79.4669583,24.3155807,0 79.46704,24.31559,0 79.4670448,24.3155908,0 79.4670569,24.3155857,0 79.46711,24.3155991,0 79.4671959,24.31563,0 79.4673224469977,24.3155826629632,0 79.4673250200603,24.3155801576128,0 79.467351,24.3155244,0 79.4673583,24.3155093,0 79.4674537,24.3155725,0 79.4674559,24.3155605,0 79.4674517,24.3155283,0 79.4674393,24.3155194,0 79.4674252,24.3154674,0 79.4674152,24.315404,0 79.467397,24.3153457,0 79.4673866,24.3152894,0 79.4673509,24.3152567,0 79.4673579,24.315179,0 79.4673376,24.3151137,0 79.4672953,24.315045,0 79.4672895,24.3149925,0 79.4672686,24.3149006,0 79.4672616,24.3148359,0 79.4672505,24.314761,0 79.467244,24.3147369,0 79.4672386,24.3146597,0 79.4672262,24.31462,0 79.4672047,24.3145486,0 79.4672043,24.314475,0 79.4671784,24.3144124,0 79.4671845,24.3143905,0 79.4671833,24.3143733,0 79.4672017,24.3143151,0 79.4671982,24.3142765,0 79.4671498,24.3142058,0 79.4671261,24.3141615,0 79.4671188,24.3141472,0 79.4671097,24.314106,0 79.4670877,24.3140627,0 79.4671045,24.3140099,0 79.4671119,24.3139432,0 79.4670826,24.3138747,0 79.4670692,24.3138113,0 79.4670359,24.3137392,0 79.4670403,24.3136643,0 79.4670306,24.3136259,0 79.4670115,24.3136113,0 79.4670031,24.3135899,0 79.4670036,24.3134937,0 79.4669965,24.3134504,0 79.4669613,24.3133887,0 79.4669682,24.3132427,0 79.4669568,24.3132003,0 79.4669365,24.3131362,0 79.4669146,24.3130985,0 79.4668826,24.3129843,0 79.4668247,24.3128964,0 79.466802,24.3128465,0 79.4667955,24.3128038,0 79.4667959,24.3127804,0 79.4667622,24.3126969,0 79.4666935,24.3126171,0 79.4666941,24.312582,0 79.4666634,24.3125138,0 79.4666167,24.3123799,0 79.4665366,24.3122295,0 79.466531,24.3121858,0 79.4665361,24.3121684,0 79.4665383,24.3121583,0 79.4664268857972,24.3121319829135,0 79.4663889669803,24.3121260242423,0 79.4663724,24.3121266,0 79.4662733,24.3121195,0 79.4661732,24.3121073,0 79.4660452,24.3120887,0 79.4660076,24.3120873,0 79.4659313,24.3120865,0 79.4658879,24.3120934,0 79.465862,24.3120831,0 79.4657638,24.3120814,0 79.46575,24.3120846,0 79.4657119,24.312094,0 79.4656884,24.3121145,0 79.4656357,24.3121141,0 79.4656144,24.312074,0 79.4655753,24.3120502,0 79.4654988,24.312009,0 79.4654619,24.3119516,0 79.4654271,24.3119067,0 79.4653684,24.311873,0 79.4653464,24.3118397,0 79.4653178,24.3118048,0 79.4652792,24.3117956,0 79.4652814,24.3117795,0 79.4652597,24.3117618,0 79.4652251,24.3117474,0 79.4651801,24.3117187,0 79.4651553,24.3117061,0 79.4651021,24.3116464,0 79.4650863,24.3116299,0 79.4650059,24.3116115,0 79.4650052,24.3115626,0 79.4649884,24.3115302,0 79.4649737,24.3114943,0 79.4649461,24.3114589,0 79.4649501,24.3114442,0 79.4649176,24.3114187,0 79.4648616,24.3113956,0 79.4648598,24.3113869,0 79.4648342,24.3113599,0 79.464829,24.3113553,0 79.4648171,24.3113402,0 79.4647781,24.3113097,0 79.4647606,24.3112977,0 79.4647076,24.3112721,0 79.4646717,24.3112278,0 79.4646687,24.3112244,0 79.464594,24.3111815,0 79.4645728,24.3111671,0 79.4644905,24.3111501,0 79.4644769,24.3111493,0 79.4644621,24.311116,0 79.4644519,24.3110904,0 79.4644547,24.3110639,0 79.4643937,24.3110384,0 79.4643586,24.3110399,0 79.4643261,24.3110125,0 79.4643031,24.3109982,0 79.4642371,24.3109923,0 79.464224,24.3109804,0 79.4642116,24.3109464,0 79.4641587,24.3109223,0 79.4641152,24.3108873,0 79.4640983,24.3108513,0 79.4640087,24.3107883,0 79.4639855,24.3107577,0 79.4639584,24.3107428,0 79.4639278,24.310704,0 79.4639039,24.310681,0 79.4638688,24.3106309,0 79.4638698,24.3106076,0 79.4638738,24.3105861,0 79.4638697,24.3105415,0 79.46384,24.3104867,0 79.4637961,24.310414,0 79.463808,24.3103624,0 79.4638054,24.3102933,0 79.4638061,24.3102535,0 79.4637673,24.3101473,0 79.4637801,24.3101148,0 79.4637846,24.3100937,0 79.4638015,24.3100732,0 79.4638002,24.3100485,0 79.4637819,24.3100214,0 79.4637737,24.3099682,0 79.4637559,24.3099077,0 79.4637427715509,24.3099002824282,0 79.4637316806089,24.3097739381164,0 79.4615735725821,24.3091632760351,0 79.4615717,24.3091624,0 79.4615717397097,24.3091627573869,0 79.4615647028862,24.3091607661758,0 79.4615127,24.3091422,0 79.461483,24.3091276,0 79.461468,24.3091325,0 79.4614459980121,24.3091271761805,0 79.4612945459681,24.3090843195391,0 79.4613054574691,24.3091240958055,0 79.4612896,24.3091248,0 79.4613075505454,24.3091317258036,0 79.4613231068915,24.3091884341214,0</coordinates></LinearRing></outerBoundaryIs><innerBoundaryIs><LinearRing><coordinates>79.4622581068562,24.3115285830226,0 79.4622486122123,24.3115284868569,0 79.4622488557107,24.3115082965106,0 79.4622581068562,24.3115285830226,0</coordinates></LinearRing></innerBoundaryIs><innerBoundaryIs><LinearRing><coordinates>79.4642205934124,24.3111872567478,0 79.4642233782332,24.3111872849172,0 79.4642233434727,24.3111901709364,0 79.4642205934124,24.3111872567478,0</coordinates></LinearRing></innerBoundaryIs></Polygon>
  </Placemark>
  
    </Document>
</kml>