<?xml version="1.0" encoding="UTF-8"?>
<kml xmlns="http://www.opengis.net/kml/2.2">
    <Document>
        <Placemark xmlns:ns0="http://www.opengis.net/kml/2.2">
	<Style><LineStyle><color>ff0000ff</color></LineStyle><PolyStyle><fill>0</fill></PolyStyle></Style>
	<ExtendedData><SchemaData schemaUrl="#Wave23_v27MAR2025">
		<SimpleData name="area(ha)">0.170987555330055</SimpleData>
		<SimpleData name="site_id">230032_1.1</SimpleData>
		<SimpleData name="Land_parc">230032</SimpleData>
		<SimpleData name="district">Chhatarpur</SimpleData>
		<SimpleData name="block">Bijawar</SimpleData>
		<SimpleData name="village">Patna</SimpleData>
		<SimpleData name="Land Type">Farmer</SimpleData>
		<SimpleData name="Instance">Wave 2023</SimpleData>
	</SchemaData></ExtendedData>
      <Polygon><outerBoundaryIs><LinearRing><coordinates>79.7908712,24.4081903,0 79.7908607,24.4081748,0 79.7908527,24.4081551,0 79.7908428,24.4081345,0 79.7908435,24.4081163,0 79.7908528,24.4080958,0 79.7908481,24.4080723,0 79.7908392,24.4080539,0 79.7908378,24.4080274,0 79.790833,24.4080058,0 79.7908416,24.4079748,0 79.7908323,24.4079527,0 79.7908116,24.4079423,0 79.7907921,24.4079417,0 79.7907598,24.4079361,0 79.7907399,24.4079348,0 79.7907219,24.4079487,0 79.7907138,24.4079619,0 79.7907011,24.4079718,0 79.7906872,24.4079843,0 79.7906695,24.40799,0 79.7906477,24.4080023,0 79.7906245,24.4080171,0 79.7906003,24.4080318,0 79.7905735,24.4080365,0 79.7905435,24.408042,0 79.7905166,24.4080452,0 79.7905111,24.4080478,0 79.7904938,24.408053,0 79.7904995,24.4080517,0 79.7904913,24.4080563,0 79.7904769,24.4080607,0 79.7904565,24.4080675,0 79.7904304,24.4080751,0 79.7904081,24.4080784,0 79.7903792,24.4080829,0 79.7903556,24.4080682,0 79.7903416,24.4080807,0 79.7902737,24.4080898,0 79.7902882,24.4081204,0 79.7902966,24.4081456,0 79.7903087,24.4081723,0 79.7903207,24.408199,0 79.7903463051518,24.4082220634643,0 79.7903479,24.4082235,0 79.7903732,24.408238,0 79.7904002,24.408252,0 79.7904239,24.4082725,0 79.7905183,24.4083345,0 79.7905988,24.4083573,0 79.7906155,24.4083626,0 79.7906274,24.4083659,0 79.7906389,24.4083691,0 79.7906634,24.4083689,0 79.7906836,24.40837,0 79.7906982,24.4083734,0 79.7907249,24.4083445,0 79.7907449,24.4083261,0 79.7907595507633,24.4082847952406,0 79.7907761362726,24.4082499417863,0 79.790801287324,24.4082375553894,0 79.7908386508847,24.4082191545602,0 79.7908712,24.4081903,0</coordinates></LinearRing></outerBoundaryIs></Polygon>
  </Placemark>
  
    </Document>
</kml>