<?xml version="1.0" encoding="UTF-8"?>
<kml xmlns="http://www.opengis.net/kml/2.2">
    <Document>
        <Placemark xmlns:ns0="http://www.opengis.net/kml/2.2">
	<Style><LineStyle><color>ff0000ff</color></LineStyle><PolyStyle><fill>0</fill></PolyStyle></Style>
	<ExtendedData><SchemaData schemaUrl="#Wave23_v27MAR2025">
		<SimpleData name="area(ha)">2.899872963614334</SimpleData>
		<SimpleData name="site_id">230080_1.1</SimpleData>
		<SimpleData name="Land_parc">230080</SimpleData>
		<SimpleData name="district">Panna</SimpleData>
		<SimpleData name="block">Shahnagar</SimpleData>
		<SimpleData name="village">Badagaon</SimpleData>
		<SimpleData name="Land Type">Farmer</SimpleData>
		<SimpleData name="Instance">Wave 2023</SimpleData>
	</SchemaData></ExtendedData>
      <Polygon><outerBoundaryIs><LinearRing><coordinates>79.9100765,23.9355129,0 79.9100624000001,23.9354888000001,0 79.9100563000001,23.9354747,0 79.910061,23.9354672000001,0 79.9100094000001,23.9354195000001,0 79.9100219000001,23.9353958,0 79.9100111272732,23.935377010363,0 79.9100004000001,23.9353583000001,0 79.9100035123827,23.9353513647996,0 79.9099850138271,23.9353345927759,0 79.9097733827278,23.9353620264371,0 79.9097949377471,23.9354404083256,0 79.9097524539299,23.9354651905535,0 79.909752451436,23.9354654874463,0 79.909751951058,23.9354654838953,0 79.909747908614,23.9354678419866,0 79.9095353436304,23.9354996544332,0 79.9095118,23.9355145000001,0 79.9094672,23.9355394,0 79.9094188000001,23.9355651,0 79.9093847000001,23.9355790000001,0 79.9093489000001,23.9355912,0 79.9093326138243,23.9356000817957,0 79.9093336400318,23.9356086704669,0 79.9093283339575,23.9356192333322,0 79.9092971,23.9356426,0 79.9092418000001,23.9356461,0 79.9091986235661,23.9356435517723,0 79.9091556480997,23.9356477897134,0 79.9091246153732,23.9356482003436,0 79.9090707808096,23.9356457673672,0 79.9090450512305,23.9356441333918,0 79.909035741003,23.9356410385525,0 79.9089963218395,23.9356387079185,0 79.9089972156604,23.9356426263682,0 79.9089985452165,23.9356437084833,0 79.9090026690528,23.9356472081823,0 79.9089958000001,23.9357129,0 79.9089672019649,23.9357586405072,0 79.9089368836875,23.9357720544468,0 79.9089188043357,23.9357831575637,0 79.9088801000001,23.9357976000001,0 79.9088784373832,23.9357996550445,0 79.9088625043597,23.9358004252583,0 79.9088422,23.9357973,0 79.908781846442,23.9358016827092,0 79.9087786999999,23.9358085000001,0 79.9087747,23.9358110000001,0 79.9087758,23.9358171000001,0 79.9087718000001,23.9358194000001,0 79.9087741000001,23.9358277000001,0 79.9087604,23.9358168,0 79.9087374000001,23.9358209000001,0 79.9087346861318,23.9358212916924,0 79.9087249000001,23.9358386000001,0 79.908667129071,23.9358657955955,0 79.9086477000001,23.9358690999999,0 79.9086193622135,23.9358805998798,0 79.9086079432174,23.9358588760017,0 79.9086077381421,23.9358506086527,0 79.9086012522292,23.9358381952864,0 79.9085942000002,23.9358395,0 79.9085773,23.9359102,0 79.9085177,23.9358612,0 79.9085131,23.9358586,0 79.9085116,23.935857,0 79.9085133,23.9358563000001,0 79.9085144000001,23.9358516000001,0 79.9085083000001,23.9358526,0 79.9085443000001,23.9357871000001,0 79.9085457,23.9357407,0 79.9085360157751,23.9357277877008,0 79.9085316000001,23.9357219,0 79.9085209000001,23.9357064,0 79.9085160000001,23.9356990000001,0 79.9085128999999,23.9356977,0 79.9085085,23.9356934,0 79.9084827,23.9356579000001,0 79.9085037788836,23.9356372460969,0 79.9085164198311,23.9356248600043,0 79.9085198,23.9356081,0 79.9085238825986,23.9356051398078,0 79.9085013000001,23.9356141,0 79.908475,23.9356227,0 79.9084639,23.9356183,0 79.908458,23.9356087000001,0 79.9084415000001,23.9356148000001,0 79.9084030000001,23.9356020000001,0 79.9083392,23.9355428000001,0 79.9083137,23.9355393,0 79.9082937000001,23.9355444000001,0 79.9082814,23.9355486000001,0 79.9082779000001,23.9355584,0 79.9082697000001,23.9355703000001,0 79.9082596,23.9355843,0 79.9082513,23.9355878000001,0 79.9082471,23.9355882,0 79.9082446,23.9355932,0 79.908241,23.9355983000001,0 79.9082396999999,23.9356003000001,0 79.9082407,23.9356008,0 79.9082403,23.9356124,0 79.908237,23.9356175000001,0 79.9082401,23.9356202000001,0 79.9082497000001,23.935629,0 79.9082499,23.9356332,0 79.9082398000001,23.9356458,0 79.9082389,23.9356463,0 79.9082396999999,23.9356468,0 79.9082120000001,23.9357529000001,0 79.9082158535116,23.9357574719628,0 79.9081532000001,23.9358193000001,0 79.9081325999999,23.9358415,0 79.9081164,23.9358641,0 79.9081095,23.9358694,0 79.9080844000001,23.9358904000001,0 79.9080759,23.9358920000001,0 79.9080444000001,23.9359030000001,0 79.9080343757666,23.9359035521824,0 79.9080803339333,23.9360733420764,0 79.9079389935323,23.9361252630399,0 79.9079735000001,23.9361377,0 79.9079971000001,23.9361517,0 79.9079991000001,23.9361748,0 79.9079933,23.9361961,0 79.9079895,23.9362094,0 79.9079851,23.9362271999999,0 79.9079894,23.9362352,0 79.907981,23.9362417,0 79.9079808,23.9362427999999,0 79.9079845000001,23.9362426000001,0 79.9079108000001,23.9362733,0 79.9078899000001,23.9362845,0 79.9078786387615,23.9362896187451,0 79.9078745000001,23.9362915000001,0 79.9078622000001,23.9362923,0 79.9078659000001,23.9362922000001,0 79.9078351,23.9363023000001,0 79.9077937,23.9363166000001,0 79.9077688,23.936321,0 79.9077435000001,23.9363213000001,0 79.9077232,23.936318,0 79.9076998,23.9363199000001,0 79.9076961000001,23.9363045000001,0 79.9076472000001,23.9363068999999,0 79.9076242,23.9363008,0 79.9076034,23.9363076,0 79.907586,23.9363055,0 79.9075754,23.9362908,0 79.9075694000001,23.9362807000001,0 79.9075551,23.9362683000001,0 79.9075396000001,23.9362463000001,0 79.9075259,23.9362228000001,0 79.9075109,23.9361927000001,0 79.9075047739155,23.9361844081278,0 79.9074951000001,23.9361871,0 79.9074894,23.9362051,0 79.9074668000001,23.9362231000001,0 79.9074517000001,23.9362376000001,0 79.9074251,23.936241,0 79.9074285999999,23.9362673,0 79.9074327000001,23.9362803,0 79.9074457999999,23.9363014,0 79.9074457,23.9363235000001,0 79.9074445913527,23.9363362068032,0 79.9073718072107,23.9364125212999,0 79.9073838728323,23.936442098143,0 79.9073860683095,23.9364421137579,0 79.9073860240464,23.9364473714813,0 79.9074783338401,23.9366736529495,0 79.9075164000001,23.9366928,0 79.9075652000001,23.9367025,0 79.9075803782219,23.9367040728739,0 79.9076038000001,23.9367065000001,0 79.9076711000001,23.9367053,0 79.9076829957496,23.936715162932,0 79.9076869,23.9367184000001,0 79.9076955,23.9367274000001,0 79.9076962000001,23.9367312000001,0 79.9077123,23.9367328,0 79.9077267000001,23.9367340999999,0 79.9077580000001,23.9367224,0 79.9077767713164,23.9367185926134,0 79.9077767945672,23.9367158298526,0 79.9077899318733,23.9367159232558,0 79.9078216000001,23.9367095,0 79.9078444000001,23.9366997999999,0 79.9078609,23.9366895,0 79.907862676078,23.9366884106722,0 79.9078491073619,23.9366357321273,0 79.9078757817031,23.9366291420268,0 79.9078758062815,23.9366262212305,0 79.9078872740363,23.936626302756,0 79.9081822303884,23.9365534311443,0 79.9081912091432,23.9366073036733,0 79.9083058000001,23.9365784,0 79.9083617,23.9365944000001,0 79.9083615000001,23.9366063,0 79.9083752000001,23.9366055999999,0 79.9083896000001,23.9366163,0 79.9084016,23.9366171,0 79.9084033000001,23.936615,0 79.9084233,23.9366156000001,0 79.9084255487873,23.9366141135136,0 79.9084280000001,23.9366356999999,0 79.9084036,23.9366653999999,0 79.9084229,23.9366780000001,0 79.9084086,23.9367275000001,0 79.9084159000001,23.9367547,0 79.9084144,23.9367895000001,0 79.9084329000001,23.9368085,0 79.9084440999999,23.9368292,0 79.9084628000001,23.9368410000001,0 79.9084895,23.9368493000001,0 79.9085224,23.9368658,0 79.9085502,23.9368452000001,0 79.9085636000001,23.9368429,0 79.9085892,23.9368409,0 79.9086129000001,23.9368366,0 79.9086358,23.9368343,0 79.9086551,23.9368325000001,0 79.9086690000001,23.9368329000001,0 79.9086863000001,23.9368328000001,0 79.9087126,23.9368197000001,0 79.9087535,23.9368042,0 79.9087742000001,23.9368048999999,0 79.9088347000001,23.9368188,0 79.9088587,23.936817,0 79.9089,23.9368256,0 79.9089267000001,23.9368254,0 79.9089649000001,23.9368272,0 79.9089850999999,23.9368218000001,0 79.9090038000001,23.9368125,0 79.9090255000001,23.9368017,0 79.9090338000001,23.9367774,0 79.9090804000001,23.9367634000001,0 79.9091162000001,23.9367417,0 79.9091432000001,23.9367406000001,0 79.9091785999999,23.9367226,0 79.9092080000001,23.9367254999999,0 79.909233,23.9367278,0 79.9093008,23.9367555000001,0 79.9093211000001,23.9367661999999,0 79.9093431000001,23.9367661000001,0 79.9093629000001,23.9367655,0 79.9093835,23.9367565,0 79.9094154,23.9367523,0 79.9094832000001,23.9367422000001,0 79.9095414,23.9367372,0 79.9095535000001,23.9367399000001,0 79.9096043,23.9367227000001,0 79.9096361,23.9367132,0 79.9096661,23.9367043999999,0 79.9097028,23.9366943,0 79.9097126000001,23.9366885000001,0 79.9097114,23.9366626,0 79.9097066000002,23.9366386,0 79.9096966,23.9366104,0 79.9096923,23.9365917000001,0 79.9096858,23.9365601000001,0 79.9096873,23.936542,0 79.9096943,23.9365155,0 79.9097044,23.9365016,0 79.9097655000001,23.9364913000001,0 79.9097853000001,23.9364991,0 79.9097889745331,23.9365002998475,0 79.9098240000001,23.9365265,0 79.9098411000001,23.9365372,0 79.9098746,23.9365448000001,0 79.9098997,23.936553,0 79.9099275999999,23.9365666000001,0 79.9099396000001,23.9365766,0 79.909947,23.9365878000001,0 79.9099588000001,23.9365937,0 79.9099648,23.9366014,0 79.9099695,23.9365983,0 79.9099421000001,23.9365069,0 79.9099488000001,23.9364814,0 79.9099515000001,23.9364448,0 79.9099558000001,23.9364218,0 79.9099548000001,23.9363868000001,0 79.9099528000001,23.9363201,0 79.9099576,23.9362978000001,0 79.9099654000001,23.936269,0 79.9099650000001,23.936256,0 79.9099973,23.9362516,0 79.9100142,23.936248,0 79.9100378,23.9362415000001,0 79.9100678,23.9362326,0 79.9101072000001,23.9362234000001,0 79.9101055999999,23.9362182,0 79.910199,23.9362096,0 79.9102365999999,23.9362178,0 79.9102635,23.9362364999999,0 79.9103022,23.9362361999999,0 79.9103278,23.9362494,0 79.9103354113179,23.9362493016633,0 79.9103665000001,23.9362489000001,0 79.9103942,23.9362421000001,0 79.9104174,23.9362314000001,0 79.9104338690012,23.9362254397904,0 79.9104384,23.9362238,0 79.9104550000001,23.9362058000001,0 79.9104600554023,23.9361930083009,0 79.9104616000001,23.9361891,0 79.9104559,23.9361759999999,0 79.9104675000001,23.936168,0 79.9104855000001,23.9361438,0 79.9104782000001,23.9361203999999,0 79.9104726000001,23.9360872,0 79.9104685,23.9360707000001,0 79.9104550000001,23.9360406999999,0 79.9104498,23.9360250000001,0 79.9104415488895,23.936012251841,0 79.9104356590788,23.9360122100686,0 79.9104357341482,23.9360032679277,0 79.9104287,23.9359924,0 79.9104212999999,23.9359781000001,0 79.9103964,23.9359516,0 79.9103780000001,23.9359312000002,0 79.9103629000001,23.9359093000001,0 79.9103496000001,23.9358846,0 79.9103345,23.9358641,0 79.9103202000001,23.9358438,0 79.9103067000001,23.9358235000001,0 79.9102952,23.9358047000001,0 79.9102663000001,23.9357779000001,0 79.9102567,23.9357595,0 79.910242244169,23.9357399003767,0 79.9102414312083,23.93573989461,0 79.910241440311,23.9357388104833,0 79.9102404000001,23.9357374,0 79.9102302000001,23.935728,0 79.9102205,23.9357205000001,0 79.9102072,23.9357088,0 79.9102005,23.9357092,0 79.9101897,23.9356794000001,0 79.9101825000001,23.935664,0 79.9101582,23.9356298000001,0 79.9101378000001,23.9356061,0 79.9101144999999,23.9355742000001,0 79.9100905000001,23.9355408,0 79.9100765,23.9355129,0</coordinates></LinearRing></outerBoundaryIs><innerBoundaryIs><LinearRing><coordinates>79.9082193917803,23.9357435317853,0 79.9082291000002,23.9357443999999,0 79.9082250241412,23.9357484221585,0 79.9082193917803,23.9357435317853,0</coordinates></LinearRing></innerBoundaryIs><innerBoundaryIs><LinearRing><coordinates>79.9082368000001,23.9357513999999,0 79.9082435447623,23.9357510118122,0 79.9082344507724,23.9357546765545,0 79.9082368000001,23.9357513999999,0</coordinates></LinearRing></innerBoundaryIs></Polygon>
  </Placemark>
  
    </Document>
</kml>