<?xml version="1.0" encoding="UTF-8"?>
<kml xmlns="http://www.opengis.net/kml/2.2">
    <Document>
        <Placemark xmlns:ns0="http://www.opengis.net/kml/2.2">
	<Style><LineStyle><color>ff0000ff</color></LineStyle><PolyStyle><fill>0</fill></PolyStyle></Style>
	<ExtendedData><SchemaData schemaUrl="#Wave23_v27MAR2025">
		<SimpleData name="area(ha)">4.099369680637688</SimpleData>
		<SimpleData name="site_id">230079_1.2</SimpleData>
		<SimpleData name="Land_parc">230079</SimpleData>
		<SimpleData name="district">Panna</SimpleData>
		<SimpleData name="block">Shahnagar</SimpleData>
		<SimpleData name="village">Badagaon</SimpleData>
		<SimpleData name="Land Type">Farmer</SimpleData>
		<SimpleData name="Instance">Wave 2023</SimpleData>
	</SchemaData></ExtendedData>
      <Polygon><outerBoundaryIs><LinearRing><coordinates>79.8990398092224,23.9269292424212,0 79.8991329757247,23.9272150902443,0 79.8991462125154,23.9272544529954,0 79.8992925170433,23.9272362169101,0 79.8994071235542,23.9272238925336,0 79.8994620972914,23.9272179808222,0 79.899478722806,23.9274155383035,0 79.8994986734234,23.9276039774656,0 79.8994886981147,23.927758983667,0 79.8994920232176,23.9279990909449,0 79.8995922422287,23.927987428378,0 79.8995957643735,23.9279870185019,0 79.8996955057373,23.9279754114495,0 79.9002102454453,23.9279155093482,0 79.9003365993557,23.9279155093482,0 79.9004031014138,23.9279185486799,0 79.9004031014138,23.9278835963606,0 79.9003332742528,23.9278045736908,0 79.9003266240469,23.927738468151,0 79.9002085828938,23.9277491058264,0 79.9001703442104,23.9274649276266,0 79.9002582326153,23.9274503212352,0 79.9003166487382,23.9274406128853,0 79.900429702237,23.9274071801085,0 79.90058490087,23.9273687093807,0 79.9005849547464,23.9273623466315,0 79.9006098508448,23.9273625247494,0 79.9006258833085,23.9273585505995,0 79.9007361688448,23.927363428423,0 79.9008440480717,23.9273642001042,0 79.9010398586202,23.9273076415627,0 79.9011046981269,23.9273076415627,0 79.9012144265227,23.9272985235242,0 79.9013716143652,23.9272847895133,0 79.9013716746848,23.9272776607113,0 79.9014409273487,23.92727815581,0 79.9014817,23.9272148,0 79.9015319738503,23.9271587135189,0 79.9015485993648,23.9271070445656,0 79.9015062,23.9270674,0 79.9015031,23.9270438,0 79.9014824,23.9269923,0 79.9014758,23.9269547,0 79.9014739,23.9269253,0 79.9014502,23.9269037,0 79.9014253,23.926866,0 79.9014274,23.9268217,0 79.9014482,23.9267091,0 79.9014574,23.9266641,0 79.9014814,23.9266259,0 79.9015102,23.9265875,0 79.9015324,23.9265343,0 79.9015588,23.9264594,0 79.9015728,23.9264223,0 79.9015944,23.9263983,0 79.9016435,23.9263653,0 79.9016651,23.9263586,0 79.9016842,23.9263648,0 79.9016997320281,23.9263768804664,0 79.901749419651,23.9263772355784,0 79.9019060479271,23.926328968416,0 79.9019513,23.9262888,0 79.9019476117134,23.9261952361057,0 79.9018711343466,23.9261450864536,0 79.9017946569798,23.9261496455137,0 79.90171485451,23.9261694014388,0 79.9016599903121,23.9261921967334,0 79.9013437,23.926268,0 79.9013142,23.9262635,0 79.9011983,23.9262421,0 79.9010168,23.926071,0 79.9009783442164,23.9259262513802,0 79.900888566438,23.925789479271,0 79.9008320396886,23.9256739827105,0 79.9008341,23.9255259,0 79.9008878,23.9255016,0 79.9009711,23.9254811,0 79.9010348,23.9254725,0 79.9011146,23.9254798,0 79.9011431,23.9254745,0 79.9011152,23.9254497,0 79.9010841,23.9254069,0 79.9010602,23.9253592,0 79.9010452,23.9252732,0 79.9010214,23.9252133,0 79.9009976,23.9251585,0 79.9009493,23.9251096,0 79.9008598,23.9250849,0 79.9007945,23.9251122,0 79.900749,23.9251549,0 79.9007108,23.9252122,0 79.9006491590288,23.9255288520175,0 79.9006002726782,23.9255532260518,0 79.9006002474498,23.9255562057988,0 79.9005943804592,23.9255561638261,0 79.9005394306329,23.925583560989,0 79.9002835343442,23.9257345647292,0 79.9002767475034,23.9257385696156,0 79.900205266889,23.9257904983521,0 79.9001064093439,23.9258623155631,0 79.9001012,23.9258661,0 79.9001042,23.9258767,0 79.9001061894042,23.92588828071,0 79.9001193,23.9259646,0 79.9001052119624,23.9260036729037,0 79.9001052072771,23.9260042260211,0 79.9001050130328,23.9260042246308,0 79.9001012,23.9260148,0 79.9000818,23.9260699,0 79.9000703862931,23.9260942892973,0 79.9000533,23.9261308,0 79.9000261,23.9261811,0 79.8999914,23.9262242,0 79.8999537,23.9262543,0 79.8999125,23.9262715,0 79.8998652,23.9262976,0 79.8998117,23.9263207,0 79.8997567,23.926338,0 79.8997034,23.926356,0 79.899691331431,23.9263625131977,0 79.8996656,23.9263764,0 79.8996211,23.9263952,0 79.8995757,23.9264155,0 79.8995286,23.9264418,0 79.8995016,23.9264666,0 79.8994744,23.9264916,0 79.8994386,23.9265285,0 79.8993928,23.9265596,0 79.89935,23.9265855,0 79.8993118,23.9266002,0 79.899292,23.9266059,0 79.8992742,23.92662,0 79.8992583331178,23.9266303497201,0 79.8992348,23.9266457,0 79.8991998,23.9266781,0 79.8991568,23.9267231,0 79.8990998,23.9267527,0 79.8990098832963,23.9268198255953,0 79.899031719336,23.9268996637484,0 79.8990398092224,23.9269292424212,0</coordinates></LinearRing></outerBoundaryIs></Polygon>
  </Placemark>
  
    </Document>
</kml>