<?xml version="1.0" encoding="UTF-8"?>
<kml xmlns="http://www.opengis.net/kml/2.2">
    <Document>
        <Placemark xmlns:ns0="http://www.opengis.net/kml/2.2">
	<Style><LineStyle><color>ff0000ff</color></LineStyle><PolyStyle><fill>0</fill></PolyStyle></Style>
	<ExtendedData><SchemaData schemaUrl="#Wave23_v27MAR2025">
		<SimpleData name="area(ha)">0.572513396790880</SimpleData>
		<SimpleData name="site_id">230084_6.6</SimpleData>
		<SimpleData name="Land_parc">230084</SimpleData>
		<SimpleData name="district">Damoh</SimpleData>
		<SimpleData name="block">Batyagarh</SimpleData>
		<SimpleData name="village">Achalpura</SimpleData>
		<SimpleData name="Land Type">Community</SimpleData>
		<SimpleData name="Instance">Wave 2023</SimpleData>
	</SchemaData></ExtendedData>
      <Polygon><outerBoundaryIs><LinearRing><coordinates>79.5381344,24.2524545,0 79.5380767,24.2524233,0 79.5380525,24.2524033,0 79.537926,24.2523672,0 79.537872,24.2523463,0 79.5378165,24.2523651,0 79.5377237,24.2523656,0 79.5376874817771,24.252360335932,0 79.5376705662503,24.2523952946874,0 79.5376277135824,24.2524516797768,0 79.5375702007913,24.2524708507071,0 79.5375104325965,24.2524877662339,0 79.5374856231572,24.2524990432518,0 79.5374405150857,24.2525306189019,0 79.5373999178214,24.2525554283412,0 79.537334,24.2525817,0 79.5372583,24.2526046,0 79.5372252,24.2526202,0 79.5372883,24.2527144,0 79.5373104,24.2527836,0 79.5373062,24.2528379,0 79.5373819,24.2528959,0 79.537429,24.2529334,0 79.5374756,24.2529636,0 79.5374942,24.2529791,0 79.5375194542109,24.2529771888097,0 79.537545391352,24.2529929766347,0 79.5375758393002,24.2529941043365,0 79.537592754827,24.2530110198633,0 79.5376074149503,24.2530155306704,0 79.5376378628985,24.2530279353901,0 79.5376908648825,24.2530482340223,0 79.5377216,24.2530961,0 79.5377679,24.2531435,0 79.537794,24.2531568,0 79.5378255,24.2531585,0 79.5378557,24.2531584,0 79.5378826,24.2531824,0 79.5379104,24.253169,0 79.5379453,24.2531788,0 79.5379778,24.2531461,0 79.5379816,24.2531138,0 79.5380075,24.2529992,0 79.5380258,24.2529787,0 79.5380175,24.2529205,0 79.5380516,24.2528284,0 79.5381038,24.2527642,0 79.5381275,24.2527444,0 79.5381467,24.2527222,0 79.538161,24.2526993,0 79.5381816,24.2526697,0 79.5382077,24.2526312,0 79.5382208,24.2526127,0 79.5382318,24.2526086,0 79.538261,24.2525681,0 79.5382974,24.2524215,0 79.5381344,24.2524545,0</coordinates></LinearRing></outerBoundaryIs></Polygon>
  </Placemark>
  
    </Document>
</kml>