<?xml version="1.0" encoding="UTF-8"?>
<kml xmlns="http://www.opengis.net/kml/2.2">
    <Document>
        <Placemark xmlns:ns0="http://www.opengis.net/kml/2.2">
	<Style><LineStyle><color>ff0000ff</color></LineStyle><PolyStyle><fill>0</fill></PolyStyle></Style>
	<ExtendedData><SchemaData schemaUrl="#Wave23_v27MAR2025">
		<SimpleData name="area(ha)">0.682401795082072</SimpleData>
		<SimpleData name="site_id">230100_1.1</SimpleData>
		<SimpleData name="Land_parc">230100</SimpleData>
		<SimpleData name="district">Damoh</SimpleData>
		<SimpleData name="block">Hatta</SimpleData>
		<SimpleData name="village">Surajpura</SimpleData>
		<SimpleData name="Land Type">Farmer</SimpleData>
		<SimpleData name="Instance">Wave 2023</SimpleData>
	</SchemaData></ExtendedData>
      <Polygon><outerBoundaryIs><LinearRing><coordinates>79.4972578250393,24.3746918224136,0 79.4972624343981,24.3747266100583,0 79.4972756226872,24.3748261443203,0 79.4972069,24.374863,0 79.4972098,24.3748861,0 79.4972133,24.3749128,0 79.4972132,24.3749342,0 79.4972123,24.3749607,0 79.4972315,24.374993,0 79.4972393,24.3750227,0 79.497248,24.3750551,0 79.4972660440847,24.3750878371266,0 79.4972662187156,24.3750878388584,0 79.4972662150692,24.3750881473412,0 79.497269,24.3750932,0 79.4972924,24.3750969,0 79.4973203,24.3750968,0 79.4973648701131,24.3750820605949,0 79.497382408575,24.3750762605938,0 79.4974635877172,24.3750706799969,0 79.4975171621953,24.375066997037,0 79.4975908953083,24.37508552415,0 79.4976451,24.3750886,0 79.4976605977565,24.3750838938752,0 79.4976642,24.3750828,0 79.4976841,24.3750804,0 79.4977136,24.3750684,0 79.4977405,24.3750584,0 79.4977626,24.3750467,0 79.497786,24.3750438,0 79.4978063,24.3750408,0 79.497826,24.3750371,0 79.4978502,24.3750309,0 79.4978713,24.3750278,0 79.4979,24.3750228,0 79.4979277,24.3750195,0 79.4979478,24.37501,0 79.4979572596879,24.3750066527262,0 79.4979572863893,24.3750043927371,0 79.4979634732984,24.3750044540639,0 79.4979673,24.3750031,0 79.4979684,24.3749862,0 79.497973,24.3749511,0 79.4979846,24.3749235,0 79.4979840765897,24.3749143604521,0 79.4979833,24.3749008,0 79.4979962,24.3748646,0 79.4980075560466,24.3748242953439,0 79.4980084,24.3748213,0 79.4980256,24.3748006,0 79.4980344,24.3747785,0 79.4980508,24.3747402,0 79.4980509532483,24.3747344276493,0 79.4980514,24.3747176,0 79.4980516,24.3746881,0 79.4980488,24.3746599,0 79.4980484099901,24.3746441045996,0 79.4980478,24.3746194,0 79.4980392,24.3745803,0 79.4980307,24.3745604,0 79.498023,24.374539,0 79.4980263,24.3744999,0 79.4980265,24.3744669,0 79.4980192,24.3744378,0 79.4979969,24.3743752,0 79.4979825,24.3743374,0 79.4979764,24.3743137,0 79.4979662,24.3742878,0 79.4979539,24.3742761,0 79.4979169,24.3742782,0 79.4978982,24.3742789,0 79.4978865,24.3742514,0 79.4978251,24.3742494,0 79.4977997,24.3742528,0 79.4977699,24.3742509,0 79.4977690190154,24.3742512929276,0 79.4977273,24.3742699,0 79.4977217584,24.3742796752464,0 79.4977112,24.3742983,0 79.4976835,24.3743109,0 79.4976586,24.3743263,0 79.4976232,24.3743431,0 79.4975706673031,24.3743517193554,0 79.4975653,24.3743526,0 79.4975146196741,24.3743015933065,0 79.49728197899,24.3742795922231,0 79.4972757707482,24.3742797178896,0 79.4971771646838,24.3742817138287,0 79.4971675655389,24.3742819081268,0 79.4971756849562,24.37440689583,0 79.4971802781446,24.3744776018363,0 79.4972552825181,24.3745412890729,0 79.4972558306444,24.3745459489283,0 79.4972629100816,24.3746061342262,0 79.4972552825181,24.3746408726876,0 79.4972578250393,24.3746918224136,0</coordinates></LinearRing></outerBoundaryIs></Polygon>
  </Placemark>
  
    </Document>
</kml>