<?xml version="1.0" encoding="UTF-8"?>
<kml xmlns="http://www.opengis.net/kml/2.2">
    <Document>
        <Placemark xmlns:ns0="http://www.opengis.net/kml/2.2">
	<Style><LineStyle><color>ff0000ff</color></LineStyle><PolyStyle><fill>0</fill></PolyStyle></Style>
	<ExtendedData><SchemaData schemaUrl="#Wave23_v27MAR2025">
		<SimpleData name="area(ha)">15.528174555461071</SimpleData>
		<SimpleData name="site_id">230108_1.1</SimpleData>
		<SimpleData name="Land_parc">230108</SimpleData>
		<SimpleData name="district">Damoh</SimpleData>
		<SimpleData name="block">Batyagarh</SimpleData>
		<SimpleData name="village">Singhpur/Sakri temple</SimpleData>
		<SimpleData name="Land Type">Community</SimpleData>
		<SimpleData name="Instance">Wave 2023</SimpleData>
	</SchemaData></ExtendedData>
      <Polygon><outerBoundaryIs><LinearRing><coordinates>79.4066235782866,24.1990234462074,0 79.4065585046355,24.199076770473,0 79.4065172180224,24.1991106025349,0 79.4064107451672,24.1991655221353,0 79.4062396000001,24.1992537999999,0 79.4061364001449,24.1993311743138,0 79.4061205201356,24.1993430803869,0 79.4061053684803,24.1993544403712,0 79.4060538489973,24.1993930672144,0 79.4059072999695,24.1994348926693,0 79.4057482000001,24.1994803000001,0 79.4056765,24.1994752,0 79.4056626403511,24.1994803904662,0 79.40549385947,24.1998359398044,0 79.4055936537326,24.2000563831476,0 79.405698240913,24.2003319304768,0 79.4056992525887,24.2003319410642,0 79.4056992206133,24.200334511608,0 79.4057586892759,24.2004911883287,0 79.4059046822562,24.200741915404,0 79.406183616182,24.2009642239649,0 79.4063267923956,24.2010783340111,0 79.4064823066574,24.2013861887745,0 79.4065674331242,24.201695481685,0 79.4065683075001,24.2016954908309,0 79.4065682698173,24.2016985216641,0 79.4065775194708,24.201732128663,0 79.4068551684728,24.2021499769039,0 79.4068579964503,24.2021500064794,0 79.4068579448765,24.2021541552407,0 79.4068980692758,24.2022145402506,0 79.407349129998,24.2022385191733,0 79.4075111743873,24.2022471333178,0 79.4076443460261,24.2022485254279,0 79.4076442754107,24.2022542087277,0 79.4076550812933,24.2022547831437,0 79.4084192000001,24.2022953999999,0 79.4084345999999,24.2022827000001,0 79.4084635000001,24.2022523000001,0 79.4084981000001,24.2022299,0 79.4085199000001,24.2022218000001,0 79.4085539000001,24.2022018,0 79.4085780000001,24.202193,0 79.4086297530439,24.2021729148978,0 79.4086298075406,24.2021685261272,0 79.4086407665403,24.2021686406108,0 79.408662,24.2021604000001,0 79.4086955000001,24.2021417,0 79.4087152999999,24.202131,0 79.4087558000001,24.202101,0 79.4087759,24.2020870000001,0 79.4088328000001,24.2020616000001,0 79.4088588000001,24.2020524000001,0 79.4089334,24.2020162000001,0 79.4089821,24.2019888999999,0 79.4090181000001,24.2019639,0 79.4090912000001,24.2019114,0 79.4091040977268,24.2019025884252,0 79.4091068486679,24.2019007090143,0 79.4092248128619,24.2018201171523,0 79.4092248943433,24.2018135526724,0 79.4092342780031,24.2018136506614,0 79.4095611999999,24.2015903,0 79.4100195154286,24.2012453758291,0 79.4100328230335,24.2012353605922,0 79.4101497000001,24.2011474,0 79.4103174872069,24.2010330611424,0 79.4103216983949,24.2010301914165,0 79.4103475185986,24.201012596197,0 79.4103481,24.2010122,0 79.4104112309631,24.2009155107452,0 79.4104649562002,24.2008332270536,0 79.4105225037048,24.2007450891643,0 79.4105764901894,24.2005634989266,0 79.4106204831428,24.2004155227303,0 79.4106483092814,24.2003219255787,0 79.4106970605293,24.2001579434818,0 79.4106018477158,24.1998532624791,0 79.4105560205951,24.1997506097892,0 79.4105225037048,24.1996755318942,0 79.4103574681616,24.1995263651532,0 79.4102590815879,24.1993486345682,0 79.410246386546,24.199104255014,0 79.4102305177437,24.1988884393036,0 79.4100790877387,24.1984814711728,0 79.4100682580186,24.1984813581549,0 79.4097004997493,24.1985678894986,0 79.4095466,24.1986044000001,0 79.4095012058012,24.1986077698019,0 79.4094832664589,24.1986091015144,0 79.4092688683287,24.1986250171866,0 79.4090673115977,24.198646672167,0 79.4090672516387,24.1986515029527,0 79.4090263259245,24.198651075578,0 79.4088848433148,24.1986662760725,0 79.4086468112814,24.19872023,0 79.4082976976323,24.1988217903343,0 79.407904151337,24.1989201769081,0 79.4078152860447,24.1989201769081,0 79.4077956117585,24.1989091101312,0 79.4077842803866,24.1989089917067,0 79.407784357553,24.1989027796438,0 79.4077137257103,24.1988630492202,0 79.4076375554596,24.1986504072702,0 79.4076332160622,24.1986365212023,0 79.4076216866575,24.1985996271031,0 79.4075434201647,24.1986363014111,0 79.407368,24.1987185000001,0 79.4071942562722,24.1987860638643,0 79.4071571092736,24.1988005092477,0 79.4071295939337,24.1988112091603,0 79.4070903193198,24.1988264819112,0 79.4067457287744,24.1989233506686,0 79.4067007574247,24.198960202222,0 79.4066704792266,24.1989850135239,0 79.4066673091133,24.1989876112547,0 79.4066235782866,24.1990234462074,0</coordinates></LinearRing></outerBoundaryIs><innerBoundaryIs><LinearRing><coordinates>79.4094719889973,24.2006911352368,0 79.4094808868936,24.2007326587663,0 79.40949103156,24.2007800005293,0 79.4093545598608,24.2008180856546,0 79.4093364213389,24.2007596393208,0 79.4093259960167,24.2007260466017,0 79.4094719889973,24.2006911352368,0</coordinates></LinearRing></innerBoundaryIs><innerBoundaryIs><LinearRing><coordinates>79.4093767761838,24.2011100716157,0 79.4093704286631,24.2011291141784,0 79.4093312836558,24.2011735971579,0 79.409331172145,24.2011825817995,0 79.4093234481429,24.201182501148,0 79.4093006059332,24.2012084581894,0 79.4092212619221,24.2011957631476,0 79.4092149144012,24.201091029053,0 79.4091514391923,24.2010846815321,0 79.4091554015251,24.201000151895,0 79.4091575279534,24.2009547880856,0 79.4091609604736,24.2008815608635,0 79.409398992507,24.2008910821448,0 79.4094207611974,24.2010932199882,0 79.4094212088302,24.2010973765738,0 79.4093767761838,24.2011100716157,0</coordinates></LinearRing></innerBoundaryIs></Polygon>
  </Placemark>
  
    </Document>
</kml>