<?xml version="1.0" encoding="UTF-8"?>
<kml xmlns="http://www.opengis.net/kml/2.2">
    <Document>
        <Placemark xmlns:ns0="http://www.opengis.net/kml/2.2">
	<Style><LineStyle><color>ff0000ff</color></LineStyle><PolyStyle><fill>0</fill></PolyStyle></Style>
	<ExtendedData><SchemaData schemaUrl="#Wave23_v27MAR2025">
		<SimpleData name="area(ha)">0.357637336317258</SimpleData>
		<SimpleData name="site_id">230102_1.1</SimpleData>
		<SimpleData name="Land_parc">230102</SimpleData>
		<SimpleData name="district">Damoh</SimpleData>
		<SimpleData name="block">Hatta</SimpleData>
		<SimpleData name="village">Surajpura</SimpleData>
		<SimpleData name="Land Type">Farmer</SimpleData>
		<SimpleData name="Instance">Wave 2023</SimpleData>
	</SchemaData></ExtendedData>
      <Polygon><outerBoundaryIs><LinearRing><coordinates>79.4966946931197,24.3751724677844,0 79.496687,24.3751883,0 79.4966726,24.3752188,0 79.4966613,24.3752436,0 79.4966566914833,24.3752623885723,0 79.4966509,24.375286,0 79.4966428,24.3753138,0 79.4966365,24.375339,0 79.496627,24.3753675,0 79.4966036,24.3754184,0 79.4965878,24.375452,0 79.4967122,24.3755126,0 79.4967861873683,24.3755191736146,0 79.4969133134252,24.3755747547468,0 79.4969616213268,24.3755955976651,0 79.4970226418341,24.3755979135448,0 79.4971610909016,24.3756414779992,0 79.4971624804966,24.3756419152491,0 79.4972263,24.3756274,0 79.4972431,24.375631,0 79.4972629,24.3756288,0 79.4973063,24.3756107,0 79.4973381,24.375594,0 79.4973696,24.3755698,0 79.4974253,24.3755452,0 79.4974368009204,24.3755410195093,0 79.4974883,24.3755223,0 79.4975,24.3755053,0 79.4975238,24.3754823,0 79.4975386,24.3754583,0 79.4975375,24.3754354,0 79.4975342,24.3754068,0 79.4975051,24.3753757,0 79.4974996542902,24.3753610471119,0 79.4974954,24.3753496,0 79.4974842,24.3753279,0 79.4974713,24.3753027,0 79.4974493,24.3752848,0 79.497422496899,24.3752699842204,0 79.4973896,24.3752518,0 79.4973628,24.3752566,0 79.4973166,24.3752634,0 79.4972922,24.375261,0 79.4972486,24.3752552,0 79.4972242,24.3752444,0 79.4972056,24.3752355,0 79.4971761,24.3752171,0 79.4971473,24.3752072,0 79.497124,24.3752073,0 79.4970876,24.3752057,0 79.4970618,24.375205,0 79.4970322,24.3752033,0 79.4970002,24.3751961,0 79.4969717,24.3751866,0 79.4969428,24.3751754,0 79.4969113,24.3751622,0 79.4968794,24.3751454,0 79.4968537,24.3751446,0 79.4968277,24.3751492,0 79.496774,24.3751357,0 79.4967727356058,24.375135846173,0 79.4967221,24.3751417,0 79.4967008,24.3751599,0 79.4966946931197,24.3751724677844,0</coordinates></LinearRing></outerBoundaryIs></Polygon>
  </Placemark>
  
    </Document>
</kml>