<?xml version="1.0" encoding="UTF-8"?>
<kml xmlns="http://www.opengis.net/kml/2.2">
    <Document>
        <Placemark xmlns:ns0="http://www.opengis.net/kml/2.2">
	<Style><LineStyle><color>ff0000ff</color></LineStyle><PolyStyle><fill>0</fill></PolyStyle></Style>
	<ExtendedData><SchemaData schemaUrl="#Wave23_v27MAR2025">
		<SimpleData name="area(ha)">2.557576600567496</SimpleData>
		<SimpleData name="site_id">230105_1.1</SimpleData>
		<SimpleData name="Land_parc">230105</SimpleData>
		<SimpleData name="district">Damoh</SimpleData>
		<SimpleData name="block">Hatta</SimpleData>
		<SimpleData name="village">Bharatipura</SimpleData>
		<SimpleData name="Land Type">Farmer</SimpleData>
		<SimpleData name="Instance">Wave 2023</SimpleData>
	</SchemaData></ExtendedData>
      <Polygon><outerBoundaryIs><LinearRing><coordinates>79.502256,24.3898278,0 79.5021991,24.3898571,0 79.5021577,24.3899073,0 79.5021173,24.3899727,0 79.5020621,24.39003,0 79.5020552620169,24.3900344034701,0 79.5019916,24.3900754,0 79.5019513,24.3901185,0 79.5019301,24.390162,0 79.5019104,24.3902064,0 79.5018973,24.3902528,0 79.5019082,24.3903096,0 79.5019097,24.3903706,0 79.5019055,24.3904289,0 79.5018931,24.3904883,0 79.5018797,24.3905456,0 79.5018727,24.3906033,0 79.5018751,24.3906614,0 79.5019066612332,24.3907173358911,0 79.5019111100227,24.3907553599462,0 79.5019121159524,24.3907553698959,0 79.5019120239547,24.3907631713731,0 79.5019428411408,24.3910265671018,0 79.501953418203,24.3911169694849,0 79.5019639952765,24.391207371867,0 79.5019851494578,24.3913881766279,0 79.5020015922436,24.391528712825,0 79.5020035424061,24.3915453808141,0 79.5020017274052,24.3915689361223,0 79.5019886376103,24.3917388167561,0 79.5019899216679,24.391749414878,0 79.502007459154,24.3918941624608,0 79.5020446893745,24.3922014453612,0 79.5020482567936,24.3922308893087,0 79.5021276,24.3923814,0 79.5021449,24.3923744,0 79.5021814,24.3923598,0 79.5022374,24.3923281,0 79.5022941,24.3923199,0 79.5023762,24.3923129,0 79.5023778,24.392313,0 79.5023661,24.392317,0 79.5023985,24.3923156,0 79.5025041,24.3923297,0 79.5025186,24.3923289,0 79.5025837391103,24.3923286369908,0 79.5025929,24.3923286,0 79.5026627,24.3923181,0 79.5027247,24.3922944,0 79.5027813590038,24.3922924430286,0 79.5027855,24.3922923,0 79.5028446,24.3922872,0 79.5029101,24.3922799,0 79.5029677,24.3922678,0 79.5029788923574,24.3922635838197,0 79.5030338,24.3922429,0 79.5030352,24.3921824,0 79.5030292,24.3921196,0 79.5030362,24.3920581,0 79.5030529,24.3920008,0 79.5030776,24.3919354,0 79.5030814,24.3918617,0 79.5030617,24.3917854,0 79.5030489,24.3917072,0 79.5030395,24.3916362,0 79.5030198,24.3915701,0 79.5029905,24.3915063,0 79.5029878885417,24.3915001939386,0 79.502963,24.391442,0 79.5029550103044,24.3913977661448,0 79.502952,24.3913811,0 79.5029458,24.3913337,0 79.5029386,24.3912982,0 79.5029165,24.3912603,0 79.5028925085499,24.3912273020537,0 79.5028856,24.3912178,0 79.5028732,24.391171,0 79.502882895147,24.391126159948,0 79.5028844,24.3911192,0 79.502895,24.3910594,0 79.5028991,24.3909977,0 79.5028877,24.3909372,0 79.5028692,24.3908757,0 79.5028433,24.3908374,0 79.5028209,24.3907922,0 79.5028114,24.3907368,0 79.5027816,24.3906858,0 79.5027554,24.3906361,0 79.5027533,24.3905867,0 79.5027591,24.3905372,0 79.5027731,24.3904886,0 79.5027903,24.390443,0 79.5027924,24.3903876,0 79.5027806,24.3903182,0 79.5027663,24.3902418,0 79.5027632,24.3901662,0 79.5027429,24.3900974,0 79.5027279,24.390029,0 79.502718,24.3899584,0 79.5027005,24.3899012,0 79.5026703,24.3898559,0 79.502623,24.389833,0 79.5025701,24.3898153,0 79.5025118,24.3898076,0 79.5024442,24.389812,0 79.5023802,24.3898188,0 79.5023193,24.3898189,0 79.502256,24.3898278,0</coordinates></LinearRing></outerBoundaryIs></Polygon>
  </Placemark>
  
    </Document>
</kml>