<?xml version="1.0" encoding="UTF-8"?>
<kml xmlns="http://www.opengis.net/kml/2.2">
    <Document>
        <Placemark xmlns:ns0="http://www.opengis.net/kml/2.2">
	<Style><LineStyle><color>ff0000ff</color></LineStyle><PolyStyle><fill>0</fill></PolyStyle></Style>
	<ExtendedData><SchemaData schemaUrl="#Wave23_v27MAR2025">
		<SimpleData name="area(ha)">0.868618862810770</SimpleData>
		<SimpleData name="site_id">230107_1.1</SimpleData>
		<SimpleData name="Land_parc">230107</SimpleData>
		<SimpleData name="district">Damoh</SimpleData>
		<SimpleData name="block">Batyagarh</SimpleData>
		<SimpleData name="village">Daha</SimpleData>
		<SimpleData name="Land Type">Farmer</SimpleData>
		<SimpleData name="Instance">Wave 2023</SimpleData>
	</SchemaData></ExtendedData>
      <Polygon><outerBoundaryIs><LinearRing><coordinates>79.5427029958252,24.2553070029162,0 79.5427513739431,24.2553322670325,0 79.5427769048961,24.2553434184912,0 79.542800952811,24.2553539221801,0 79.5428431200406,24.2553723400407,0 79.5428987309062,24.2554165435612,0 79.5429253751626,24.2554377223172,0 79.5429521504323,24.2555256982248,0 79.5429622845123,24.2555589958943,0 79.5428967134745,24.255580852907,0 79.5428944000001,24.2556067,0 79.5428657,24.2556621,0 79.5428616595254,24.2557054191865,0 79.5429021750001,24.2557551427236,0 79.5429403204196,24.2557964860262,0 79.5430782853252,24.2559460167886,0 79.5430894775868,24.2559638415061,0 79.5430953907833,24.2559732588191,0 79.5431072560029,24.2559921552756,0 79.5431326000001,24.2560153000001,0 79.5431457876489,24.2560296419288,0 79.5431873451489,24.256018664485,0 79.5432427955692,24.2560040171952,0 79.5432708036161,24.2559986211494,0 79.5432757232682,24.2559802996904,0 79.5432818140245,24.25595761687,0 79.5432865837154,24.2559531761277,0 79.543373560122,24.2558721980895,0 79.5433860287539,24.2558695576749,0 79.5434204181616,24.2558622752105,0 79.5434325000001,24.2558303000001,0 79.5434852701609,24.2558038010307,0 79.543485294029,24.2558017060677,0 79.5434893644493,24.2558017450489,0 79.5434974288851,24.2557976954233,0 79.5434969428049,24.2557709610162,0 79.5435296339431,24.2557509245122,0 79.5436139981708,24.2556802694716,0 79.5436571541405,24.2557130514319,0 79.5436573915836,24.2557132317974,0 79.5436830641096,24.2557327330426,0 79.5437236716667,24.2557635791463,0 79.5437616355691,24.2557540881707,0 79.5437816268746,24.2557265325947,0 79.5438006540244,24.2557003059757,0 79.5439802630856,24.2555814877061,0 79.5440062918293,24.2555642686586,0 79.5439850243473,24.2555355898102,0 79.5439807862827,24.2555355492376,0 79.5439808499312,24.2555299606773,0 79.5439274114336,24.2554578996709,0 79.543917581194,24.2554446437309,0 79.5439042936209,24.2554267256201,0 79.5438784,24.2554116000001,0 79.543856,24.2554076999999,0 79.5438225,24.2553775999999,0 79.5438012,24.2553520000001,0 79.5437689000001,24.2553271,0 79.5437455,24.2553132000001,0 79.5436959,24.2552965,0 79.5436695000001,24.2552785000001,0 79.5436350000001,24.2552558,0 79.5435712,24.2552061000001,0 79.5435404000001,24.2551824999999,0 79.5435196000001,24.2551552,0 79.5435005,24.2551144,0 79.5434843577167,24.2550852043642,0 79.5434579,24.2550846,0 79.5433968000001,24.2550863,0 79.5433386000001,24.2550924,0 79.5432796,24.2550978,0 79.5432459000001,24.2551007999999,0 79.5431789,24.2550960000001,0 79.5431234,24.2551044000001,0 79.5430992696651,24.2551045862372,0 79.5430327,24.2551050999999,0 79.5430005,24.2551006000001,0 79.5429834,24.2551026000001,0 79.5429571,24.2551133000001,0 79.5429326000001,24.2551083,0 79.5429043,24.2551078,0 79.542824,24.2551003000001,0 79.5427131,24.255066,0 79.5426363000001,24.2550283,0 79.5426116,24.255023,0 79.5425792999999,24.254994,0 79.5425729,24.2549586000001,0 79.5425534,24.2548944000001,0 79.5425318000001,24.2548477,0 79.542524,24.2548484,0 79.5425107,24.2548669000001,0 79.5425054,24.2548726000001,0 79.5425049,24.2548782,0 79.5424914000001,24.2548962000001,0 79.5424729,24.2549202000001,0 79.5424549999999,24.2549353999999,0 79.5423964000001,24.2549677000001,0 79.5424172,24.2549713000001,0 79.5424492,24.2550151,0 79.5424708,24.2550594000001,0 79.5424762442698,24.2550673772531,0 79.5425035540244,24.2550802289024,0 79.5425763181708,24.2551624840244,0 79.5426132275203,24.2552225935366,0 79.5426242637238,24.2552516555466,0 79.5426372848937,24.2552859446196,0 79.542656464187,24.2552827030488,0 79.5427029958252,24.2553070029162,0</coordinates></LinearRing></outerBoundaryIs></Polygon>
  </Placemark>
  
    </Document>
</kml>