<?xml version="1.0" encoding="UTF-8"?>
<kml xmlns="http://www.opengis.net/kml/2.2">
    <Document>
        <Placemark xmlns:ns0="http://www.opengis.net/kml/2.2">
	<Style><LineStyle><color>ff0000ff</color></LineStyle><PolyStyle><fill>0</fill></PolyStyle></Style>
	<ExtendedData><SchemaData schemaUrl="#Wave23_v27MAR2025">
		<SimpleData name="area(ha)">2.073849811172028</SimpleData>
		<SimpleData name="site_id">230106_1.1</SimpleData>
		<SimpleData name="Land_parc">230106</SimpleData>
		<SimpleData name="district">Damoh</SimpleData>
		<SimpleData name="block">Hatta</SimpleData>
		<SimpleData name="village">Bharatipura</SimpleData>
		<SimpleData name="Land Type">Farmer</SimpleData>
		<SimpleData name="Instance">Wave 2023</SimpleData>
	</SchemaData></ExtendedData>
      <Polygon><outerBoundaryIs><LinearRing><coordinates>79.5045445,24.3967273,0 79.5045135,24.3967514,0 79.5044871,24.396775,0 79.5043677,24.3968119,0 79.504372,24.396812,0 79.504379,24.396819,0 79.5043763,24.3968211,0 79.5043523,24.3968293,0 79.5043202,24.396836,0 79.5043294,24.3968503,0 79.5043347,24.396874,0 79.5043643,24.3969301,0 79.5043714,24.3969572,0 79.504438,24.3969947,0 79.5044517,24.3970159,0 79.5044733,24.3970324,0 79.504508,24.3970565,0 79.504524,24.3970948,0 79.5045527,24.3971234,0 79.5045719,24.3971503,0 79.5045884,24.3971703,0 79.5046254,24.3972121,0 79.5046369,24.397239,0 79.504637,24.3972641,0 79.5046333,24.3973034,0 79.5046332,24.3973605,0 79.5046386,24.3973734,0 79.5046402,24.3973994,0 79.50463,24.3974098,0 79.5046093,24.3974167,0 79.5046036,24.3974466,0 79.5045944,24.3974745,0 79.5045778,24.397503,0 79.5045676,24.3975328,0 79.5045705,24.397557,0 79.5045746,24.3975834,0 79.5045777,24.3976106,0 79.504571,24.397634,0 79.5045648,24.3976563,0 79.5045547,24.3976888,0 79.5045449,24.397711,0 79.5045696,24.3977298,0 79.5045838,24.397751,0 79.5045828,24.3977967,0 79.5045733,24.3978446,0 79.5045677,24.3978824,0 79.504564,24.3979131,0 79.5045605,24.3979374,0 79.5045589,24.3979615,0 79.5045606,24.397996,0 79.5045622,24.3980221,0 79.5045589,24.398047,0 79.5045564,24.3980729,0 79.504548,24.3980941,0 79.5045263,24.3981197,0 79.5045119,24.3981362,0 79.5044897,24.3981632,0 79.5044733,24.3981865,0 79.504461,24.3982072,0 79.504426,24.3982169,0 79.5043927,24.3982383,0 79.5043879,24.3982506,0 79.5043846,24.3982733,0 79.5043847483065,24.3982745235287,0 79.5043870624673,24.3982745463855,0 79.5043869584139,24.398283381712,0 79.5043909,24.398284,0 79.5043995,24.3982963,0 79.5044102,24.3983159,0 79.5044402,24.3983402,0 79.5044568,24.3983503,0 79.5044775,24.3983607,0 79.5045044,24.3983735,0 79.5045352,24.398389,0 79.5045677,24.3983936,0 79.5045965,24.3984042,0 79.5046253,24.3984158,0 79.5046668,24.3984322,0 79.5046972,24.3984253,0 79.5047209,24.3984338,0 79.5047526,24.398444,0 79.5047834,24.3984523,0 79.5048136,24.3984571,0 79.5048437,24.3984695,0 79.5048657,24.3984815,0 79.5048924,24.398496,0 79.5049167,24.3985119,0 79.5049472,24.3985151,0 79.5049758008099,24.398518305991,0 79.5049811,24.3985189,0 79.5050086,24.3985204,0 79.5049981,24.3985139,0 79.5049974,24.3985045,0 79.5049991,24.3985035,0 79.5049999,24.3985041,0 79.5050042,24.3985023,0 79.5050068,24.398504,0 79.5050477,24.398501,0 79.5050681,24.398501,0 79.5051235,24.398522,0 79.5051662,24.398553,0 79.5051664624119,24.3985531357753,0 79.5051725931792,24.3985531962973,0 79.5051725567743,24.3985562890777,0 79.5051863,24.3985634,0 79.5052129,24.3985805,0 79.505239,24.3985994,0 79.5052725,24.3986202,0 79.5052964,24.3986263,0 79.5053212,24.3986312,0 79.5053453,24.3986446,0 79.50535301966,24.3986452751038,0 79.5053687107697,24.3986454299846,0 79.5053686964569,24.3986466460782,0 79.5053716,24.3986469,0 79.5053927,24.3986547,0 79.5054182,24.3986636,0 79.5054432,24.3986751,0 79.5054694,24.3986847,0 79.5054894,24.3986796,0 79.5055037,24.3986593,0 79.5055103,24.3986337,0 79.5055175,24.3986086,0 79.5055316,24.3985594,0 79.5055432,24.3985385,0 79.5055518,24.398503,0 79.5055611,24.3984735,0 79.5055583,24.3984313,0 79.5055596,24.3984071,0 79.5055603,24.3983684,0 79.505555,24.3983443,0 79.5055396,24.3983202,0 79.5054888,24.3982879,0 79.5054826395809,24.3982853633575,0 79.5054715511565,24.3982852539177,0 79.5054716033482,24.3982808190266,0 79.5054599,24.398276,0 79.5053968,24.3982522,0 79.505427657529,24.3982117561998,0 79.5054378,24.398148,0 79.50546,24.3981296,0 79.5055015,24.3981233,0 79.5055187,24.3981076,0 79.5055814,24.3980756,0 79.5056131,24.398059,0 79.5056287,24.3980386,0 79.5056522,24.3980168,0 79.5056675,24.3979973,0 79.5056924,24.3979699,0 79.505706,24.3979549,0 79.5057444,24.3979159,0 79.5057569,24.3978939,0 79.5057702,24.3978617,0 79.5057724149084,24.3978552289944,0 79.5057726324906,24.3978367362528,0 79.5057787240644,24.3978367963621,0 79.5057804,24.3978319,0 79.5057896,24.3978052,0 79.5058054,24.3977421,0 79.5057939348594,24.3976670177733,0 79.5057974725977,24.3976563857686,0 79.5058087041066,24.3976226315758,0 79.505858919547,24.3975688301033,0 79.5058825503425,24.3975096484572,0 79.5059097,24.3974322,0 79.5059189,24.3973881,0 79.5059108,24.3973807,0 79.505843,24.3973365,0 79.5058202,24.3973135,0 79.505782450029,24.3972950463325,0 79.5057790062178,24.3972950123509,0 79.5057790255139,24.3972933722943,0 79.5057754,24.3972916,0 79.5057613,24.39728,0 79.505726,24.3972648,0 79.5056958,24.3972475,0 79.5056424,24.3972253,0 79.5056214,24.397215,0 79.5056016,24.3972035,0 79.5055805,24.3971903,0 79.5055591,24.3971831,0 79.5055148,24.3971683,0 79.5054902,24.3971533,0 79.5054657,24.3971444,0 79.5054131,24.3971178,0 79.505394716601,24.3971106243245,0 79.5053867747347,24.3971105459387,0 79.5053868101317,24.3971075381556,0 79.5053862,24.3971073,0 79.5053301804975,24.3970200537755,0 79.5052504265627,24.3969366610857,0 79.5051921966143,24.3968877100045,0 79.5051352264346,24.3968398178929,0 79.5051331980055,24.3968371495666,0 79.5050820571447,24.3967698755408,0 79.5050377494031,24.3967133836128,0 79.505043657102,24.3966864826858,0 79.5050200263065,24.3966703421268,0 79.5049314108233,24.3966353709087,0 79.5048993141746,24.3966398066771,0 79.5048545,24.396646,0 79.5048276,24.3966412,0 79.5047902,24.3966389,0 79.5047588,24.3966414,0 79.504725,24.3966482,0 79.5046943,24.3966564,0 79.5046632,24.3966651,0 79.5046327,24.3966765,0 79.5045692,24.3967093,0 79.5045445,24.3967273,0</coordinates></LinearRing></outerBoundaryIs><innerBoundaryIs><LinearRing><coordinates>79.5051818316832,24.3977683219408,0 79.5052152534774,24.3978020916119,0 79.5051813129256,24.3978123948477,0 79.5050109495609,24.3978641114221,0 79.5048866651233,24.3977142751947,0 79.5048089979001,24.397620640049,0 79.5047894441811,24.3975970661738,0 79.5047000522967,24.3974892955837,0 79.5048096065708,24.3973922207968,0 79.5048833850382,24.3974667677715,0 79.5048895782203,24.3974668289191,0 79.5048895061286,24.3974729526164,0 79.5050638829819,24.3976491453528,0 79.5051818316832,24.3977683219408,0</coordinates></LinearRing></innerBoundaryIs></Polygon>
  </Placemark>
  
    </Document>
</kml>