<?xml version="1.0" encoding="UTF-8"?>
<kml xmlns="http://www.opengis.net/kml/2.2">
    <Document>
        <Placemark xmlns:ns0="http://www.opengis.net/kml/2.2">
	<Style><LineStyle><color>ff0000ff</color></LineStyle><PolyStyle><fill>0</fill></PolyStyle></Style>
	<ExtendedData><SchemaData schemaUrl="#Wave23_v27MAR2025">
		<SimpleData name="area(ha)">0.815146790744555</SimpleData>
		<SimpleData name="site_id">230104_1.1</SimpleData>
		<SimpleData name="Land_parc">230104</SimpleData>
		<SimpleData name="district">Damoh</SimpleData>
		<SimpleData name="block">Hatta</SimpleData>
		<SimpleData name="village">Surajpura</SimpleData>
		<SimpleData name="Land Type">Farmer</SimpleData>
		<SimpleData name="Instance">Wave 2023</SimpleData>
	</SchemaData></ExtendedData>
      <Polygon><outerBoundaryIs><LinearRing><coordinates>79.4967822,24.3743179,0 79.4967555,24.3743285,0 79.4967259,24.3743393,0 79.4966563,24.3743464,0 79.4966219,24.3743489,0 79.4965953,24.3743504,0 79.496565,24.3743536,0 79.4965195,24.3743521,0 79.4964813,24.3743513,0 79.4964595,24.3743522,0 79.4964317,24.3743514,0 79.4964036,24.3743505,0 79.496369,24.374352,0 79.4963600960742,24.3743564678071,0 79.4963409,24.3743661,0 79.4963028,24.3744,0 79.4962857,24.3744057,0 79.496265,24.374417,0 79.4962423,24.3744281,0 79.4962153,24.3744402,0 79.4961897,24.3744551,0 79.4961613,24.3744693,0 79.4961263,24.3744809,0 79.4960953,24.3744893,0 79.4960624,24.3744981,0 79.4960176,24.3745053,0 79.4959993,24.3745075,0 79.4959708,24.3745112,0 79.4959413,24.3745206,0 79.4959051,24.3745176,0 79.4958743,24.3745241,0 79.4958419,24.3745348,0 79.4958085,24.3745414,0 79.4957782,24.374548,0 79.4957723,24.3745671,0 79.495772,24.3745942,0 79.4957768,24.3746194,0 79.4957798,24.3746434,0 79.4957859,24.3746721,0 79.4957889,24.3746934,0 79.4957913819565,24.3747120146752,0 79.4957919191776,24.3747120200079,0 79.4957918754492,24.3747157158701,0 79.4957929,24.3747234,0 79.4957975,24.3747454,0 79.4958049,24.3747735,0 79.4958069,24.3747957,0 79.4957934,24.3748324,0 79.4957904590205,24.3748354301005,0 79.4957802,24.374846,0 79.4957619,24.3748661,0 79.4957452,24.3748871,0 79.4957411794797,24.3748921118822,0 79.4957306,24.3749053,0 79.4956956,24.3749324,0 79.4956906698388,24.3749373793005,0 79.4956655,24.3749628,0 79.4956578,24.3749951,0 79.4956444,24.3750192,0 79.4956415,24.3750368,0 79.4956479,24.3750659,0 79.4956759,24.3750786,0 79.4957221422723,24.3750976825665,0 79.4957882478218,24.3751196835076,0 79.4959087,24.3751935,0 79.4959255,24.3751852,0 79.4959757,24.3751671,0 79.4959837175933,24.3751656954587,0 79.495983720938,24.3751654127335,0 79.4959852451263,24.3751654278617,0 79.4960031,24.3751623,0 79.4960443,24.3751621,0 79.4960671624547,24.3751662409051,0 79.4960822924876,24.3751663910684,0 79.4960822619116,24.3751689757545,0 79.4960835,24.3751692,0 79.4961196,24.3751868,0 79.4961474,24.3751925,0 79.4961817,24.3751866,0 79.4962029,24.3751826,0 79.4962499,24.3751627,0 79.4962702,24.3751494,0 79.4962983,24.3751344,0 79.4963228,24.3751224,0 79.4963507,24.3751049,0 79.4963789427184,24.3750902248624,0 79.4963813,24.375089,0 79.4964107,24.3750781,0 79.4964397,24.37507,0 79.4964777830724,24.3750684705608,0 79.4964895,24.375068,0 79.4965414,24.3750671,0 79.4965767775941,24.3750336769694,0 79.4965776,24.3750329,0 79.4966003,24.3750114,0 79.4966462,24.3749647,0 79.4966714,24.374944,0 79.4967092,24.3749126,0 79.4967163923698,24.3749017896518,0 79.4967257,24.3748878,0 79.4967323,24.3748692,0 79.4967309,24.3748485,0 79.4967420920368,24.3748117467999,0 79.4967464,24.3747976,0 79.4968038,24.3747085,0 79.4968299,24.3746555,0 79.4968461,24.3746345,0 79.4968579,24.3746163,0 79.4968692,24.3745636,0 79.4968734886388,24.3745421568124,0 79.4968786427579,24.3745163862137,0 79.4968801,24.3745091,0 79.4968812,24.3744263,0 79.4968859,24.3744118,0 79.4968801744672,24.3743868329369,0 79.4968615,24.3743054,0 79.4968258,24.3742818,0 79.4968178,24.3742763,0 79.4968168,24.3742845,0 79.4968053,24.3742985,0 79.4967822,24.3743179,0</coordinates></LinearRing></outerBoundaryIs></Polygon>
  </Placemark>
  
    </Document>
</kml>