<?xml version="1.0" encoding="UTF-8"?>
<kml xmlns="http://www.opengis.net/kml/2.2">
    <Document>
        <Placemark xmlns:ns0="http://www.opengis.net/kml/2.2">
	<Style><LineStyle><color>ff0000ff</color></LineStyle><PolyStyle><fill>0</fill></PolyStyle></Style>
	<ExtendedData><SchemaData schemaUrl="#Wave23_v27MAR2025">
		<SimpleData name="area(ha)">0.629726141575502</SimpleData>
		<SimpleData name="site_id">230101_1.1</SimpleData>
		<SimpleData name="Land_parc">230101</SimpleData>
		<SimpleData name="district">Damoh</SimpleData>
		<SimpleData name="block">Hatta</SimpleData>
		<SimpleData name="village">Surajpura</SimpleData>
		<SimpleData name="Land Type">Farmer</SimpleData>
		<SimpleData name="Instance">Wave 2023</SimpleData>
	</SchemaData></ExtendedData>
      <Polygon><outerBoundaryIs><LinearRing><coordinates>79.4958408,24.3736415,0 79.4958396,24.3736855,0 79.4958516,24.3737171,0 79.4958599,24.3737268,0 79.4958492683292,24.3738627288661,0 79.4958289281601,24.3739646289247,0 79.4958289281601,24.3740503175468,0 79.4958340132023,24.3741128470452,0 79.4958222910581,24.3742176792777,0 79.4958174710794,24.3742607847349,0 79.4958060454698,24.3743629647296,0 79.495808587991,24.3744417053797,0 79.4958251,24.3744752,0 79.4958629,24.3745121,0 79.4958838,24.374512,0 79.4959119,24.3745055,0 79.4959398,24.3745006,0 79.4959703,24.3744936,0 79.495991745416,24.3744871099407,0 79.4960007,24.3744844,0 79.4960302,24.374477,0 79.4960501,24.3744645,0 79.4960926,24.3744799,0 79.4961155,24.3744812,0 79.4961329,24.3744671,0 79.4961422,24.3744468,0 79.4961586,24.3744195,0 79.4961739,24.3743946,0 79.4961894,24.3743686,0 79.4962004,24.374348,0 79.4962195,24.3743249,0 79.4962382,24.3743036,0 79.496259,24.3742798,0 79.4962731150242,24.3742653068963,0 79.4962814,24.3742568,0 79.4963017,24.3742307,0 79.4963256,24.3742101,0 79.4963476,24.3741874,0 79.4963736,24.3741671,0 79.4963913,24.374146,0 79.4964049,24.3741338,0 79.4964276,24.3741155,0 79.4964541,24.3741005,0 79.4964671009673,24.3740866361382,0 79.4964767,24.3740764,0 79.4964895603674,24.3740726047198,0 79.4966298223183,24.374031211305,0 79.4966357269135,24.3739980113294,0 79.49664610652,24.3739396495001,0 79.4966569427411,24.3738787201772,0 79.4966234660155,24.3738598339769,0 79.4964162505428,24.3738748874002,0 79.4963623,24.3739041,0 79.4963326,24.3738933,0 79.4963125,24.3738848,0 79.4962827,24.3738774,0 79.4962549,24.3738678,0 79.4962231,24.3738549,0 79.4961992,24.3738306,0 79.4961803,24.3737996,0 79.4961772,24.3737719,0 79.4961712,24.3737393,0 79.4961571,24.3737195,0 79.4961505,24.3736927,0 79.4961689,24.3736154,0 79.4961825,24.373559,0 79.496179,24.3734828,0 79.4961781,24.3734577,0 79.4961732,24.3734069,0 79.4961652,24.3733908,0 79.4961721685136,24.3732860656238,0 79.4961009779218,24.3732744860137,0 79.4960119896819,24.3732513267903,0 79.4960063871516,24.3732493910903,0 79.495938256569,24.3732258516396,0 79.495809692537,24.3732097782708,0 79.4958096387374,24.373214325711,0 79.4958293,24.373302,0 79.4958162155544,24.3733717547057,0 79.4958187580755,24.3734157571846,0 79.4958408,24.3736415,0</coordinates></LinearRing></outerBoundaryIs></Polygon>
  </Placemark>
  
    </Document>
</kml>