<?xml version="1.0" encoding="UTF-8"?>
<kml xmlns="http://www.opengis.net/kml/2.2">
    <Document>
        <Placemark xmlns:ns0="http://www.opengis.net/kml/2.2">
	<Style><LineStyle><color>ff0000ff</color></LineStyle><PolyStyle><fill>0</fill></PolyStyle></Style>
	<ExtendedData><SchemaData schemaUrl="#Wave23_v27MAR2025">
		<SimpleData name="area(ha)">45.158350701928427</SimpleData>
		<SimpleData name="site_id">230110_1.1</SimpleData>
		<SimpleData name="Land_parc">230110</SimpleData>
		<SimpleData name="district">Damoh</SimpleData>
		<SimpleData name="block">Batyagarh</SimpleData>
		<SimpleData name="village">Garrava</SimpleData>
		<SimpleData name="Land Type">Community</SimpleData>
		<SimpleData name="Instance">Wave 2023</SimpleData>
	</SchemaData></ExtendedData>
      <Polygon><outerBoundaryIs><LinearRing><coordinates>79.5148555,24.306492,0 79.5148624,24.3065851,0 79.5148464,24.3066847,0 79.5148567,24.3067406,0 79.5148368,24.3067888,0 79.5148352,24.3068747,0 79.5148298,24.3069503,0 79.5148313,24.3070132,0 79.5148197,24.3070797,0 79.5148301,24.3071665,0 79.5148446,24.3072487,0 79.514833,24.3072958,0 79.5148028,24.3074009,0 79.5148001,24.3074902,0 79.5147915,24.3075841,0 79.5147569,24.3076513,0 79.5147674,24.3077201,0 79.5147469,24.3077996,0 79.5147467,24.3078633,0 79.5147408,24.3079332,0 79.5147032,24.3080254,0 79.514682,24.3080736,0 79.5146896,24.3081679,0 79.5147089,24.3082402,0 79.514693,24.3083098,0 79.514682,24.3083981,0 79.5146801,24.3084539,0 79.5146662,24.3085272,0 79.5146439,24.3086003,0 79.5146604,24.3087078,0 79.5146675,24.3087912,0 79.514675,24.3088271,0 79.514682,24.3088385,0 79.5147026,24.3089064,0 79.5147196,24.3090058,0 79.5147281,24.3090637,0 79.5147771,24.3091474,0 79.5147665,24.309212,0 79.5147625,24.30927,0 79.5147954,24.3093527,0 79.5148125,24.3094434,0 79.5148477,24.3095023,0 79.5148278,24.3095957,0 79.5148621,24.3096814,0 79.5148821,24.3097457,0 79.5148952,24.3098371,0 79.5148855,24.3099342,0 79.5149077,24.310025,0 79.5149561,24.3101085,0 79.5149574,24.3102018,0 79.5149662,24.310305,0 79.5149843,24.3103837,0 79.5150172,24.3104789,0 79.5150547,24.3105623,0 79.5150743,24.3106548,0 79.5150943,24.3107295,0 79.5150995,24.3107661,0 79.5150956,24.3107855,0 79.515097,24.3108736,0 79.5151167,24.3109885,0 79.5151496,24.3110834,0 79.515177,24.3111565,0 79.5151692,24.3112659,0 79.5152208,24.3113674,0 79.5152422,24.3114768,0 79.5152401,24.3115749,0 79.5152758,24.3116663,0 79.5152721,24.3117385,0 79.5152877,24.311817,0 79.5152803,24.3118324,0 79.5152963,24.3119025,0 79.5153232,24.3119397,0 79.5153345,24.3120351,0 79.5153552,24.3121157,0 79.5153745,24.3122098,0 79.5153786,24.3123089,0 79.5153982,24.3123835,0 79.5154064,24.3124718,0 79.515409,24.3125804,0 79.5154277,24.3126656,0 79.5154671,24.3127553,0 79.5154737,24.3128604,0 79.5154613,24.3129293,0 79.5154425,24.3130329,0 79.5154659,24.3131354,0 79.5154473,24.3132179,0 79.5154568,24.3133241,0 79.5154438,24.3134335,0 79.5154278,24.3135626,0 79.5154163,24.3135816,0 79.5154165,24.313582,0 79.5155001,24.313608,0 79.5155881,24.3135634,0 79.5157004,24.3135376,0 79.5157995,24.3135158,0 79.5159003,24.313519,0 79.5159272,24.3134967,0 79.5159891,24.3134603,0 79.5160848,24.3134234,0 79.5161753,24.3134077,0 79.5162354,24.3133924,0 79.5163014,24.3133761,0 79.5164605,24.3133396,0 79.516542,24.313323,0 79.5166647,24.313289,0 79.5167594,24.3132946,0 79.5168745,24.3132647,0 79.516952,24.3132285,0 79.5170451,24.3131767,0 79.5170978,24.3131569,0 79.5171875,24.3131143,0 79.5172991,24.3131093,0 79.5174279,24.3130785,0 79.5175265,24.3130502,0 79.5176352,24.3130241,0 79.5177363,24.3130018,0 79.5178253,24.3129519,0 79.5179418,24.3129061,0 79.5179682,24.3129016,0 79.5179859,24.3129108,0 79.5180569,24.3129245,0 79.5181786,24.3129302,0 79.5182917,24.3129456,0 79.5184083,24.3129439,0 79.5185232,24.3129385,0 79.518638,24.3129381,0 79.5187563,24.3129116,0 79.5188531,24.3128968,0 79.5189813,24.3128854,0 79.5190659,24.3128599,0 79.5191277,24.3128469,0 79.5192306,24.3128393,0 79.5192996,24.3128008,0 79.5194153,24.3127766,0 79.5195264,24.3127525,0 79.5196356,24.3127054,0 79.5197281,24.3126339,0 79.5198455,24.3125697,0 79.5198941,24.3125181,0 79.5199514,24.3124222,0 79.519986,24.3123519,0 79.5200588,24.3122557,0 79.5201003,24.3121484,0 79.5201376,24.3120608,0 79.5201731,24.3119996,0 79.5202114,24.3119255,0 79.5202829,24.311859,0 79.5203764,24.311789,0 79.5204475,24.3116948,0 79.520486,24.3115923,0 79.520524,24.3115157,0 79.5205438,24.3114035,0 79.5205079,24.3113108,0 79.5205085,24.3112482,0 79.5204774,24.3111656,0 79.5204391,24.3110647,0 79.5204384,24.310956,0 79.5204335,24.3108252,0 79.5204494,24.3107386,0 79.5204689,24.3106268,0 79.520447,24.3105407,0 79.5204134,24.3104525,0 79.5204002,24.3103681,0 79.5204189,24.3102612,0 79.5204279,24.3102394,0 79.5204442,24.3101322,0 79.5204558,24.3099946,0 79.5204046,24.3099654,0 79.5204045,24.3099695,0 79.5204181,24.3099735,0 79.5203133,24.3099441,0 79.5201987,24.3099276,0 79.5201456,24.3098759,0 79.5200661,24.3098305,0 79.5199836,24.3097577,0 79.5199054,24.3097201,0 79.5198491,24.3096308,0 79.5198256,24.3095472,0 79.5198001,24.3094582,0 79.5197505,24.3093622,0 79.5197167,24.3092688,0 79.5196711,24.3091766,0 79.5196491,24.3090811,0 79.5195996,24.3090185,0 79.5196143,24.3089025,0 79.5195454,24.3088272,0 79.5195177,24.3087556,0 79.5194752,24.3086537,0 79.5194445,24.3085627,0 79.5193911,24.3084799,0 79.5193315,24.3083867,0 79.519276,24.3082941,0 79.5192135,24.3081954,0 79.5191442,24.3081162,0 79.519103,24.3080479,0 79.5189928,24.3079715,0 79.5189594,24.3079084,0 79.5189169,24.3078176,0 79.5188702,24.3077133,0 79.5188278,24.3076193,0 79.518813,24.3075113,0 79.5188436,24.3073969,0 79.5188549,24.3072754,0 79.5189127,24.3071696,0 79.5189854,24.3070171,0 79.5190719,24.3069542,0 79.5190736,24.3068601,0 79.5191112,24.3068277,0 79.519211,24.306743,0 79.5192842,24.3066926,0 79.5193729,24.3066164,0 79.5194424,24.306515,0 79.5195393,24.3064809,0 79.5196074,24.3064266,0 79.5196432,24.3063398,0 79.5196847,24.3063098,0 79.5197428,24.3062215,0 79.5197978,24.3061197,0 79.5197773,24.3060416,0 79.5197326,24.3059419,0 79.5197372,24.3058507,0 79.5197583,24.3057431,0 79.5197727,24.305644,0 79.5198578,24.3055336,0 79.5198652,24.3055397,0 79.5198819,24.3054967,0 79.519898,24.3054423,0 79.5199602,24.3053447,0 79.5199793,24.3052537,0 79.5199963,24.3051879,0 79.520006,24.3050968,0 79.5200349,24.3050068,0 79.5200322,24.3049065,0 79.5200583,24.3047905,0 79.5200886,24.3046927,0 79.5201269,24.3045999,0 79.5201112,24.3045039,0 79.5200405,24.3044491,0 79.5199602,24.3044186,0 79.519864,24.3043807,0 79.5197725,24.3043684,0 79.5196569,24.3043134,0 79.5195895,24.3042364,0 79.5195343,24.3041668,0 79.5194555,24.3040787,0 79.519371,24.3040288,0 79.5192617,24.3040601,0 79.5191611,24.3041067,0 79.5190504,24.3041673,0 79.5189585,24.3042501,0 79.5188606,24.3043207,0 79.5187722,24.3044168,0 79.5186612,24.3044923,0 79.5185276,24.3044751,0 79.5184091,24.3044341,0 79.5182878,24.3043959,0 79.5181909,24.3043432,0 79.5180838,24.3043166,0 79.5179674,24.3042763,0 79.5178462,24.3042339,0 79.5177045,24.3042203,0 79.5175876,24.3042167,0 79.517471,24.3042366,0 79.5173982,24.3043375,0 79.5173472,24.3044405,0 79.5172955,24.3045309,0 79.5171998,24.3046079,0 79.5171538,24.3047201,0 79.5171117,24.3047695,0 79.5170261,24.3048684,0 79.5169503,24.3049583,0 79.5169094,24.3050378,0 79.5168378,24.3050977,0 79.5167947,24.305171,0 79.5167344,24.3052508,0 79.5166393,24.3053078,0 79.5165781,24.3053374,0 79.5164743,24.3053497,0 79.5163837,24.3053886,0 79.5162348,24.3054134,0 79.516085,24.3054305,0 79.5160017,24.3054433,0 79.5158506,24.3054273,0 79.5157473,24.305437,0 79.5156274,24.3054541,0 79.5155374,24.3054773,0 79.5154528,24.3054706,0 79.5153681,24.3054736,0 79.5152714,24.305423,0 79.5151844,24.3053937,0 79.51508,24.3053333,0 79.5150799996043,24.3053332229852,0 79.51508,24.3053331,0 79.5150741,24.3053311,0 79.5150632,24.3053247,0 79.5150457,24.3054101,0 79.5150485,24.3055023,0 79.515034,24.305599,0 79.5150094,24.3057066,0 79.5149971,24.3057899,0 79.51496,24.3058955,0 79.514957,24.3059716,0 79.5149431,24.3060037,0 79.5149255,24.3060668,0 79.514924,24.3061471,0 79.5149037,24.3062207,0 79.5148834,24.3062729,0 79.5148899,24.3063603,0 79.51487,24.3064568,0 79.514866605144,24.3064852695678,0 79.5148608219473,24.3064857221658,0 79.5148555,24.306492,0</coordinates></LinearRing></outerBoundaryIs></Polygon>
  </Placemark>
  
    </Document>
</kml>