<?xml version="1.0" encoding="UTF-8"?>
<kml xmlns="http://www.opengis.net/kml/2.2">
    <Document>
        <Placemark xmlns:ns0="http://www.opengis.net/kml/2.2">
	<Style><LineStyle><color>ff0000ff</color></LineStyle><PolyStyle><fill>0</fill></PolyStyle></Style>
	<ExtendedData><SchemaData schemaUrl="#Wave23_v27MAR2025">
		<SimpleData name="area(ha)">0.738576973749968</SimpleData>
		<SimpleData name="site_id">230103_1.1</SimpleData>
		<SimpleData name="Land_parc">230103</SimpleData>
		<SimpleData name="district">Damoh</SimpleData>
		<SimpleData name="block">Hatta</SimpleData>
		<SimpleData name="village">Surajpura</SimpleData>
		<SimpleData name="Land Type">Farmer</SimpleData>
		<SimpleData name="Instance">Wave 2023</SimpleData>
	</SchemaData></ExtendedData>
      <Polygon><outerBoundaryIs><LinearRing><coordinates>79.4976366606888,24.3760772997087,0 79.4975501982978,24.3760837286822,0 79.4975501959092,24.376083930782,0 79.4975477997987,24.3760839070236,0 79.497512077153,24.3760865631915,0 79.4974511616315,24.3761220374019,0 79.4973646985189,24.3761723891974,0 79.4973569833636,24.3761768821138,0 79.4973518926864,24.376179992215,0 79.497179064579,24.3762855797184,0 79.4971532904034,24.3763013261454,0 79.4971484966304,24.3763042548432,0 79.497059540997,24.3763526598818,0 79.4969014438123,24.3764386879376,0 79.496855619262,24.3764636231597,0 79.4967569483752,24.3765173143947,0 79.4967563934924,24.3765178820027,0 79.4966245,24.3766528,0 79.4966492,24.37667,0 79.4966971,24.3766905,0 79.4967398,24.376686,0 79.4967451,24.3766758,0 79.4967715678717,24.3766145805923,0 79.4968832,24.3766728,0 79.4969132,24.3766874,0 79.4969344,24.3767007,0 79.4969429576828,24.3767099931118,0 79.4969728,24.3767424,0 79.4969899,24.3767654,0 79.497006,24.3767882,0 79.4970207,24.3768086,0 79.4970459,24.3768329,0 79.4970646,24.3768574,0 79.4971004,24.3769022,0 79.4971274,24.3769239,0 79.49716,24.3769508,0 79.49719,24.3769698,0 79.4972032717657,24.3769834684796,0 79.4972268,24.3770077,0 79.4972935987733,24.3770746621064,0 79.4973086,24.3770897,0 79.4973410721652,24.3770953926521,0 79.4973491,24.3770968,0 79.4974199,24.3771351,0 79.497458,24.377139,0 79.4975125,24.3771597,0 79.4975377,24.3771523,0 79.4975741,24.3771552,0 79.4975902,24.3771498,0 79.4976251153149,24.3771682473223,0 79.497635653235,24.3771683518077,0 79.49764,24.3771531,0 79.4976498,24.3771392,0 79.4976502,24.3771072,0 79.4976522,24.3770852,0 79.4976512,24.3770501,0 79.4976488,24.3770183,0 79.4976472089294,24.3769878707752,0 79.4976472,24.3769877,0 79.4976352,24.3769672,0 79.4976419,24.3769373,0 79.4976495,24.37692,0 79.4976587,24.3768749,0 79.4976664,24.3768394,0 79.497678,24.3767878,0 79.497671,24.3767493,0 79.4976651240286,24.3767171549809,0 79.4976642,24.3767121,0 79.4976619,24.3766757,0 79.4976656,24.3766394,0 79.4976691,24.376606,0 79.4976725,24.3765741,0 79.4976754,24.3765467,0 79.4976763,24.3765156,0 79.4976771,24.3764878,0 79.4976857,24.3764509,0 79.4976869358971,24.3764464778075,0 79.4976985,24.3764051,0 79.4977136025874,24.3763564443809,0 79.4977188,24.3763397,0 79.497745174655,24.37626917222,0 79.497745206707,24.3762664598977,0 79.4977461006198,24.3762664687601,0 79.4977537,24.3762404,0 79.4977651,24.3762187,0 79.4977841,24.3762003,0 79.4977854,24.3761903,0 79.4977804643888,24.3761765116262,0 79.4977791,24.3761727,0 79.4977707,24.3761521,0 79.4977468528362,24.3761271598412,0 79.4977467,24.376127,0 79.497746864096,24.3761262069953,0 79.4977663292668,24.37603214022,0 79.4977478998433,24.3760385586177,0 79.4976366606888,24.3760772997087,0</coordinates></LinearRing></outerBoundaryIs></Polygon>
  </Placemark>
  
    </Document>
</kml>