<?xml version="1.0" encoding="UTF-8"?>
<kml xmlns="http://www.opengis.net/kml/2.2">
    <Document>
        <Placemark xmlns:ns0="http://www.opengis.net/kml/2.2">
	<Style><LineStyle><color>ff0000ff</color></LineStyle><PolyStyle><fill>0</fill></PolyStyle></Style>
	<ExtendedData><SchemaData schemaUrl="#Wave24_v28MAR2025">
		<SimpleData name="area(ha)">33.448366326278418</SimpleData>
		<SimpleData name="site_id">240037_1.2</SimpleData>
		<SimpleData name="Land_parc">240037</SimpleData>
		<SimpleData name="district">Damoh</SimpleData>
		<SimpleData name="block">Patera</SimpleData>
		<SimpleData name="village">Rasoiya</SimpleData>
		<SimpleData name="Land Type">Community</SimpleData>
		<SimpleData name="Instance">Wave 2024</SimpleData>
	</SchemaData></ExtendedData>
      <Polygon><outerBoundaryIs><LinearRing><coordinates>79.7994503,23.8657811,0 79.7997039,23.8654543,0 79.7998642,23.8656352,0 79.7998968,23.8655767,0 79.7998794,23.8655044,0 79.7998465,23.8653491,0 79.7997923,23.865193,0 79.7997662,23.8651133,0 79.7997481,23.8649383,0 79.7998494,23.8647753,0 79.8000433,23.8646936,0 79.8004867,23.8646104,0 79.8009322,23.8644675,0 79.8011969,23.8644415,0 79.8014485,23.8645344,0 79.8015969,23.8646703,0 79.8019146,23.864669,0 79.8020821,23.8646553,0 79.8023301,23.8648171,0 79.8022433,23.8650869,0 79.8022088,23.865241,0 79.8022768,23.8655413,0 79.8025227,23.8657379,0 79.8026397,23.8657886,0 79.8028419,23.865802,0 79.8032879,23.8655918,0 79.803301,23.865577,0 79.803297,23.8655765,0 79.8031281,23.8649749,0 79.8034002,23.8646364,0 79.8037643,23.8643183,0 79.8035522,23.8636355,0 79.803551,23.8636333,0 79.8035097,23.8636251,0 79.8034797,23.8636287,0 79.8033847,23.8636109,0 79.8033296,23.8636806,0 79.8033314,23.8636722,0 79.8033516,23.8636181,0 79.8033699,23.8635956,0 79.8034008,23.8635349,0 79.8034004,23.8634677,0 79.803387,23.8634058,0 79.8033807,23.863381,0 79.8034018,23.8632798,0 79.8034141,23.8632371,0 79.8034465,23.8630528,0 79.8034555,23.8629741,0 79.8034408,23.862758,0 79.8035092,23.8623953,0 79.8036159,23.8621095,0 79.8038421,23.8615847,0 79.8039239,23.8605243,0 79.8042771,23.8599197,0 79.8040902,23.8596616,0 79.8037449,23.8595117,0 79.8034882,23.8597834,0 79.803317,23.8599249,0 79.8029289,23.8598947,0 79.8024568,23.8597118,0 79.8022126,23.8596215,0 79.8021902,23.8595081,0 79.8017565,23.8590092,0 79.8012626,23.8587884,0 79.8011513,23.8593474,0 79.8004908,23.8598208,0 79.8000366,23.8600563,0 79.7996066,23.8602734,0 79.7989882,23.8606443,0 79.79863,23.8609582,0 79.798303,23.8613711,0 79.7981923,23.8615834,0 79.7980356,23.8617742,0 79.7978854,23.8622264,0 79.797837,23.8624534,0 79.7978013,23.8627194,0 79.7977326,23.8629965,0 79.7977057,23.8635736,0 79.7976571,23.8638992,0 79.7976997,23.864166,0 79.7979224,23.8646658,0 79.7981251,23.8650793,0 79.7981453,23.8650647,0 79.7982215,23.8650771,0 79.7982746,23.8651075,0 79.7983175,23.8651132,0 79.7984099,23.865163,0 79.7984555,23.8652081,0 79.798502,23.8652398,0 79.7985877,23.865268,0 79.7986182,23.8653121,0 79.7986289,23.8653371,0 79.7987458,23.8654443,0 79.7987807,23.8654853,0 79.7988021,23.865545,0 79.7988286,23.865596,0 79.7989044,23.8657145,0 79.7989142,23.865742,0 79.7989191,23.8658026,0 79.798974,23.8658435,0 79.7990788,23.8658699,0 79.7991992,23.8658479,0 79.7992688,23.8658345,0 79.7994072,23.8657803,0 79.7994503,23.8657811,0</coordinates></LinearRing></outerBoundaryIs><innerBoundaryIs><LinearRing><coordinates>79.8010221,23.8624208,0 79.80098,23.8624196,0 79.800929,23.8623932,0 79.8009102,23.8623585,0 79.80091,23.8623292,0 79.8009225,23.8622657,0 79.8009811,23.862233,0 79.8010382,23.8622328,0 79.8011318,23.8622318,0 79.8012864,23.8622041,0 79.8013161,23.8622035,0 79.8013845,23.8623509,0 79.8014014,23.8623895,0 79.8014113,23.8624744,0 79.8013973,23.8625277,0 79.8013482,23.8626237,0 79.8013058,23.8626645,0 79.8012194,23.8626843,0 79.8012014,23.8626768,0 79.8011542,23.862658,0 79.8011042,23.8626262,0 79.8010825,23.8624844,0 79.8010946,23.8624558,0 79.8010221,23.8624208,0</coordinates></LinearRing></innerBoundaryIs></Polygon>
  </Placemark>
  
    </Document>
</kml>