<?xml version="1.0" encoding="UTF-8"?>
<kml xmlns="http://www.opengis.net/kml/2.2">
    <Document>
        <Placemark xmlns:ns0="http://www.opengis.net/kml/2.2">
	<Style><LineStyle><color>ff0000ff</color></LineStyle><PolyStyle><fill>0</fill></PolyStyle></Style>
	<ExtendedData><SchemaData schemaUrl="#Wave24_v28MAR2025">
		<SimpleData name="area(ha)">19.915110729389184</SimpleData>
		<SimpleData name="site_id">240037_2.2</SimpleData>
		<SimpleData name="Land_parc">240037</SimpleData>
		<SimpleData name="district">Damoh</SimpleData>
		<SimpleData name="block">Patera</SimpleData>
		<SimpleData name="village">Rasoiya</SimpleData>
		<SimpleData name="Land Type">Community</SimpleData>
		<SimpleData name="Instance">Wave 2024</SimpleData>
	</SchemaData></ExtendedData>
      <MultiGeometry><Polygon><outerBoundaryIs><LinearRing><coordinates>79.7903484,23.86035,0 79.7903544333333,23.8603560333333,0 79.7903547621253,23.8603555483651,0 79.7903484,23.86035,0</coordinates></LinearRing></outerBoundaryIs></Polygon><Polygon><outerBoundaryIs><LinearRing><coordinates>79.7903668,23.8603765,0 79.7903766,23.8603877,0 79.7903686,23.8603756,0 79.7903656,23.8603672,0 79.7903544333333,23.8603560333333,0 79.7903491,23.8603639,0 79.7903668,23.8603765,0</coordinates></LinearRing></outerBoundaryIs></Polygon><Polygon><outerBoundaryIs><LinearRing><coordinates>79.7913797,23.8610322,0 79.7913738262056,23.8610316285865,0 79.7913832,23.8610347,0 79.7913797,23.8610322,0</coordinates></LinearRing></outerBoundaryIs></Polygon><Polygon><outerBoundaryIs><LinearRing><coordinates>79.7971812893071,23.8611760501111,0 79.7971818,23.861177,0 79.7971971,23.8611775,0 79.7971812893071,23.8611760501111,0</coordinates></LinearRing></outerBoundaryIs></Polygon><Polygon><outerBoundaryIs><LinearRing><coordinates>79.7905218,23.8604255,0 79.7905733,23.8604699,0 79.7905898,23.8604871,0 79.7906058,23.8605335,0 79.7906208,23.8605514,0 79.7906623,23.8605959,0 79.790685,23.8606118,0 79.7907137,23.8606176,0 79.7907392,23.8606234,0 79.7907546,23.8606238,0 79.7908108,23.8606343,0 79.7908866,23.8606833,0 79.790932,23.8607273,0 79.7909585,23.8607545,0 79.7909927,23.8607826,0 79.7910222,23.8608093,0 79.7910643,23.8608479,0 79.7911329,23.8608976,0 79.7911508,23.8609215,0 79.7911769,23.860939,0 79.7912318,23.8609653,0 79.7913098,23.8610254,0 79.7913738262056,23.8610316285865,0 79.7913597,23.861027,0 79.7913566,23.8610256,0 79.7914194,23.8610398,0 79.7914987,23.8610752,0 79.7916048,23.8611256,0 79.7916733,23.8610936,0 79.7916978,23.8611099,0 79.7917255,23.8611123,0 79.7918596,23.8611,0 79.7919187,23.8610741,0 79.7919894,23.8610562,0 79.7920494,23.8610569,0 79.7920959,23.8610412,0 79.7921857,23.8608731,0 79.7922114,23.8608731,0 79.7923321,23.8608306,0 79.7924514,23.8608548,0 79.7925045,23.8609015,0 79.7925348,23.8609229,0 79.7925487,23.8609353,0 79.7925458,23.8609435,0 79.7926231,23.8610617,0 79.792643,23.8611097,0 79.7926482,23.8611392,0 79.7926945,23.8612016,0 79.7926716,23.8612536,0 79.792677,23.8613098,0 79.7926656,23.8613856,0 79.7926876,23.8614427,0 79.7926451,23.8615139,0 79.7925297,23.8615561,0 79.7924729,23.8615744,0 79.7923486,23.8615835,0 79.7922849,23.8615682,0 79.792264,23.8615543,0 79.7922067,23.8615176,0 79.7921385,23.8615205,0 79.7921067,23.8615188,0 79.7920423,23.8615032,0 79.7919761,23.8614969,0 79.7919446,23.861494,0 79.7919069,23.8614928,0 79.7918276,23.8614706,0 79.7917475,23.8614533,0 79.7917136,23.8614262,0 79.7916819,23.8614372,0 79.7916489,23.8614496,0 79.7915917,23.8614536,0 79.7915229,23.8614224,0 79.7914651,23.861471,0 79.7914315,23.8614512,0 79.7914009,23.8614653,0 79.7913728,23.861463,0 79.791239,23.8615067,0 79.7911166,23.8614986,0 79.7910759,23.8614983,0 79.7910695,23.8615293,0 79.7910023,23.8615367,0 79.7909247,23.8615362,0 79.7909112,23.8615582,0 79.7908342,23.8615881,0 79.7907875,23.8615741,0 79.7907405,23.8616549,0 79.7907113,23.861675,0 79.7906614,23.8616941,0 79.7906357,23.8617053,0 79.7906071,23.8617137,0 79.79056,23.8617459,0 79.7905078,23.8617764,0 79.7904739,23.8617636,0 79.7904408,23.8617607,0 79.7904063,23.8617856,0 79.790314,23.8617922,0 79.7902592,23.861806,0 79.790167,23.8618336,0 79.7901345,23.861855,0 79.7900501,23.8618855,0 79.7899219,23.8619271,0 79.7898942,23.8619377,0 79.7898765,23.861984,0 79.789885,23.862041,0 79.7898942,23.8620702,0 79.7898431,23.8621374,0 79.7898438,23.862251,0 79.7898428,23.8622934,0 79.789869,23.8623138,0 79.7898902,23.8623636,0 79.7898879,23.8624401,0 79.7898896,23.8624934,0 79.7898993,23.862517,0 79.7899066,23.8625406,0 79.7899363,23.8625977,0 79.7899611,23.8626566,0 79.7900197,23.8626976,0 79.7900519,23.8627391,0 79.7901024,23.8627856,0 79.7901813,23.8628859,0 79.790252,23.8629971,0 79.7902689,23.8630722,0 79.7902995,23.8631309,0 79.7903358,23.8631352,0 79.7903992,23.863142,0 79.7904473,23.8632161,0 79.7904782,23.8633106,0 79.7904202,23.8633979,0 79.7904893,23.8634699,0 79.7904997,23.863492,0 79.7904419,23.8635165,0 79.7904298,23.8635754,0 79.7904266,23.8636789,0 79.7903721,23.8637012,0 79.7903526,23.8638204,0 79.7903359,23.8638532,0 79.7902809,23.863879,0 79.7900123,23.8638059,0 79.7900104,23.8638263,0 79.7900481,23.8639005,0 79.7900121,23.8639819,0 79.7900262,23.8639962,0 79.7900217,23.8641708,0 79.7900395,23.8642277,0 79.7900507,23.8642487,0 79.7900665,23.8642573,0 79.7900787,23.8642347,0 79.7901504,23.8642511,0 79.7901724,23.8642653,0 79.7902566,23.8642955,0 79.7902807,23.8643061,0 79.7903164,23.8644236,0 79.7903522,23.8645051,0 79.7903487,23.8645529,0 79.7903291,23.8646013,0 79.7903034,23.8646521,0 79.790293,23.8646849,0 79.7903023,23.8647345,0 79.790306,23.8647636,0 79.7903013,23.8647937,0 79.7902977,23.8648222,0 79.7902968,23.864849,0 79.7903045,23.8648723,0 79.7903153,23.864899,0 79.790313,23.8649152,0 79.7902843,23.8650081,0 79.7902695,23.8650569,0 79.7902625,23.8650803,0 79.7902156,23.8651315,0 79.7901758,23.8651712,0 79.7901411,23.8652544,0 79.7901352,23.865281,0 79.7901177,23.8653165,0 79.7901296,23.8653399,0 79.7901379,23.8653629,0 79.7901368,23.8653995,0 79.7901699,23.8654778,0 79.7901817,23.8655051,0 79.7901958,23.8655576,0 79.7901526,23.8656207,0 79.7901429,23.8656441,0 79.7901393,23.8656921,0 79.7901102,23.8657465,0 79.7900673,23.8658063,0 79.7900306,23.8658233,0 79.7899667,23.8658256,0 79.7898887,23.8658515,0 79.7898772,23.8659234,0 79.7898582,23.8659153,0 79.7897101,23.8659863,0 79.7896963,23.8660224,0 79.7896862,23.8660509,0 79.7896769,23.8660767,0 79.7896557,23.8661185,0 79.7896673,23.866137,0 79.7896687,23.8661801,0 79.7897452,23.8662297,0 79.7897959,23.8662638,0 79.7898519,23.866277,0 79.7898724,23.8663091,0 79.7899063,23.8663636,0 79.789935,23.8663787,0 79.7899963,23.8664457,0 79.7900256,23.866447,0 79.7900642,23.8664376,0 79.7900887,23.8664175,0 79.7901141,23.8663999,0 79.7901385,23.8663866,0 79.7901589,23.8663847,0 79.7901924,23.8663796,0 79.7902326,23.8663681,0 79.7902898,23.8663914,0 79.7903487,23.866427,0 79.7903913,23.8664378,0 79.7904166,23.8664484,0 79.790446,23.8664558,0 79.790507,23.8664412,0 79.7905369,23.8664318,0 79.7906085,23.8664242,0 79.7906534,23.866444,0 79.7907146,23.8664248,0 79.7907939,23.8664337,0 79.7908176,23.8664199,0 79.7908508,23.8664093,0 79.7908766,23.8664099,0 79.790926,23.8663987,0 79.790985,23.8663445,0 79.7910071,23.8662905,0 79.7910477,23.8662475,0 79.7910997,23.8661887,0 79.791147,23.8661656,0 79.7911757,23.8661575,0 79.7912092,23.8661111,0 79.7912383,23.8660576,0 79.7912617,23.8660113,0 79.7912815,23.8659628,0 79.7913188,23.8659098,0 79.7913473,23.8658344,0 79.7913548,23.8657825,0 79.7914077,23.8657109,0 79.791414,23.8656644,0 79.7913902,23.8655959,0 79.7913474,23.8655703,0 79.7913349,23.865554,0 79.7913197,23.8654886,0 79.7912955,23.8654662,0 79.7912745,23.865449,0 79.7912515,23.8654303,0 79.7912478,23.8654128,0 79.7912173,23.865373,0 79.7911898,23.8653215,0 79.7911714,23.8652981,0 79.7911703,23.8652642,0 79.791153,23.8652397,0 79.7911508,23.8652097,0 79.7911334,23.8651848,0 79.7911169,23.8651722,0 79.7910923,23.8651589,0 79.7910708,23.8651372,0 79.7910407,23.8651221,0 79.7910402,23.8650915,0 79.7910394,23.8650624,0 79.7910258,23.8650115,0 79.7910008,23.8649985,0 79.7909579,23.8649236,0 79.7909362,23.8648748,0 79.7909129,23.8647886,0 79.7909127,23.8647631,0 79.7909075,23.8647364,0 79.7908936,23.8647137,0 79.7908779,23.8646985,0 79.7908707,23.8646631,0 79.7908719,23.8645794,0 79.790877,23.8645313,0 79.790769,23.864454,0 79.7906728,23.8644113,0 79.7906159,23.8643941,0 79.79066,23.8644014,0 79.790725,23.864374,0 79.7907447,23.864363,0 79.7907583,23.8643611,0 79.7908159,23.8643,0 79.7908004,23.864254,0 79.7908288,23.8642037,0 79.790825,23.864184,0 79.7908265,23.8641793,0 79.7908189,23.8641833,0 79.7908489,23.8640661,0 79.7908584,23.8640329,0 79.7908597,23.8639784,0 79.7908557,23.8639461,0 79.7908503,23.8639175,0 79.7908439,23.8638869,0 79.7908504,23.8638604,0 79.7908521,23.8638335,0 79.7908532,23.8638031,0 79.7908567,23.8637697,0 79.7908615,23.8637103,0 79.7908649,23.8636804,0 79.7908673,23.8636509,0 79.7908729,23.8636141,0 79.7908625,23.863576,0 79.7908299,23.863526,0 79.7908058,23.8634572,0 79.7908128,23.8634298,0 79.7908429,23.8633585,0 79.7908374,23.8632916,0 79.790847,23.8632063,0 79.7908442,23.8631462,0 79.7908374,23.8630777,0 79.7908168,23.8630279,0 79.7908438,23.8630208,0 79.7908318,23.8630086,0 79.7908322,23.8629801,0 79.7908056,23.8629594,0 79.7908095,23.8629337,0 79.7907854,23.8629295,0 79.790796,23.8629161,0 79.7908705,23.8628273,0 79.7908792,23.8627568,0 79.7908775,23.8627228,0 79.7908902,23.8626645,0 79.790935,23.862614,0 79.7909515,23.8625777,0 79.790979,23.8625249,0 79.7909989,23.8624402,0 79.7910085,23.8624051,0 79.7910469,23.8623574,0 79.7910711,23.8623386,0 79.7911099,23.8623046,0 79.791136,23.8622877,0 79.7911579,23.8622348,0 79.7912484,23.862121,0 79.7912735,23.8620766,0 79.7913907,23.8620128,0 79.7915006,23.8618447,0 79.7915058,23.8618325,0 79.7915061,23.8618438,0 79.7915679,23.8620163,0 79.791658,23.862043,0 79.7917489,23.8620171,0 79.791837,23.8620376,0 79.7919271,23.8620537,0 79.7919572,23.8620637,0 79.7919884,23.8620722,0 79.7920477,23.8620749,0 79.792077,23.86209,0 79.7921076,23.8621059,0 79.7921675,23.8621198,0 79.7921949,23.8621302,0 79.7922255,23.8621338,0 79.79226,23.8621431,0 79.7922888,23.8621441,0 79.7924153,23.8621605,0 79.792461,23.86214,0 79.7925475,23.8621187,0 79.7926073,23.8621158,0 79.7926257,23.8621241,0 79.792661,23.8621246,0 79.7927234,23.8621389,0 79.7927865,23.8621657,0 79.7928475,23.8621909,0 79.7929105,23.8622043,0 79.7929812,23.862209,0 79.7930426,23.8622254,0 79.7930753,23.8622232,0 79.7931709,23.8622197,0 79.7932392,23.8622099,0 79.7933386,23.8621902,0 79.7934109,23.8621764,0 79.7934713,23.8621541,0 79.7935059,23.862117,0 79.7935393,23.862068,0 79.7935688,23.8620248,0 79.7936546,23.8619961,0 79.7936728,23.8619824,0 79.7936952,23.8619695,0 79.7937189,23.8619454,0 79.7937312,23.861928,0 79.79376,23.8619087,0 79.7937822,23.8618907,0 79.7938135,23.8618722,0 79.7938506,23.8618536,0 79.7939431,23.8618424,0 79.7939837,23.8618479,0 79.7939758,23.8618304,0 79.7940767,23.8618197,0 79.7941364,23.8618061,0 79.7942109,23.861797,0 79.7942905,23.8617804,0 79.7943198,23.8617692,0 79.7943935,23.8617387,0 79.7944365,23.861719,0 79.7944654,23.8617061,0 79.7945092,23.8616903,0 79.7945591,23.8616591,0 79.7945754,23.8616501,0 79.7945752,23.8616524,0 79.7946148334097,23.8616202832715,0 79.7946234,23.8616272,0 79.7947913,23.861591,0 79.7950684,23.8614368,0 79.795278,23.8613155,0 79.7953542,23.8612786,0 79.7954432,23.8611937,0 79.7956327,23.8611138,0 79.7959818,23.8610316,0 79.7961626,23.861033,0 79.7963813,23.8610661,0 79.7965924,23.8610676,0 79.7968023,23.8610894,0 79.7970162,23.8611554,0 79.7970826,23.861167,0 79.7971812893071,23.8611760501111,0 79.7970768,23.8609817,0 79.7972605,23.86075,0 79.7973381,23.860522,0 79.7973796,23.8604747,0 79.7974358,23.8603485,0 79.797472,23.8602829,0 79.7975166,23.8601833,0 79.7975464,23.8601044,0 79.7975951,23.8599687,0 79.7976045,23.859921,0 79.797603,23.859858,0 79.7976245,23.8598284,0 79.7976358,23.8597336,0 79.7976406,23.859659,0 79.7976601,23.8595924,0 79.7976704,23.8595053,0 79.7976768,23.859436,0 79.7976729,23.8594059,0 79.7976671,23.8593769,0 79.7976731,23.8593423,0 79.7976838,23.8592987,0 79.7976913,23.8592696,0 79.7976947,23.8591545,0 79.7976918,23.8590929,0 79.7976943,23.8590187,0 79.7977138,23.8589264,0 79.7971695,23.858891,0 79.7968033,23.8591016,0 79.7964794,23.8592314,0 79.7964489,23.8592461,0 79.7963256,23.8593625,0 79.796256,23.8593928,0 79.7961937,23.859425,0 79.7961566,23.8594376,0 79.7961242,23.8594588,0 79.796089,23.8594682,0 79.7960629,23.8594835,0 79.7960061,23.8595,0 79.7959829,23.8595229,0 79.7959552,23.859541,0 79.795829,23.8595974,0 79.7958022,23.8596107,0 79.7957692,23.8596257,0 79.795717,23.8596454,0 79.7957009,23.8596665,0 79.7956839,23.8596827,0 79.7956267,23.8597262,0 79.7956029,23.8597416,0 79.7955799,23.859753,0 79.795559,23.8597633,0 79.7955089,23.8597803,0 79.7954388,23.8598249,0 79.7953696,23.8598262,0 79.7952716,23.8598526,0 79.7952421,23.8598689,0 79.7951641,23.8598849,0 79.7951443,23.8598962,0 79.7950284,23.8599257,0 79.7950307,23.859923,0 79.7950392,23.8598992,0 79.7949972,23.8599419,0 79.7949846,23.8599492,0 79.7949663,23.8599538,0 79.794857,23.8599664,0 79.7948248,23.8599753,0 79.7947527,23.8599891,0 79.7946691,23.8600019,0 79.7946153,23.8600281,0 79.7944691,23.8600849,0 79.7943308,23.8601331,0 79.7942844,23.8601163,0 79.794205,23.8600875,0 79.7941837,23.8600843,0 79.7941408,23.8600761,0 79.7941159,23.8600801,0 79.794055,23.860082,0 79.7939722,23.8600892,0 79.7939532,23.8600776,0 79.7939206,23.8600541,0 79.7939012,23.8600396,0 79.7938793,23.8600317,0 79.7938489,23.8600212,0 79.7938341,23.8600378,0 79.793757,23.8600064,0 79.7936607,23.8599922,0 79.7935984,23.8599445,0 79.7935427,23.8599063,0 79.7935108,23.8598801,0 79.7934246,23.8598293,0 79.7933329,23.8597696,0 79.7932454,23.8597171,0 79.793149,23.8596773,0 79.7930928,23.8596379,0 79.7930338,23.8595977,0 79.7929645,23.8595811,0 79.7929276,23.8595755,0 79.7928253,23.8595444,0 79.7927618,23.8595372,0 79.7926983,23.8594935,0 79.792666,23.8594969,0 79.7925709,23.8594829,0 79.7925377,23.8594869,0 79.7924051,23.859471,0 79.7923392,23.8594586,0 79.7922694,23.8594453,0 79.7922353,23.8594409,0 79.7921912,23.8594488,0 79.792161,23.8594447,0 79.792127,23.8594344,0 79.7920919,23.8594144,0 79.7920649,23.859399,0 79.7919951,23.8593659,0 79.7918903,23.8593545,0 79.7918292,23.859334,0 79.791766,23.8593063,0 79.7917264,23.859299,0 79.7916925,23.8592908,0 79.7916188,23.859259,0 79.7915888,23.8592605,0 79.791524,23.8592728,0 79.791462,23.8592823,0 79.7913471,23.8592779,0 79.7912898,23.8592577,0 79.7912674,23.859241,0 79.7912291,23.8592291,0 79.7912081,23.8591919,0 79.7911663,23.8591909,0 79.7911323,23.859188,0 79.7911026,23.8591909,0 79.7911047,23.8591868,0 79.7910307,23.8591689,0 79.790998,23.8591164,0 79.7909451,23.859114,0 79.790944,23.8590974,0 79.7909269,23.8590815,0 79.7909032,23.8592016,0 79.7908479,23.8592278,0 79.7908156,23.8592284,0 79.7907906,23.8592339,0 79.7907086,23.8592556,0 79.7906791,23.8592639,0 79.7906207,23.859284,0 79.7905622,23.8593061,0 79.7905431,23.8593123,0 79.7905226,23.8593327,0 79.7904975,23.8593703,0 79.7904913,23.8593989,0 79.7905198,23.8594592,0 79.7905191,23.8594833,0 79.7904756,23.8596657,0 79.7904714,23.8597002,0 79.790419,23.8597552,0 79.7904023,23.8597775,0 79.7903823,23.8598078,0 79.7903796,23.8598447,0 79.7903918,23.8599115,0 79.7904151,23.8599647,0 79.7904076,23.8600283,0 79.7904264,23.8600869,0 79.7904217,23.8601412,0 79.7904303,23.8601701,0 79.7904371,23.8602062,0 79.7904357,23.8602806,0 79.7904065,23.8603446,0 79.7903771,23.8603472,0 79.7903571,23.8603521,0 79.7903547621253,23.8603555483651,0 79.7904,23.860395,0 79.7904288,23.8604024,0 79.7905218,23.8604255,0</coordinates></LinearRing></outerBoundaryIs></Polygon></MultiGeometry>
  </Placemark>
  
    </Document>
</kml>