<?xml version="1.0" encoding="UTF-8"?>
<kml xmlns="http://www.opengis.net/kml/2.2">
    <Document>
        <Placemark xmlns:ns0="http://www.opengis.net/kml/2.2">
	<Style><LineStyle><color>ff0000ff</color></LineStyle><PolyStyle><fill>0</fill></PolyStyle></Style>
	<ExtendedData><SchemaData schemaUrl="#Wave24_v28MAR2025">
		<SimpleData name="area(ha)">5.622261972621630</SimpleData>
		<SimpleData name="site_id">240028_1.1</SimpleData>
		<SimpleData name="Land_parc">240028</SimpleData>
		<SimpleData name="district">Chhatarpur</SimpleData>
		<SimpleData name="block">Nowgong</SimpleData>
		<SimpleData name="village">Kukrela</SimpleData>
		<SimpleData name="Land Type">Community</SimpleData>
		<SimpleData name="Instance">Wave 2024</SimpleData>
	</SchemaData></ExtendedData>
      <Polygon><outerBoundaryIs><LinearRing><coordinates>79.3439706,25.2171202,0 79.3439665,25.2171165,0 79.3439536,25.2171195,0 79.3437601,25.2170143,0 79.3435984,25.2169749,0 79.3434132,25.2170124,0 79.3431922,25.2170813,0 79.3430327,25.2170741,0 79.3429173,25.2171746,0 79.3427537,25.217306,0 79.3425995,25.2173578,0 79.3424234,25.2174393,0 79.3422523,25.2175067,0 79.342091,25.217568,0 79.3419452,25.2176394,0 79.3418132,25.2177151,0 79.3416809,25.2178059,0 79.3415648,25.2179072,0 79.3414619,25.2180153,0 79.3413564,25.2181335,0 79.3412688,25.2182536,0 79.3411738,25.2184013,0 79.341087,25.2185631,0 79.3410423,25.218694,0 79.3410474,25.2188181,0 79.3411059,25.2189302,0 79.3411788,25.2190484,0 79.3412406,25.2191851,0 79.3413191,25.2193088,0 79.3414581,25.2193875,0 79.3416337,25.2194403,0 79.3417895,25.2194932,0 79.3419615,25.2195573,0 79.3421676,25.2194971,0 79.3422604,25.2195106,0 79.3423679,25.2194984,0 79.3424935,25.2194635,0 79.3426406,25.2194227,0 79.3427704,25.2193729,0 79.3428958,25.2193032,0 79.3430125,25.2192128,0 79.3431015,25.2191071,0 79.3431804,25.2189906,0 79.3432625,25.2188783,0 79.3433637,25.2187816,0 79.3434803,25.2186961,0 79.3435889,25.2186264,0 79.343731,25.2185919,0 79.3438497947704,25.2185748545132,0 79.3439017840471,25.2185057732725,0 79.3439332438667,25.2183369421694,0 79.3439797372526,25.2181351062475,0 79.3440146633183,25.2179795832586,0 79.3440165047036,25.2178435934992,0 79.3440363521205,25.2177243921298,0 79.3440417946663,25.2175917600423,0 79.3440923,25.2174779,0 79.344073478528,25.2174063447491,0 79.3440714491481,25.2172868982408,0 79.3440358413637,25.2172234700528,0 79.3439706,25.2171202,0</coordinates></LinearRing></outerBoundaryIs></Polygon>
  </Placemark>
  
    </Document>
</kml>