<?xml version="1.0" encoding="UTF-8"?>
<kml xmlns="http://www.opengis.net/kml/2.2">
    <Document>
        <Placemark xmlns:ns0="http://www.opengis.net/kml/2.2">
	<Style><LineStyle><color>ff0000ff</color></LineStyle><PolyStyle><fill>0</fill></PolyStyle></Style>
	<ExtendedData><SchemaData schemaUrl="#Wave24_v28MAR2025">
		<SimpleData name="area(ha)">6.340919171886338</SimpleData>
		<SimpleData name="site_id">240062_1.2</SimpleData>
		<SimpleData name="Land_parc">240062</SimpleData>
		<SimpleData name="district">Damoh</SimpleData>
		<SimpleData name="block">Patera</SimpleData>
		<SimpleData name="village">Bagsari</SimpleData>
		<SimpleData name="Land Type">Community</SimpleData>
		<SimpleData name="Instance">Wave 2024</SimpleData>
	</SchemaData></ExtendedData>
      <Polygon><outerBoundaryIs><LinearRing><coordinates>79.7941963,23.8488806,0 79.7939518,23.8488481,0 79.793938,23.8488563,0 79.7939012,23.8488897,0 79.7939314,23.8489342,0 79.7939319,23.8489905,0 79.7939224,23.8490265,0 79.7938881,23.8490647,0 79.7938771,23.8490738,0 79.7938586,23.849094,0 79.7938383,23.8491179,0 79.7937829,23.8491479,0 79.7937931,23.8491379,0 79.7937837,23.8491449,0 79.7937574,23.8491172,0 79.7936541,23.8491661,0 79.7936046,23.8491743,0 79.7935787,23.8491896,0 79.7935169,23.8491905,0 79.7934925,23.8492092,0 79.7934476,23.8492293,0 79.7935111,23.8491158,0 79.7934637,23.849159,0 79.7934398,23.8491745,0 79.7934821,23.8491675,0 79.7934288,23.8491994,0 79.7934521,23.8491287,0 79.7933856,23.8492472,0 79.7932793,23.8492394,0 79.7932607,23.8492398,0 79.7932312,23.8493255,0 79.7932594,23.8493689,0 79.7932845,23.8493929,0 79.7933037,23.8494117,0 79.7933079,23.8494386,0 79.7933308,23.84946,0 79.7933528,23.8494786,0 79.7933806,23.849494,0 79.7934085,23.8495131,0 79.7934367,23.8495245,0 79.793462,23.8495414,0 79.793492,23.8495556,0 79.7935155,23.8495719,0 79.793545,23.8495898,0 79.7935676,23.8496014,0 79.7936236,23.8496247,0 79.793648,23.8496416,0 79.7937048,23.8496641,0 79.7937318,23.8496679,0 79.7937648,23.8496725,0 79.7937937,23.849672,0 79.7938291,23.8496774,0 79.7938905,23.8497158,0 79.7939154,23.8497333,0 79.7939417,23.8497478,0 79.7939674,23.849762,0 79.7940009,23.8497746,0 79.7940273,23.8497852,0 79.7940636,23.8497982,0 79.7940921,23.8498034,0 79.7941247,23.8498015,0 79.7941554,23.849801,0 79.7941929,23.8497912,0 79.794223,23.8497897,0 79.7942622,23.8497812,0 79.7943244,23.8497709,0 79.7943799,23.8498054,0 79.7944085,23.8498091,0 79.7944615,23.849799,0 79.7944908,23.8497925,0 79.7945203,23.8497883,0 79.7945606,23.8497843,0 79.7945902,23.8497813,0 79.7946173,23.8497986,0 79.7946433,23.849818,0 79.7946666,23.849832,0 79.794696,23.8498437,0 79.7947179,23.8498637,0 79.7947607,23.8498918,0 79.794781,23.8498925,0 79.7948094,23.8498994,0 79.7948719,23.849901,0 79.7948996,23.8499102,0 79.794921,23.8499253,0 79.7949441,23.8499464,0 79.7949704,23.8499565,0 79.7950268,23.8499721,0 79.7950569,23.8499963,0 79.7950853,23.8500116,0 79.7951452,23.8500378,0 79.7952065,23.850061,0 79.7952687,23.8500947,0 79.7952955,23.8501185,0 79.7953376,23.8501558,0 79.7953629,23.8501779,0 79.7953827,23.8501919,0 79.7954083,23.8502206,0 79.795433,23.850233,0 79.795467,23.8502539,0 79.7954939,23.850267,0 79.7955208,23.8502887,0 79.7955482,23.850301,0 79.7955784,23.8503189,0 79.7956045,23.8503332,0 79.7956608,23.8503543,0 79.7956862,23.8503774,0 79.7957108,23.8503929,0 79.7957382,23.8504088,0 79.7957556,23.8504299,0 79.7957803,23.8504436,0 79.7958021,23.8504581,0 79.7958247,23.8504703,0 79.7958437,23.8505247,0 79.7958968,23.8505562,0 79.7959254,23.8505689,0 79.7959561,23.8505817,0 79.7959887,23.8506112,0 79.7960367,23.8506732,0 79.7960792,23.8507239,0 79.7960994,23.8507463,0 79.796127,23.8507676,0 79.7961558,23.8507787,0 79.7962495,23.8507937,0 79.796306,23.8507577,0 79.796352,23.850719,0 79.7963973,23.8506658,0 79.7964202,23.8506472,0 79.7964455,23.8506268,0 79.7964716,23.8506073,0 79.7964974,23.8505916,0 79.79653,23.8505707,0 79.7965598,23.8505633,0 79.7965964,23.8505515,0 79.7966211,23.8505445,0 79.7966798,23.8505225,0 79.79671,23.8505073,0 79.7967494,23.8504519,0 79.7967754,23.8504415,0 79.7968024,23.8504243,0 79.7968294,23.8504078,0 79.7968677,23.8503874,0 79.7968775,23.8503559,0 79.7968731,23.8503236,0 79.7968646,23.8502923,0 79.7968642,23.8502597,0 79.7968739,23.8501845,0 79.7968691,23.8501573,0 79.7968322,23.850086,0 79.7968232,23.8500546,0 79.7968157,23.850017,0 79.7968269,23.8499912,0 79.7968244,23.8499385,0 79.7968186,23.8499071,0 79.796823,23.8498723,0 79.7968787,23.8498397,0 79.7968983,23.8498355,0 79.7969222,23.8498247,0 79.7969453,23.8498117,0 79.7969773,23.8498057,0 79.7970079,23.849804,0 79.7970443,23.8498105,0 79.7970732,23.8498064,0 79.7971119,23.8498003,0 79.7971397,23.8497867,0 79.7972214,23.8497529,0 79.7972701,23.8497303,0 79.797325,23.849705,0 79.7973574,23.8497017,0 79.7973892,23.849702,0 79.7974466,23.8497008,0 79.7975092,23.8497064,0 79.7975428,23.8497019,0 79.7976028,23.8496942,0 79.7976172,23.8496779,0 79.7976155,23.8496486,0 79.797601,23.8496176,0 79.7975879,23.8495907,0 79.7975682,23.8495701,0 79.7975419,23.8495503,0 79.7975164,23.8495335,0 79.7974916,23.8495164,0 79.7974647,23.8494996,0 79.7974394,23.8494828,0 79.7974083,23.8494714,0 79.7973808,23.8494643,0 79.7973214,23.8494418,0 79.7972935,23.8494281,0 79.7972622,23.8494221,0 79.797234,23.8494188,0 79.7972043,23.8494214,0 79.7971795,23.8494178,0 79.7971486,23.8494153,0 79.7971255,23.8494147,0 79.7970939,23.8494189,0 79.7970667,23.8494028,0 79.7970108,23.8493689,0 79.7969548,23.8493467,0 79.7968612,23.8493104,0 79.7968372,23.8492905,0 79.7968102,23.8492819,0 79.796754,23.8492571,0 79.7967072,23.8492134,0 79.7966158,23.8491611,0 79.7965713,23.8491169,0 79.7965197,23.8490864,0 79.7964752,23.8490501,0 79.7964294,23.8490364,0 79.7963725,23.8490089,0 79.7963339,23.8489481,0 79.7963153,23.8489237,0 79.7963112,23.848897,0 79.7962858,23.8488762,0 79.7962736,23.8488511,0 79.7962333,23.8487996,0 79.7961781,23.8487552,0 79.7961271,23.8487328,0 79.7960999,23.8487063,0 79.7960746,23.8486995,0 79.7960524,23.8486772,0 79.7960322,23.8486559,0 79.7960034,23.8486013,0 79.7959875,23.8485737,0 79.7959668,23.8485494,0 79.7959492,23.848528,0 79.7959353,23.8485003,0 79.7959276,23.8484451,0 79.7959245,23.8484096,0 79.7958966,23.8483296,0 79.7958804,23.8483058,0 79.7958598,23.8482683,0 79.7958393,23.8482421,0 79.7957906,23.8481925,0 79.7957458,23.8481422,0 79.7957303,23.8480876,0 79.7957213,23.8480627,0 79.7956911,23.8479988,0 79.7956671,23.8479307,0 79.7956778,23.8478954,0 79.7956193,23.8478211,0 79.7955528,23.8477996,0 79.7954872,23.8478035,0 79.7953901,23.8479048,0 79.7953483,23.8479521,0 79.7952987,23.8479961,0 79.7952589,23.8480519,0 79.7951855,23.8481,0 79.7951478,23.848104,0 79.7951228,23.8480971,0 79.7950424,23.8481,0 79.7949628,23.8481422,0 79.7948928,23.8481772,0 79.7948224,23.84821,0 79.7947484,23.8482544,0 79.7946944,23.8483205,0 79.7946769,23.8483272,0 79.7946493,23.8483398,0 79.794599,23.8483212,0 79.794558,23.8483021,0 79.7945156,23.8482924,0 79.7944416,23.8483089,0 79.7943663,23.8483212,0 79.7943001,23.8483891,0 79.7942316,23.8485088,0 79.7941824,23.8486152,0 79.7941362,23.8487009,0 79.7941031,23.8487759,0 79.7941105,23.8488296,0 79.7941231,23.8488553,0 79.794143,23.8488673,0 79.794166,23.8488697,0 79.7941963,23.8488806,0</coordinates></LinearRing></outerBoundaryIs><innerBoundaryIs><LinearRing><coordinates>79.7951640813651,23.8490854984303,0 79.7950977318436,23.8490228450453,0 79.7951651770075,23.8489669913353,0 79.7951813325207,23.8489786240679,0 79.7952220329882,23.8490416521371,0 79.7951640813651,23.8490854984303,0</coordinates></LinearRing></innerBoundaryIs><innerBoundaryIs><LinearRing><coordinates>79.7953292807595,23.8489429607358,0 79.7952758477719,23.8489039965067,0 79.7953501462325,23.8488510729011,0 79.7953954908253,23.8488853713045,0 79.7953292807595,23.8489429607358,0</coordinates></LinearRing></innerBoundaryIs></Polygon>
  </Placemark>
  
    </Document>
</kml>