<?xml version="1.0" encoding="UTF-8"?>
<kml xmlns="http://www.opengis.net/kml/2.2">
    <Document>
        <Placemark xmlns:ns0="http://www.opengis.net/kml/2.2">
	<Style><LineStyle><color>ff0000ff</color></LineStyle><PolyStyle><fill>0</fill></PolyStyle></Style>
	<ExtendedData><SchemaData schemaUrl="#Wave24_v28MAR2025">
		<SimpleData name="area(ha)">6.253523277087424</SimpleData>
		<SimpleData name="site_id">240039_1.1</SimpleData>
		<SimpleData name="Land_parc">240039</SimpleData>
		<SimpleData name="district">Chhatarpur</SimpleData>
		<SimpleData name="block">Nowgong</SimpleData>
		<SimpleData name="village">Alipura</SimpleData>
		<SimpleData name="Land Type">Farmer</SimpleData>
		<SimpleData name="Instance">Wave 2024</SimpleData>
	</SchemaData></ExtendedData>
      <Polygon><outerBoundaryIs><LinearRing><coordinates>79.3425556129721,25.1636967382189,0 79.342606439226,25.1638043702861,0 79.3426233813106,25.1638811079636,0 79.3426522825139,25.1639887400307,0 79.3426743,25.1640948,0 79.3426992,25.1642379,0 79.3427458,25.1644676,0 79.3427884,25.1646226,0 79.3428214,25.1647851,0 79.3429958,25.1647659,0 79.3432103,25.1647263,0 79.3434138,25.1646673,0 79.3434709,25.1646638,0 79.3436423,25.1646247,0 79.3438521,25.1645729,0 79.3441118,25.1644797,0 79.3443156,25.1644428,0 79.3445591,25.1643698,0 79.3448685,25.1643319,0 79.3449952731609,25.1643096430458,0 79.3449593958052,25.1640345833186,0 79.3448631,25.1638539,0 79.3448637228567,25.1636479051514,0 79.3446723769595,25.1633369680685,0 79.3445996256549,25.1631097448156,0 79.3445517891806,25.1629622490199,0 79.3445218913841,25.1628008009192,0 79.3444541230456,25.1625855367849,0 79.3443783819613,25.1624061500063,0 79.3443385182327,25.1622506814648,0 79.3442727430805,25.1620633219405,0 79.3442348725384,25.1619975467884,0 79.3442109543012,25.1619397443819,0 79.3441730837591,25.1618540373655,0 79.3441770701319,25.1617165075019,0 79.3440993358612,25.1617603576033,0 79.3439837310483,25.1618002213319,0 79.3438462011847,25.1618480578062,0 79.3436688075926,25.1619078533991,0 79.343419659289,25.1620174786527,0 79.3432901021711,25.1620792674319,0 79.3431047358332,25.1621570017027,0 79.3428974444446,25.1622148041091,0 79.342718057666,25.1622666269562,0 79.3425725550567,25.1623104770577,0 79.3424270524474,25.1623144634305,0 79.3422791,25.1623293,0 79.3421240881102,25.1623523339727,0 79.3421978360081,25.1626692506149,0 79.3422117883131,25.1627968145463,0 79.3422795566517,25.1629562694606,0 79.3422953,25.1630296,0 79.342301,25.163145,0 79.3423256,25.1632824,0 79.3425027935317,25.1635552219825,0 79.3425556129721,25.1636967382189,0</coordinates></LinearRing></outerBoundaryIs></Polygon>
  </Placemark>
  
    </Document>
</kml>