<?xml version="1.0" encoding="UTF-8"?>
<kml xmlns="http://www.opengis.net/kml/2.2">
    <Document>
        <Placemark xmlns:ns0="http://www.opengis.net/kml/2.2">
	<Style><LineStyle><color>ff0000ff</color></LineStyle><PolyStyle><fill>0</fill></PolyStyle></Style>
	<ExtendedData><SchemaData schemaUrl="#Wave24_v28MAR2025">
		<SimpleData name="area(ha)">139.457361334551393</SimpleData>
		<SimpleData name="site_id">240068_1.1</SimpleData>
		<SimpleData name="Land_parc">240068</SimpleData>
		<SimpleData name="district">Damoh</SimpleData>
		<SimpleData name="block">Batyagarh</SimpleData>
		<SimpleData name="village">Bari Madiyadoh (GP Bari Kanora</SimpleData>
		<SimpleData name="Land Type">Community</SimpleData>
		<SimpleData name="Instance">Wave 2024</SimpleData>
	</SchemaData></ExtendedData>
      <Polygon><outerBoundaryIs><LinearRing><coordinates>79.5065269,24.2347393,0 79.5065648,24.234529,0 79.5066361,24.2343987,0 79.5066575,24.2343754,0 79.5066714,24.2343473,0 79.5066933,24.2343068,0 79.5067123,24.2342763,0 79.5067405,24.2342182,0 79.5067729,24.2341709,0 79.506869,24.2338928,0 79.5069348,24.2336588,0 79.5072176,24.2334786,0 79.5074321,24.2334036,0 79.5076496,24.2333703,0 79.5078148,24.23324,0 79.5079981,24.2329658,0 79.5081399,24.2328053,0 79.5082817,24.2326412,0 79.508777,24.2324916,0 79.5090119,24.2324098,0 79.5091746,24.2324089,0 79.5094178,24.2324316,0 79.5095732,24.232465,0 79.5097334,24.2325478,0 79.5104151,24.232901,0 79.5108584,24.2329716,0 79.5110186,24.2329736,0 79.5113457,24.2328185,0 79.5124273,24.232388,0 79.5121839,24.2326427,0 79.5123588,24.2326693,0 79.5126107,24.2324706,0 79.5126644,24.2323929,0 79.512712,24.2324922,0 79.5127972,24.2327977,0 79.5131584,24.233435,0 79.5133364,24.2338553,0 79.5135226,24.2339634,0 79.5136982,24.2340864,0 79.513903,24.2342206,0 79.5142279,24.2345534,0 79.5143422,24.2350023,0 79.5144936,24.2351224,0 79.5146355,24.23514,0 79.5148158,24.235249,0 79.515041,24.2353442,0 79.5152737,24.235396,0 79.5157115,24.2355801,0 79.5159306,24.2356645,0 79.5163209,24.2357013,0 79.5165659,24.2356928,0 79.5170535,24.2357412,0 79.5172472,24.2358603,0 79.5174865,24.2359853,0 79.517918,24.2364884,0 79.5178682,24.2363791,0 79.5177138,24.2361436,0 79.5176945,24.2359791,0 79.5177489,24.235742,0 79.517907,24.2356022,0 79.518192,24.2355885,0 79.5184848,24.2355833,0 79.5187017,24.2355245,0 79.518881,24.235427,0 79.5191675,24.2352529,0 79.5193234,24.2351268,0 79.5193327,24.2349537,0 79.519343,24.234834,0 79.5193912,24.2346317,0 79.5194962,24.2344135,0 79.5196601,24.2341481,0 79.5197807,24.2339496,0 79.5198866,24.2337131,0 79.5199202,24.2335145,0 79.5198848,24.2333029,0 79.5198708,24.2330522,0 79.5198831,24.2328433,0 79.5199063,24.2325499,0 79.5198965,24.232325,0 79.5197527,24.2320753,0 79.5196295,24.2318907,0 79.5195211,24.2316857,0 79.5193467,24.2314356,0 79.5192749,24.2312609,0 79.5192008,24.2311047,0 79.5189037,24.2309936,0 79.5186406,24.2310129,0 79.5184391,24.2310119,0 79.5182794,24.2309617,0 79.5180361,24.2309492,0 79.517827,24.2309968,0 79.517659,24.2309804,0 79.5175361,24.2308329,0 79.5174511,24.2308545,0 79.5173918,24.2309068,0 79.5173975,24.2306685,0 79.5174936,24.2303642,0 79.5175967,24.2301898,0 79.5176322,24.2299952,0 79.5175976,24.2296365,0 79.5174464,24.2295156,0 79.5173745,24.2293614,0 79.5172224,24.2290852,0 79.5172061,24.2289336,0 79.517137,24.2287097,0 79.5170509,24.2285551,0 79.5169263,24.2284764,0 79.5167856,24.2284114,0 79.5166143,24.228467,0 79.5166946,24.2281634,0 79.5168061,24.2277429,0 79.5166987,24.2274663,0 79.5164609,24.2272702,0 79.5162985,24.2272312,0 79.516169,24.2272018,0 79.5160244,24.2270648,0 79.5159612,24.2270065,0 79.5158845,24.2269723,0 79.5157822,24.2268778,0 79.5156836,24.2266757,0 79.5154671,24.2264197,0 79.5154674,24.2264179,0 79.5154608,24.2264062,0 79.5154607,24.2264047,0 79.5154617,24.2264048,0 79.5154524,24.2264019,0 79.5154432,24.2263766,0 79.5154412,24.2263494,0 79.5154538,24.2263269,0 79.5154578,24.2263202,0 79.5154591,24.2262796,0 79.5154605949786,24.2258993771386,0 79.5154884,24.2258007,0 79.5155038,24.2257365,0 79.5154948,24.2256944,0 79.5154992,24.2256571,0 79.5155012,24.2256233,0 79.5155291,24.2256161,0 79.5155592,24.2256122,0 79.5155598,24.2255888,0 79.5155534,24.2255911,0 79.5155932,24.2255687,0 79.515628,24.2255607,0 79.5156477,24.225396,0 79.5155206,24.2250922,0 79.5154645,24.2249078,0 79.5155298,24.2247616,0 79.5155812,24.2246146,0 79.5155859,24.2244295,0 79.5156148,24.2243162,0 79.5156612,24.2242146,0 79.5158246,24.2240641,0 79.5158647,24.2238791,0 79.5158637,24.2237122,0 79.5158653,24.2235967,0 79.5158739,24.2234208,0 79.5158828,24.2233186,0 79.5158662,24.2232205,0 79.5155711,24.2232723,0 79.515458,24.2231857,0 79.5152816,24.2231177,0 79.5150884,24.2230004,0 79.5150342,24.222682,0 79.5150683,24.2224946,0 79.5152543,24.2225432,0 79.515259,24.2225203,0 79.5152455,24.2225089,0 79.5152556,24.2224973,0 79.5153041,24.2224728,0 79.5153443,24.2224448,0 79.5153718,24.2224261,0 79.5154099,24.222377,0 79.5154413,24.2223522,0 79.515468,24.2223208,0 79.5154823,24.2222934,0 79.5155149,24.2222272,0 79.5155427,24.2221851,0 79.5155419,24.2221577,0 79.5155526,24.2220699,0 79.5155613,24.2217442,0 79.5155604,24.2217122,0 79.5155608,24.2216573,0 79.5155611,24.2216276,0 79.5155443,24.2215568,0 79.5155345,24.2215257,0 79.5155251,24.2214932,0 79.515526,24.2214654,0 79.515505,24.2213742,0 79.5154869,24.2213517,0 79.5154694,24.2213286,0 79.5154361,24.2212711,0 79.5154176,24.2212531,0 79.5153764,24.2212105,0 79.5153494,24.2211812,0 79.5153026,24.2211287,0 79.5152877,24.2210906,0 79.5152665,24.2210705,0 79.5152484,24.2210369,0 79.5152207,24.2210145,0 79.5151987,24.2209839,0 79.5151478,24.2209398,0 79.5151228,24.2209217,0 79.5150926,24.2208988,0 79.515067,24.2208797,0 79.5150371,24.2208582,0 79.5149608,24.2208307,0 79.5149339,24.2208108,0 79.514902,24.2207899,0 79.5148854,24.2207707,0 79.5148353,24.2207457,0 79.5147937,24.2207223,0 79.5147177,24.2206985,0 79.5146896,24.2207038,0 79.5146173,24.2206894,0 79.5145809,24.2206695,0 79.5145471,24.2206576,0 79.514449,24.2206477,0 79.5144219,24.2206528,0 79.5143913,24.2206589,0 79.5143352,24.2206743,0 79.5142829,24.2206926,0 79.5142606,24.2207028,0 79.5142363,24.220717,0 79.514216,24.2207278,0 79.5141958,24.220738,0 79.5141444,24.220788,0 79.5141225,24.2208095,0 79.5140861241334,24.2208265511891,0 79.5140746,24.2207961,0 79.514056,24.2207766,0 79.5140149,24.2207534,0 79.5140043,24.2207271,0 79.5139676,24.2207001,0 79.5138974,24.2206851,0 79.5138682,24.2206849,0 79.513813,24.2206899,0 79.5137883,24.2206955,0 79.513753,24.2207024,0 79.5137054,24.2207211,0 79.5136948,24.2207952,0 79.513691,24.2207932,0 79.5136873,24.2208069,0 79.5136039,24.2207911,0 79.5135662,24.2207078,0 79.5135027,24.2206039,0 79.5135111,24.2208196,0 79.513497,24.2208566,0 79.5134766,24.2208794,0 79.5134283,24.220914,0 79.5133957,24.2209341,0 79.5133686,24.2209424,0 79.5133357,24.2209471,0 79.5132521,24.220968,0 79.5132325,24.2209779,0 79.5131901,24.2209982,0 79.5131217,24.2210506,0 79.5130862,24.2210492,0 79.5130543,24.2210708,0 79.5130161,24.2210857,0 79.51299,24.2210862,0 79.5129528,24.2210889,0 79.5128994,24.2211179,0 79.5128227,24.2211679,0 79.5127731,24.2212226,0 79.5127574,24.2212632,0 79.5127326,24.2212911,0 79.5127016,24.221303,0 79.5126816,24.2213244,0 79.5126546,24.2213395,0 79.5126165,24.221349,0 79.5125824,24.2213295,0 79.5125408,24.2212493,0 79.5125267,24.221196,0 79.5124441,24.2211522,0 79.5122999,24.2211138,0 79.512143,24.2211185,0 79.5119979,24.2211478,0 79.5117266,24.2212486,0 79.5116115,24.2213785,0 79.5115605,24.221528,0 79.5113236,24.221766,0 79.5111099,24.2219058,0 79.5110258,24.2220563,0 79.5109666,24.2222725,0 79.5109395,24.2224074,0 79.5108242,24.2225199,0 79.5106919,24.2225762,0 79.510551,24.2226978,0 79.5103375,24.2229178,0 79.5101846,24.2231447,0 79.5100996,24.2233024,0 79.5100296,24.2231749,0 79.50987,24.2232856,0 79.5098448,24.223439,0 79.5097189,24.2238302,0 79.5096195,24.2239705,0 79.509471,24.2241026,0 79.5092955,24.2240485,0 79.5091756,24.224236,0 79.5091084,24.2243154,0 79.5090531,24.2243585,0 79.5089235,24.2245743,0 79.5088915,24.2246694,0 79.5088408,24.2248639,0 79.5087625,24.2250206,0 79.508527,24.2252641,0 79.5083947,24.2256121,0 79.5082922,24.2257728,0 79.5081723,24.2259854,0 79.5081401,24.2260531,0 79.5081396,24.2260315,0 79.5079366,24.2258812,0 79.5078529,24.2262584,0 79.50782,24.2264352,0 79.5078416,24.2266271,0 79.5078151,24.2267821,0 79.5077361,24.2269138,0 79.5076128,24.2270389,0 79.5076061,24.227307,0 79.5076238,24.2274132,0 79.5075664,24.2275666,0 79.5074397,24.227668,0 79.5072995,24.2277428,0 79.5071218,24.2278677,0 79.5070123,24.2280585,0 79.5069417,24.2282994,0 79.5068038,24.2285024,0 79.5066455,24.2288502,0 79.5065871,24.2290235,0 79.5065186,24.2292065,0 79.5063514,24.2294702,0 79.5061648,24.2296898,0 79.506003,24.2298829,0 79.5058979,24.2300465,0 79.5057632,24.2303151,0 79.5057342,24.2304169,0 79.5057046,24.2305906,0 79.5057218,24.2307151,0 79.5056797,24.2308462,0 79.5055535,24.2309652,0 79.5054208,24.2310699,0 79.5052791,24.2311724,0 79.5051698,24.2312907,0 79.505074,24.2314265,0 79.5049925,24.2315837,0 79.5048876,24.231716,0 79.5046928,24.2318818,0 79.5045292,24.2321003,0 79.5044823,24.2323473,0 79.5044434,24.2324722,0 79.5043253,24.2326724,0 79.5042202,24.2329734,0 79.5043274,24.2331441,0 79.5044986,24.233263,0 79.5047392,24.2333438,0 79.5049702,24.2333843,0 79.5052042,24.2335264,0 79.5054762,24.2337833,0 79.5057179,24.2339935,0 79.5059548,24.2342344,0 79.5062555,24.2345369,0 79.506279,24.2345552,0 79.5064496,24.2346858,0 79.5065075,24.2347395,0 79.5065123,24.2347391,0 79.5065269,24.2347393,0</coordinates></LinearRing></outerBoundaryIs><innerBoundaryIs><LinearRing><coordinates>79.5142171616153,24.221216244393,0 79.5142511,24.2213067,0 79.5142292,24.2213277,0 79.5141844,24.2213581,0 79.5141805,24.2213558,0 79.5141705,24.2213535,0 79.5141514,24.221342,0 79.5142141,24.2212541,0 79.5142171,24.2212204,0 79.5142171616153,24.221216244393,0</coordinates></LinearRing></innerBoundaryIs></Polygon>
  </Placemark>
  
    </Document>
</kml>