<?xml version="1.0" encoding="UTF-8"?>
<kml xmlns="http://www.opengis.net/kml/2.2">
    <Document>
        <Placemark xmlns:ns0="http://www.opengis.net/kml/2.2">
	<Style><LineStyle><color>ff0000ff</color></LineStyle><PolyStyle><fill>0</fill></PolyStyle></Style>
	<ExtendedData><SchemaData schemaUrl="#Wave24_v28MAR2025">
		<SimpleData name="area(ha)">2.733755381581204</SimpleData>
		<SimpleData name="site_id">240046_1.1</SimpleData>
		<SimpleData name="Land_parc">240046</SimpleData>
		<SimpleData name="district">Chhatarpur</SimpleData>
		<SimpleData name="block">Bijawar</SimpleData>
		<SimpleData name="village">Gulat</SimpleData>
		<SimpleData name="Land Type">Farmer</SimpleData>
		<SimpleData name="Instance">Wave 2024</SimpleData>
	</SchemaData></ExtendedData>
      <MultiGeometry><Polygon><outerBoundaryIs><LinearRing><coordinates>79.4761997750769,24.5875053489236,0 79.4761996437934,24.587505,0 79.4761994416667,24.587505,0 79.4761995,24.5875092,0 79.4761997750769,24.5875053489236,0</coordinates></LinearRing></outerBoundaryIs></Polygon><Polygon><outerBoundaryIs><LinearRing><coordinates>79.4761997750769,24.5875053489236,0 79.4762428,24.5876197,0 79.4763385072832,24.5877190454964,0 79.4763283,24.5877294,0 79.4763298,24.5877663,0 79.4763443,24.5877972,0 79.4763029,24.5878303,0 79.4762707,24.5878359,0 79.4762602,24.5878552,0 79.4762384,24.5878668,0 79.4762343,24.587904,0 79.4762149,24.5879203,0 79.4761893,24.5879577,0 79.4761986,24.5879657,0 79.476235,24.5880392,0 79.4762353,24.5880498,0 79.4762291,24.5880888,0 79.4763175,24.5883667,0 79.4763526,24.5883864,0 79.4763623,24.5884037,0 79.4764017,24.5884222,0 79.4764351,24.5884092,0 79.4764433,24.5883791,0 79.4764476,24.5883639,0 79.4764528,24.5883461,0 79.4764482,24.5883323,0 79.4764464651837,24.5883256992354,0 79.4764571,24.5883293,0 79.4764921,24.5883288,0 79.4765449,24.5883157,0 79.4765682,24.5883159,0 79.4766295,24.5883008,0 79.4766382,24.5882964,0 79.4769612,24.5882604,0 79.4769423,24.5882779,0 79.4769294,24.5883033,0 79.4769192,24.5883246,0 79.4769162,24.5883376,0 79.4769287374792,24.5883323342587,0 79.4769326,24.5883352,0 79.4769116,24.5883488,0 79.4769388,24.5883705,0 79.4769373,24.5883912,0 79.4769918,24.5884315,0 79.4770332,24.5884424,0 79.4770417,24.5884574,0 79.4770723,24.5884605,0 79.4770981,24.5884591,0 79.4771141,24.588455,0 79.4771539,24.5883315,0 79.4771813086698,24.5881873521519,0 79.4772139241561,24.5881618336851,0 79.477247706927,24.5881510975071,0 79.4772824,24.5881329,0 79.4773433,24.5881404,0 79.4773589,24.5881647,0 79.4773972,24.5881562,0 79.4774513,24.5881724,0 79.4774813,24.5881747,0 79.4774725,24.5882019,0 79.4774679,24.5882208,0 79.4774837,24.5882295,0 79.4775083,24.5882313,0 79.4775201,24.5882064,0 79.4775765272549,24.5882319679855,0 79.4776093064052,24.5881929114679,0 79.4776246477029,24.5881487551194,0 79.4776222683664,24.5881228826992,0 79.4776212945176,24.5880921009934,0 79.4776229381495,24.5880675001263,0 79.4776193170522,24.5880329990291,0 79.4776118069482,24.5879861498636,0 79.4776149602532,24.5879480246437,0 79.477612908369,24.5878950762979,0 79.4776108267172,24.5878445893995,0 79.4775910989061,24.5878062328109,0 79.4776050346719,24.5877669857459,0 79.477605347236,24.5877411405443,0 79.477588088072,24.5877212720335,0 79.4776446029528,24.5877230743652,0 79.4776815,24.5877009,0 79.4778737152712,24.5877004656369,0 79.4779433635381,24.5878128716207,0 79.4780125033326,24.5878003386708,0 79.4780004,24.5876699,0 79.4780172,24.5876513,0 79.4780184,24.5876171,0 79.4780441,24.5875999,0 79.478071,24.5875719,0 79.4780901,24.587517,0 79.4780755187695,24.5873454969552,0 79.4780852,24.5873586,0 79.4781128,24.5873736,0 79.4781318,24.5873424,0 79.4781611,24.5873509,0 79.4781543,24.5873222,0 79.4781873,24.5873341,0 79.4782173,24.5873408,0 79.478244,24.587332,0 79.4782356,24.5873115,0 79.4782454,24.5872919,0 79.4782258,24.5872629,0 79.4782267,24.5872356,0 79.4782052,24.5871997,0 79.4782207,24.587168,0 79.4781855,24.5871252,0 79.4781975,24.5871084,0 79.4782077,24.5870874,0 79.4782217,24.5870632,0 79.4782384,24.5870397,0 79.4782629,24.5870059,0 79.4782727,24.5869705,0 79.4782642,24.586943,0 79.4782573,24.5868996,0 79.4782408,24.5868766,0 79.4782136,24.5868365,0 79.4781795,24.5868232,0 79.4781108,24.5868036,0 79.4781125,24.5867975,0 79.4780297,24.5868046,0 79.4780399,24.5868044,0 79.477682,24.587014,0 79.4777046,24.5869993,0 79.4777233,24.5869676,0 79.4777343,24.5869443,0 79.4777393,24.5869199,0 79.4777507,24.5868938,0 79.4777165,24.586872,0 79.477734,24.586845,0 79.4777161,24.5868389,0 79.4777172,24.5868138,0 79.4776162,24.5868442,0 79.4776205,24.5868179,0 79.4775947,24.5868048,0 79.4775742,24.5867897,0 79.4775409,24.5867654,0 79.4775164,24.5867552,0 79.4774818,24.5867231,0 79.4774405,24.586697,0 79.4774116836817,24.5866692445787,0 79.4773875461571,24.5866616152353,0 79.4773573370416,24.5866551553605,0 79.4773304704384,24.586650575595,0 79.4773089503624,24.5866491270823,0 79.4772822400699,24.5866316247075,0 79.4772231380305,24.5866211799713,0 79.4771967806487,24.5866301449511,0 79.4771913,24.5866628,0 79.4769916768132,24.586903455702,0 79.4769894,24.5868806,0 79.4769797,24.5868526,0 79.4769599,24.5868548,0 79.4769418,24.5868332,0 79.4769253,24.5868208,0 79.4769034,24.5868178,0 79.4768765,24.5868097,0 79.476845,24.5868037,0 79.4768094,24.5868348,0 79.4767823,24.5868357,0 79.4767399,24.586854,0 79.4767033,24.5868494,0 79.476656,24.5868521,0 79.4766315,24.5868369,0 79.4766052,24.5868296,0 79.4765896,24.5868317,0 79.4765218,24.5868228,0 79.4765044,24.5868272,0 79.4765215,24.5868435,0 79.4765385,24.586874,0 79.4765522,24.5868815,0 79.4765595,24.5869023,0 79.4765894,24.5869532,0 79.4765977,24.5869629,0 79.4765965,24.5869665,0 79.4766035,24.5869653,0 79.4766152,24.586985,0 79.4766174,24.5869953,0 79.4765989,24.586995,0 79.4765892,24.5869962,0 79.4765863,24.5869948,0 79.4765849,24.5869877,0 79.476585,24.5869723,0 79.4764133,24.5871811,0 79.4764397,24.587125,0 79.4764111,24.5871374,0 79.4764031,24.5871123,0 79.4764045,24.5871093,0 79.4763862,24.5870873,0 79.4763692,24.5870974,0 79.4763253,24.5871151,0 79.4763116,24.5871397,0 79.4763279,24.587181,0 79.4763142,24.5872037,0 79.4763166,24.5872356,0 79.4762702,24.5872694,0 79.4762663,24.5872787,0 79.4762678,24.5872792,0 79.4761979,24.5873761,0 79.4761842,24.587452,0 79.4761904,24.587505,0 79.4761994416667,24.587505,0 79.4761994339194,24.5875044421998,0 79.4761996437934,24.587505,0 79.4761998,24.587505,0 79.4761997750769,24.5875053489236,0</coordinates></LinearRing></outerBoundaryIs><innerBoundaryIs><LinearRing><coordinates>79.476193,24.58749,0 79.476194,24.58749,0 79.4761984385076,24.5875017966074,0 79.4761942,24.5875009,0 79.476192,24.5874922,0 79.476193,24.58749,0</coordinates></LinearRing></innerBoundaryIs><innerBoundaryIs><LinearRing><coordinates>79.4764071,24.5883019,0 79.4764102,24.5882955,0 79.4764178591796,24.588304477271,0 79.4764065,24.5883047,0 79.4764072,24.5883033,0 79.4764071,24.5883019,0</coordinates></LinearRing></innerBoundaryIs></Polygon></MultiGeometry>
  </Placemark>
  
    </Document>
</kml>