<?xml version="1.0" encoding="UTF-8"?>
<kml xmlns="http://www.opengis.net/kml/2.2">
    <Document>
        <Placemark xmlns:ns0="http://www.opengis.net/kml/2.2">
	<Style><LineStyle><color>ff0000ff</color></LineStyle><PolyStyle><fill>0</fill></PolyStyle></Style>
	<ExtendedData><SchemaData schemaUrl="#Wave24_v28MAR2025">
		<SimpleData name="area(ha)">1.028694153641385</SimpleData>
		<SimpleData name="site_id">240078_1.1</SimpleData>
		<SimpleData name="Land_parc">240078</SimpleData>
		<SimpleData name="district">Chhatarpur</SimpleData>
		<SimpleData name="block">Bijawar</SimpleData>
		<SimpleData name="village">Gulat</SimpleData>
		<SimpleData name="Land Type">Farmer</SimpleData>
		<SimpleData name="Instance">Wave 2024</SimpleData>
	</SchemaData></ExtendedData>
      <Polygon><outerBoundaryIs><LinearRing><coordinates>79.4745825607137,24.5900390383398,0 79.4746517655003,24.5900541768869,0 79.4747555726802,24.5900206558183,0 79.4747999069967,24.5899514510317,0 79.4748561358858,24.5898963034674,0 79.4749036286646,24.5898248409366,0 79.4749383165699,24.5897557312445,0 79.4747836871248,24.589768707142,0 79.4747663859265,24.5897016650052,0 79.4748107202445,24.5896138073657,0 79.474849647937,24.5894937803139,0 79.474904795501,24.5894202502275,0 79.4749473726613,24.5894487701718,0 79.4749922476438,24.5894287656609,0 79.4749933289686,24.5893806467077,0 79.4750117114901,24.5893163078826,0 79.4749814343959,24.5892362898481,0 79.4747889585831,24.5888664767696,0 79.4746678502065,24.5885269407852,0 79.4746116213174,24.5884123203574,0 79.4745475,24.5884185,0 79.474375892513,24.5884242149301,0 79.474179091401,24.5884015071095,0 79.474039600503,24.588414483007,0 79.474063183666,24.5885071002572,0 79.4741395341682,24.5886407136361,0 79.4742331576406,24.5889378442058,0 79.4742850612306,24.5890319194626,0 79.4743147234528,24.5891527174828,0 79.4743781903282,24.5892994121828,0 79.4743284493878,24.589515677141,0 79.4742765457978,24.5898162854328,0 79.4742797897722,24.59001200522,0 79.4743775680869,24.5900071630654,0 79.4745010762522,24.5900060402639,0 79.4745825607137,24.5900390383398,0</coordinates></LinearRing></outerBoundaryIs><innerBoundaryIs><LinearRing><coordinates>79.4745145498702,24.589350324186,0 79.4745021990537,24.5892919385079,0 79.4746043739905,24.5892896929049,0 79.4746111107995,24.5893637978041,0 79.4745145498702,24.589350324186,0</coordinates></LinearRing></innerBoundaryIs></Polygon>
  </Placemark>
  
    </Document>
</kml>