<?xml version="1.0" encoding="UTF-8"?>
<kml xmlns="http://www.opengis.net/kml/2.2">
    <Document>
        <Placemark xmlns:ns0="http://www.opengis.net/kml/2.2">
	<Style><LineStyle><color>ff0000ff</color></LineStyle><PolyStyle><fill>0</fill></PolyStyle></Style>
	<ExtendedData><SchemaData schemaUrl="#Wave24_v28MAR2025">
		<SimpleData name="area(ha)">50.941516050763845</SimpleData>
		<SimpleData name="site_id">240026_1.2</SimpleData>
		<SimpleData name="Land_parc">240026</SimpleData>
		<SimpleData name="district">Damoh</SimpleData>
		<SimpleData name="block">Damoh</SimpleData>
		<SimpleData name="village">Halgaj</SimpleData>
		<SimpleData name="Land Type">Community</SimpleData>
		<SimpleData name="Instance">Wave 2024</SimpleData>
	</SchemaData></ExtendedData>
      <Polygon><outerBoundaryIs><LinearRing><coordinates>79.5779148505002,23.7901126567293,0 79.5776932794158,23.7903575508217,0 79.5768444867481,23.7902261248603,0 79.5766966325415,23.7902863617592,0 79.5763352111476,23.7902535052689,0 79.5762202134313,23.7902096966151,0 79.5761344401533,23.7899250855208,0 79.5760187,23.7904773,0 79.5756253,23.7909519,0 79.5756297180543,23.7909869045132,0 79.576006646244,23.7916088354962,0 79.5761928330227,23.7918059744384,0 79.5763844958831,23.7921947762409,0 79.5764611610273,23.7924357238369,0 79.5763735437196,23.7926492910242,0 79.5756578438179,23.7924448056864,0 79.5756368,23.7925601,0 79.5755048,23.7932339,0 79.5758383,23.793781,0 79.5764385,23.7938734,0 79.5775387,23.7942432,0 79.5781182,23.7946898,0 79.5782451,23.7948156,0 79.5786449,23.7952466,0 79.5791127,23.796269,0 79.5795512,23.7965888,0 79.5797441,23.7966425,0 79.5803549688393,23.7978095389655,0 79.5803825,23.7978,0 79.5807738,23.79761,0 79.5808495,23.7975328,0 79.5808662,23.7973124,0 79.5808219,23.7970306,0 79.5808335,23.7969692,0 79.5809259,23.7965379,0 79.5810117,23.7965685,0 79.5809296,23.796475,0 79.5808062,23.7964837,0 79.5800793,23.7963521,0 79.5800628,23.7963328,0 79.5800354,23.7963101,0 79.5800111,23.7962957,0 79.580014,23.7962582,0 79.5800089,23.7961615,0 79.5800723,23.7960748,0 79.5801356,23.7960352,0 79.5801558,23.7960067,0 79.5801558,23.7959846,0 79.5801652,23.7959577,0 79.5801417,23.7959238,0 79.5801165,23.7958273,0 79.5801001,23.7958152,0 79.5801177,23.7957653,0 79.5801276,23.7957381,0 79.5801394,23.7957158,0 79.5801877,23.7956897,0 79.5802123,23.7956736,0 79.5802362,23.7956529,0 79.5802588,23.7956329,0 79.5802801,23.7956166,0 79.5802989,23.795596,0 79.580307,23.795571,0 79.5803145,23.7955417,0 79.5803387,23.7955138,0 79.5803736,23.7954771,0 79.5803918,23.7954562,0 79.5804021,23.7954351,0 79.5804135,23.7954054,0 79.5804218,23.7953923,0 79.5804352,23.795348,0 79.5804395,23.7953235,0 79.5804389,23.7952933,0 79.5804339,23.7952693,0 79.5804588,23.7952407,0 79.5804968,23.795198,0 79.5805223,23.7951761,0 79.5805582,23.7951372,0 79.580574,23.7951113,0 79.5806025,23.7950894,0 79.5806367,23.7950743,0 79.5806661,23.7950551,0 79.5807039,23.7950496,0 79.580735,23.7950315,0 79.5807655,23.7950215,0 79.5807782,23.7949974,0 79.580721,23.7949119,0 79.5806827,23.794867,0 79.5806903,23.7947549,0 79.5807037,23.7947324,0 79.5807393,23.7947096,0 79.5808051,23.7947352,0 79.580846,23.794745,0 79.5809165,23.7947746,0 79.5809506,23.7947727,0 79.58101,23.7947506,0 79.5810619,23.7947072,0 79.5811445,23.7946446,0 79.581147,23.794601,0 79.5811527,23.7945659,0 79.5811833,23.7945016,0 79.5812428,23.7944569,0 79.5812898,23.7944535,0 79.5813154,23.7944962,0 79.5814206,23.7944906,0 79.5815279,23.7944107,0 79.5815781,23.7943804,0 79.5816373,23.7943786,0 79.5816972,23.7943861,0 79.5817474,23.7944216,0 79.5817739,23.7944403,0 79.5818003,23.794465,0 79.5818551,23.7945096,0 79.5819315,23.79453,0 79.5819553,23.7945351,0 79.5819855,23.7945514,0 79.5820227,23.794538,0 79.5821354,23.7945085,0 79.5821145,23.7945229,0 79.5821172,23.7945756,0 79.582114,23.7946002,0 79.5821249,23.7946423,0 79.5821504,23.7946591,0 79.5821782,23.7946622,0 79.5822109,23.7946543,0 79.5822142,23.7945962,0 79.5821902,23.7945468,0 79.5821987,23.7944908,0 79.5821829,23.7944445,0 79.5822374,23.7943572,0 79.58212,23.7942508,0 79.5821075,23.7942431,0 79.5820909,23.7942221,0 79.5821123,23.7941944,0 79.5821708,23.7941403,0 79.5822073,23.7941475,0 79.5822569,23.7941608,0 79.5823429,23.7941573,0 79.5824264,23.7941255,0 79.5824636,23.7941187,0 79.5825439,23.7940883,0 79.5826113,23.7940437,0 79.5826411,23.7940177,0 79.5826741,23.7939978,0 79.582706,23.7939782,0 79.5827685,23.7939373,0 79.5827992,23.7939153,0 79.5828329,23.7938955,0 79.58287,23.7938767,0 79.5828987,23.7938832,0 79.5829201,23.7938617,0 79.58295,23.7938416,0 79.5830562,23.7937537,0 79.5830748,23.7937354,0 79.5831094,23.793736,0 79.583185,23.793739,0 79.5832129,23.7937463,0 79.5832293,23.7937783,0 79.583275,23.7937803,0 79.5833214,23.7937173,0 79.5833819,23.7936569,0 79.5834669,23.793667,0 79.5834993,23.7936785,0 79.5835233,23.7937027,0 79.5835667,23.7937503,0 79.5835817,23.7937786,0 79.583594,23.7938368,0 79.5836125,23.7938639,0 79.5835894,23.7938873,0 79.5835869,23.7939646,0 79.5835942,23.7940047,0 79.5835901,23.7940342,0 79.5835834,23.7940648,0 79.58355,23.794114,0 79.5835474,23.7941397,0 79.5835312,23.7941667,0 79.5835125,23.7941928,0 79.5834901,23.794226,0 79.5834201,23.7942643,0 79.5833908,23.7942763,0 79.5833648,23.7942926,0 79.5833556,23.7943324,0 79.5833599,23.7943609,0 79.583378,23.7944225,0 79.5833913,23.7944479,0 79.5834057,23.7944767,0 79.5834286,23.7945009,0 79.5834366,23.7945353,0 79.5834121,23.7945529,0 79.58339,23.7945777,0 79.5834037,23.7946278,0 79.5834404,23.7946515,0 79.5834662,23.7946709,0 79.5835112,23.7946664,0 79.5835409,23.7946737,0 79.5835576,23.7947016,0 79.5835634,23.7947233,0 79.5835905,23.7947365,0 79.5836621,23.7947465,0 79.5836913,23.7947493,0 79.5837188,23.7947459,0 79.5837938,23.7947641,0 79.5838555,23.7947863,0 79.5838837,23.7947943,0 79.5839117,23.7948517,0 79.5839231,23.7949165,0 79.5839151,23.7949508,0 79.5839077,23.7949863,0 79.5839262,23.7950159,0 79.5839347,23.795053,0 79.5839535,23.7951411,0 79.5840045,23.7951477,0 79.584022,23.7951905,0 79.5840196,23.7952854,0 79.5840095,23.7953187,0 79.5839997,23.7953798,0 79.5840003,23.7954087,0 79.583998,23.795442,0 79.5839413,23.795483,0 79.5838718,23.7955188,0 79.5838368,23.7955409,0 79.5838174,23.7955706,0 79.5838068,23.7956007,0 79.5837975,23.7956402,0 79.5838323,23.7957038,0 79.5839192,23.7957449,0 79.5839179,23.7957465,0 79.5840188,23.7958503,0 79.5840009,23.7958543,0 79.5839931,23.7958665,0 79.5839901,23.7959245,0 79.584004,23.7959498,0 79.5840402,23.7959619,0 79.584073,23.7959801,0 79.5841146,23.7959803,0 79.5841795,23.7959935,0 79.5842767,23.7960031,0 79.5843333,23.7960223,0 79.5843674,23.7960216,0 79.5844279,23.7960371,0 79.5844996,23.7960789,0 79.5845066,23.7960727,0 79.5845665,23.7961068,0 79.5846029,23.7961794,0 79.5846459,23.7962208,0 79.5846911,23.7962589,0 79.5847378,23.7963039,0 79.5847861,23.7963471,0 79.5848402,23.7963801,0 79.5848833,23.7964245,0 79.5849192,23.7964748,0 79.5849448,23.7965339,0 79.5849835,23.7965859,0 79.5850374,23.7966312,0 79.5850845,23.7966734,0 79.5851215,23.7967242,0 79.5851599,23.7967744,0 79.5851994,23.7968228,0 79.5852385,23.7968789,0 79.5852892,23.7969078,0 79.5853177,23.7969542,0 79.5853841,23.7970411,0 79.5854185,23.7970863,0 79.5854566,23.7971255,0 79.5854913,23.797173,0 79.5855334,23.7972249,0 79.585585,23.7972329,0 79.5855802,23.7972547,0 79.5856148,23.7973387,0 79.5856801,23.7974067,0 79.5857843,23.7974693,0 79.5859497,23.7975706,0 79.5860349,23.7976906,0 79.5861168,23.7978045,0 79.5864883,23.7980976,0 79.5867869,23.7987084,0 79.5868923,23.7988178,0 79.5870208,23.798942,0 79.5873968,23.7992888,0 79.5875997,23.7994427,0 79.587718,23.7995331,0 79.5882589,23.7997739,0 79.5884396,23.7998101,0 79.5887967,23.7998857,0 79.5893888,23.7999852,0 79.589816,23.8000241,0 79.5898458,23.7999924,0 79.5896676,23.7999306,0 79.5896194,23.7998377,0 79.5895993,23.7997654,0 79.5896054,23.7997121,0 79.5896090639471,23.7996785776185,0 79.5896164,23.7996857,0 79.5896309,23.7997437,0 79.5896685,23.7997505,0 79.589731,23.7997383,0 79.5898728,23.7996507,0 79.589938,23.7996502,0 79.5899855,23.79967,0 79.5900177,23.7996868,0 79.5900514,23.7997022,0 79.5900834,23.7997094,0 79.5901597,23.7997059,0 79.5901915,23.7997109,0 79.590265,23.7997132,0 79.5903394,23.7997071,0 79.5904141,23.7997073,0 79.5905179,23.7996956,0 79.5905828,23.7996683,0 79.5906891,23.7996412,0 79.5907235,23.7996334,0 79.5907868,23.7996124,0 79.5908112,23.7995961,0 79.5909373,23.7995698,0 79.5911509,23.7995176,0 79.5911447,23.7992979,0 79.5911644,23.799182,0 79.5911263,23.7990485,0 79.5911191,23.798978,0 79.5911162,23.7988208,0 79.5909688,23.7986974,0 79.5908688,23.7986978,0 79.5907193,23.7986756,0 79.5906011,23.7987372,0 79.590472,23.7988062,0 79.5903365,23.7988516,0 79.5900774,23.7988501,0 79.5900795,23.7988201,0 79.5900522,23.798757,0 79.5900353,23.7986495,0 79.5900215,23.7985888,0 79.5900023,23.7985571,0 79.5899794,23.7985048,0 79.589978,23.7984424,0 79.5899873,23.7983552,0 79.5900043,23.7982777,0 79.5900068,23.7982278,0 79.5900245,23.798174,0 79.5900483,23.798157,0 79.5901141,23.7981539,0 79.5902183,23.7981398,0 79.5902539,23.7981333,0 79.5902833,23.798137,0 79.5903157,23.7981286,0 79.5903423,23.7981212,0 79.5903661,23.7981014,0 79.5904238,23.7980302,0 79.5904605,23.7979794,0 79.5904879,23.7979236,0 79.5904967,23.7978538,0 79.5904931,23.7977917,0 79.5904721,23.7977359,0 79.5903968,23.7976024,0 79.5903793599553,23.7975150015942,0 79.5903571,23.7974603,0 79.5903481,23.797428,0 79.590354,23.7973949,0 79.5903549,23.7973279,0 79.5903476,23.7972965,0 79.5903387,23.7972317,0 79.5903279,23.797202,0 79.5903123,23.7971758,0 79.5902345,23.7971115,0 79.5902005,23.797039,0 79.590143,23.7969737,0 79.5901179,23.7969671,0 79.5900894,23.7969085,0 79.5900742,23.7968797,0 79.5900459,23.7968274,0 79.5900174,23.7967842,0 79.5899766,23.7967406,0 79.5899335,23.796689,0 79.5898929,23.7966387,0 79.5898845,23.7966111,0 79.5898643,23.7965852,0 79.5898228,23.7965018,0 79.5898158,23.7964668,0 79.5897878,23.7963771,0 79.58973,23.7962995,0 79.589677,23.7962457,0 79.5896631,23.7962441,0 79.5895975,23.7962234,0 79.5895314,23.7961636,0 79.5896011,23.7961261,0 79.5896594,23.7960675,0 79.5896822,23.7960442,0 79.5896888,23.7960045,0 79.5896836,23.7959429,0 79.5897026,23.7958801,0 79.5897457,23.7957974,0 79.589781,23.7957227,0 79.5897975,23.7955842,0 79.5898046,23.7955013,0 79.589796,23.7953698,0 79.5897959,23.7953221,0 79.5898048,23.7952917,0 79.5898214,23.7952637,0 79.5898476,23.7951526,0 79.5897343,23.7950631,0 79.5896846,23.7950247,0 79.5896634,23.7949995,0 79.5894815,23.794878,0 79.5894355,23.7948392,0 79.5893341,23.7948045,0 79.5892327,23.7947637,0 79.5892312,23.7947724,0 79.5891502,23.7947439,0 79.5891375,23.7947087,0 79.5891238,23.7946894,0 79.5890933,23.7946815,0 79.5890923,23.7946799,0 79.5890434,23.7947006,0 79.5890189,23.7946924,0 79.5889966,23.7946686,0 79.5889642,23.7946573,0 79.588944,23.7946168,0 79.5888588,23.7946033,0 79.588792,23.7946105,0 79.5887582,23.7945656,0 79.5887569277077,23.7945688963936,0 79.5887438,23.7945309,0 79.5886542,23.7946338,0 79.5886556,23.7946725,0 79.5886373,23.7946945,0 79.5885655,23.7947454,0 79.5885438970864,23.7947604108532,0 79.5885270226014,23.7948568364702,0 79.5885263380911,23.794916388859,0 79.58845925609,23.7950601360043,0 79.588488005519,23.7951121587807,0 79.5885153859277,23.795125848985,0 79.5885756228267,23.7952353706195,0 79.5885783608675,23.795325725968,0 79.5885619326224,23.7953613204993,0 79.5885605636019,23.7954023911122,0 79.5885167549481,23.7954913774403,0 79.5885167549481,23.795557090421,0 79.588529076132,23.7955680425844,0 79.5885318141729,23.7956228034017,0 79.5885126478868,23.7956857783415,0 79.5884852674782,23.7957460152405,0 79.5884236615588,23.7958062521395,0 79.5882730693113,23.7959089286719,0 79.5882894975564,23.7959294639784,0 79.5883072948221,23.7960588364092,0 79.5883182469855,23.7960506222866,0 79.5883209850264,23.7960622589602,0 79.5882059873101,23.7962511837798,0 79.5881258996149,23.7962881473315,0 79.5880447851543,23.7962953346887,0 79.5880194582763,23.7962330442591,0 79.5879674354999,23.7962494725043,0 79.5878805027025,23.7962049793402,0 79.5878592828858,23.7962481034838,0 79.5878291644363,23.7962611091779,0 79.5878373785589,23.7962823289946,0 79.5877566063534,23.7963329827506,0 79.5876908933727,23.7963261376484,0 79.5876333945146,23.796365839241,0 79.5875868478199,23.7963726843431,0 79.5875272954311,23.7964206000582,0 79.5875293489618,23.796429498691,0 79.5875218193494,23.7964329212421,0 79.5875060756145,23.79639458867,0 79.587330156489,23.7963678927716,0 79.587260336447,23.796309024893,0 79.586994061973,23.796178967952,0 79.5869803717687,23.7961782834418,0 79.5869701041155,23.7961420044004,0 79.5868249879497,23.7960790294605,0 79.5868181428476,23.7960906661342,0 79.5867928159696,23.7960721843583,0 79.5867250494582,23.7960680772971,0 79.5866867168861,23.7960961422159,0 79.5865114822709,23.7959510260502,0 79.5864163353509,23.7958093324355,0 79.5863858746463,23.7957662082919,0 79.5863793717993,23.7957391701383,0 79.5863208461758,23.795649157045,0 79.5863006531244,23.7955495608085,0 79.5862007146329,23.7953873318874,0 79.5861144663457,23.7953647430503,0 79.586074080243,23.7953462612745,0 79.5860282180585,23.7953825403159,0 79.5859419697713,23.7952579594566,0 79.5858379242185,23.7951155813317,0 79.5857941155647,23.7950348091263,0 79.5857174504205,23.7949827863499,0 79.5855764413161,23.7949225494509,0 79.5854545984977,23.7948636815723,0 79.5851780563705,23.7946227339763,0 79.5851000222059,23.7945460688322,0 79.5850302021639,23.794459820545,0 79.5850124048983,23.7943612510739,0 79.584957644081,23.7943229185018,0 79.5849465185751,23.7942042464474,0 79.5848516,23.794204,0 79.5847916,23.7942269,0 79.5846035,23.7942058,0 79.5844968,23.7941361,0 79.5844154,23.7939601,0 79.5843609,23.7939529,0 79.5842954,23.7939186,0 79.5841855,23.7939131,0 79.5839788,23.7937174,0 79.5838352,23.7936041,0 79.5838561,23.7935264,0 79.5838259,23.793452,0 79.5838217,23.7934229,0 79.5837947,23.7934057,0 79.5837707,23.7933956,0 79.583628,23.7933374,0 79.5836055,23.7933237,0 79.5835776,23.7933113,0 79.5835199,23.7932736,0 79.5834309,23.7932409,0 79.5833347,23.79324,0 79.5832368,23.7931677,0 79.5831784,23.7931575,0 79.5829893,23.7928854,0 79.5829673,23.7928501,0 79.5829636,23.7927412,0 79.5824141,23.7925669,0 79.5822921,23.7923785,0 79.5822775,23.7923772,0 79.5822838,23.7923823,0 79.5817679,23.7925621,0 79.5817477,23.7925784,0 79.5815651,23.792557,0 79.5812457,23.7928411,0 79.580762,23.7927311,0 79.5801659,23.7922194,0 79.5794118,23.7921032,0 79.578392,23.7903662,0 79.5782451,23.7903167,0 79.5781829,23.790244,0 79.5779148505002,23.7901126567293,0</coordinates></LinearRing></outerBoundaryIs><innerBoundaryIs><LinearRing><coordinates>79.5895882,23.7995399,0 79.5895781,23.7995172,0 79.5895591,23.7994634,0 79.5895294,23.7994188,0 79.5895244,23.7994051,0 79.5895153,23.7993622,0 79.5895001,23.7993438,0 79.5895051,23.799294,0 79.5895084,23.7992776,0 79.5895067,23.7992298,0 79.5895246,23.7992321,0 79.5895473,23.7992364,0 79.5895667,23.799256,0 79.5895809,23.7992908,0 79.5895996,23.7993134,0 79.5896282,23.7993707,0 79.5896144,23.799429,0 79.5896066,23.7994559,0 79.5896129,23.7994974,0 79.5896169,23.7995271,0 79.5896153,23.7995809,0 79.5896165,23.7996017,0 79.5896073,23.7996332,0 79.5896069807544,23.7996445066155,0 79.5896012,23.7996374,0 79.5895882,23.7995399,0</coordinates></LinearRing></innerBoundaryIs><innerBoundaryIs><LinearRing><coordinates>79.5773646193765,23.7925893351666,0 79.5774142805338,23.7925691393661,0 79.5774142805338,23.792543894611,0 79.5773425477511,23.7924681603164,0 79.5771494210284,23.7920238515658,0 79.5771549389348,23.7919380190185,0 79.5772156359048,23.7918168435611,0 79.577386691002,23.7919430679934,0 79.5774363521592,23.7919935577321,0 79.5775467102865,23.7920289005375,0 79.5776018893501,23.79218541856,0 79.5775577460992,23.7922813488677,0 79.5776018893501,23.7923217405551,0 79.5777950160727,23.7924176707622,0 79.5778722667618,23.7926953630678,0 79.5777343191028,23.7927912929991,0 79.5776018893501,23.7927256567379,0 79.5775025670356,23.7927509014577,0 79.5775522281928,23.7928619781663,0 79.5777619086346,23.7930386909161,0 79.5778722667618,23.7931497673787,0 79.5778888204809,23.7932557948227,0 79.5777894981664,23.7932911372848,0 79.5775080849419,23.7932507458987,0 79.5771604568411,23.7930134462523,0 79.5773646193765,23.7925893351666,0</coordinates></LinearRing></innerBoundaryIs></Polygon>
  </Placemark>
  
    </Document>
</kml>