<?xml version="1.0" encoding="UTF-8"?>
<kml xmlns="http://www.opengis.net/kml/2.2">
    <Document>
        <Placemark xmlns:ns0="http://www.opengis.net/kml/2.2">
	<Style><LineStyle><color>ff0000ff</color></LineStyle><PolyStyle><fill>0</fill></PolyStyle></Style>
	<ExtendedData><SchemaData schemaUrl="#Wave24_v28MAR2025">
		<SimpleData name="area(ha)">37.880839912228303</SimpleData>
		<SimpleData name="site_id">240065_1.1</SimpleData>
		<SimpleData name="Land_parc">240065</SimpleData>
		<SimpleData name="district">Damoh</SimpleData>
		<SimpleData name="block">Damoh</SimpleData>
		<SimpleData name="village">Mudari (GP Mudari Jujhar)</SimpleData>
		<SimpleData name="Land Type">Community</SimpleData>
		<SimpleData name="Instance">Wave 2024</SimpleData>
	</SchemaData></ExtendedData>
      <MultiGeometry><Polygon><outerBoundaryIs><LinearRing><coordinates>79.5828117,23.7906526,0 79.5821015,23.7907074,0 79.5819874,23.7906743,0 79.5818056,23.7906754,0 79.58162,23.7906269,0 79.5814319,23.7905599,0 79.5812536,23.7904893,0 79.5810902,23.7904164,0 79.5809284,23.790321,0 79.5807607,23.7902269,0 79.5805925,23.7901418,0 79.5804025,23.7900764,0 79.5802324,23.790033,0 79.5800762,23.7899868,0 79.5799134,23.7899106,0 79.5797275,23.7898295,0 79.5793653,23.7897234,0 79.5783076,23.7891833,0 79.5773821,23.789095,0 79.5771742,23.7890436,0 79.5759541,23.7887809,0 79.5759517,23.7887927,0 79.5761746,23.7894006,0 79.576086,23.7895979,0 79.5761173,23.7897314,0 79.5762333,23.7901304,0 79.5763237,23.7902096,0 79.5766076,23.7902294,0 79.576756,23.7902083,0 79.5769426,23.790208,0 79.5773454,23.7902448,0 79.5775002,23.7902659,0 79.5776495,23.7903071,0 79.5780766,23.7898961,0 79.5786933,23.7897871,0 79.578815,23.7898978,0 79.5789499,23.790053,0 79.5790869,23.7902089,0 79.5792796,23.7904227,0 79.5792756,23.7904521,0 79.5793559,23.7905356,0 79.5793698,23.7905722,0 79.579423,23.7907021,0 79.579492,23.790791,0 79.5799873,23.7911976,0 79.5808582,23.7916937,0 79.581205,23.7918576,0 79.581431,23.7919141,0 79.5816518,23.7919235,0 79.5818587,23.7918553,0 79.5824463,23.7913892,0 79.5827462,23.7914615,0 79.5829152,23.7917155,0 79.5831684,23.7919123,0 79.5831706,23.7919143,0 79.5831483,23.7919271,0 79.5830777,23.7919471,0 79.5830579,23.7919657,0 79.5830698,23.7920254,0 79.5830475,23.7920891,0 79.5830807,23.7921544,0 79.5831325,23.7922006,0 79.5831664,23.7922119,0 79.5832368,23.7922628,0 79.58327,23.7923448,0 79.5832972,23.7923834,0 79.5834085,23.7923095,0 79.5834385,23.7922552,0 79.5834678,23.7922597,0 79.5834969,23.7922684,0 79.5835283,23.7922858,0 79.5835979,23.7923433,0 79.5836558,23.7923158,0 79.5836666,23.7923025,0 79.5837108,23.7922816,0 79.5837621,23.7923141,0 79.5837779,23.7923402,0 79.583794,23.7923621,0 79.5836893,23.7925516,0 79.5837056,23.7926174,0 79.5837082,23.792648,0 79.5837211,23.7926774,0 79.5837434,23.7927205,0 79.5837515,23.7927728,0 79.5838011,23.7928391,0 79.583823,23.7928599,0 79.583847,23.7928801,0 79.5838632,23.7928948,0 79.5838866,23.7929105,0 79.5839035,23.7929219,0 79.5839118,23.7929478,0 79.5839204,23.7929659,0 79.5839425,23.792986,0 79.5839721,23.7929822,0 79.5839985,23.7929788,0 79.5840037,23.7929751,0 79.58406,23.7929779,0 79.5840816,23.792966,0 79.5840801,23.7929657,0 79.5841624,23.7929623,0 79.5841873,23.7929621,0 79.5842146,23.792946,0 79.5842537,23.7929107,0 79.5842959,23.7928972,0 79.5843073,23.7929045,0 79.5843771,23.7928385,0 79.5844099,23.7928233,0 79.5844129,23.7928287,0 79.5844164,23.7928256,0 79.5844176,23.7928235,0 79.58443,23.7927669,0 79.5844862,23.7928142,0 79.5844953,23.7928097,0 79.5846153,23.7927928,0 79.5846179,23.792793,0 79.5846451,23.7928544,0 79.5847079,23.7928898,0 79.5847872,23.7929666,0 79.5847813,23.7929767,0 79.584807,23.7932664,0 79.5849583,23.793487,0 79.5850138,23.7935617,0 79.5850397,23.7936975,0 79.5850455,23.7937232,0 79.5850279,23.7937647,0 79.5850227,23.7937929,0 79.5849544,23.79394,0 79.5849596,23.7940307,0 79.58495,23.7940771,0 79.5849584,23.7941876,0 79.5849666,23.7943085,0 79.5850205,23.7943586,0 79.5850413,23.7944441,0 79.585108,23.794537,0 79.5851708,23.7945965,0 79.5853686,23.7947592,0 79.5854776,23.7948638,0 79.5855599,23.7949004,0 79.5855852,23.7949189,0 79.585732,23.7949747,0 79.5858053,23.7950315,0 79.5858459,23.7951098,0 79.5860297,23.7953662,0 79.5860732,23.7953368,0 79.586117,23.7953605,0 79.5861777,23.7953765,0 79.5862023,23.7953798,0 79.5863072,23.7955477,0 79.5863228,23.7956448,0 79.5863813,23.795738,0 79.5863884,23.7957637,0 79.5865094,23.795914,0 79.5866337,23.7960314,0 79.5866944,23.7960744,0 79.5867214,23.7960628,0 79.5867729,23.7960669,0 79.5867988,23.7960631,0 79.5868147063663,23.7960788296289,0 79.5868184,23.7960738,0 79.5868213,23.7960712,0 79.5869737,23.7961371,0 79.5869822,23.7961698,0 79.5870008,23.7961735,0 79.5870677,23.7961997,0 79.5871473,23.7962411,0 79.5872635,23.7963045,0 79.5873315,23.7963605,0 79.5875124,23.7963891,0 79.5875218,23.7964247,0 79.5875224,23.7964175,0 79.5875843,23.7963667,0 79.5876258,23.7963544,0 79.5876869,23.7963177,0 79.5877558,23.7963246,0 79.5878061,23.7962902,0 79.5878268,23.7962733,0 79.5878197,23.7962601,0 79.5878541,23.7962435,0 79.5878797,23.796197,0 79.5879692,23.7962408,0 79.588023,23.7962259,0 79.5880475,23.7962905,0 79.5881258,23.7962847,0 79.5882009,23.7962471,0 79.5882925,23.7960994,0 79.5883113,23.796065,0 79.5883114,23.7960609,0 79.5883019,23.796069,0 79.5882818,23.7959338,0 79.5882632,23.7959089,0 79.5883202,23.7958599,0 79.5883954,23.7958175,0 79.5884307,23.7957875,0 79.5884911,23.7957176,0 79.5885165,23.795631,0 79.5885143,23.7955849,0 79.5885074,23.7955776,0 79.5885048,23.7954913,0 79.5885223,23.7954652,0 79.5885367,23.7954222,0 79.5885478,23.7954028,0 79.5885539,23.7953573,0 79.5885629,23.7953478,0 79.5885702,23.7952966,0 79.5885607,23.7952366,0 79.5885228,23.7951601,0 79.5884741,23.7951178,0 79.5884438,23.7950575,0 79.588478,23.7949933,0 79.5885122,23.7949115,0 79.5885118,23.7948658,0 79.5885438,23.7947269,0 79.5885401,23.7946652,0 79.5885322,23.7946371,0 79.5885378,23.7946135,0 79.5885517,23.7945541,0 79.5885519,23.7944672,0 79.5885716,23.7943941,0 79.5886706,23.7943854,0 79.5886304,23.7943969,0 79.5888143,23.7944079,0 79.588846,23.7943717,0 79.5889329834657,23.7943197141507,0 79.5889137,23.7943021,0 79.58892,23.7943002,0 79.5890235,23.7942659,0 79.5891942,23.7941387,0 79.5892286,23.7941478,0 79.5892305,23.7941024,0 79.5892965,23.7941119,0 79.5891794,23.7939774,0 79.5893073,23.7938952,0 79.5892663,23.793859,0 79.5892531,23.7938551,0 79.5892655024058,23.793846358821,0 79.5893303,23.7938605,0 79.5894447,23.7938456,0 79.589508,23.7937843,0 79.589535,23.7937786,0 79.5895633,23.7937688,0 79.5896526,23.7937695,0 79.5896814,23.7937517,0 79.5897513,23.7937265,0 79.5896715,23.7936088,0 79.5896596,23.7935889,0 79.5896709,23.7934608,0 79.5896552,23.7934246,0 79.5896453,23.7933985,0 79.589599,23.7933215,0 79.589618,23.7932592,0 79.589645,23.7932065,0 79.589632,23.7931816,0 79.5896151,23.7931574,0 79.5895938,23.7931334,0 79.5895864,23.7931127,0 79.5895716,23.7930928,0 79.589561,23.7930724,0 79.5895493,23.7930462,0 79.5895381,23.7930186,0 79.5895207,23.7929996,0 79.5895011,23.7929966,0 79.5894651,23.7929745,0 79.5894774,23.7930079,0 79.5894203,23.7929775,0 79.5893809,23.7929579,0 79.5893919,23.7928845,0 79.5893775,23.7928604,0 79.5893537,23.7928422,0 79.5893212,23.7928301,0 79.5893179,23.792788,0 79.5893009,23.7926988,0 79.5892703,23.7926529,0 79.589247,23.792632,0 79.5891965,23.7925691,0 79.5892258,23.7925035,0 79.5892252,23.7924725,0 79.5892209,23.792446,0 79.5892177,23.7924191,0 79.5892562,23.7923416,0 79.5893273,23.7922861,0 79.5893513,23.792268,0 79.5894176,23.7921505,0 79.5894289,23.7921186,0 79.5895224,23.792111,0 79.5895514,23.7920561,0 79.589548,23.7920276,0 79.589593,23.7920323,0 79.5896076,23.7920091,0 79.5896143,23.7919438,0 79.5896303,23.7918711,0 79.58963,23.7918475,0 79.5895965,23.7916612,0 79.5896637,23.7916216,0 79.5896468,23.7915427,0 79.5896342,23.7915016,0 79.5895519,23.7914342,0 79.5895279,23.7914268,0 79.5895033,23.7914174,0 79.5894719,23.7914133,0 79.5894312,23.7913809,0 79.5894152,23.7914084,0 79.5893451,23.7913744,0 79.5893176,23.7913621,0 79.5893144,23.791329,0 79.5892837,23.7913365,0 79.5893265,23.7911175,0 79.5893146,23.7910995,0 79.5892748,23.7910342,0 79.5891981,23.7909649,0 79.5891772,23.7909624,0 79.5891981,23.7908983,0 79.5891997,23.7908756,0 79.5891874,23.7908477,0 79.5891126,23.7908039,0 79.5890683,23.7907817,0 79.5890636,23.7907689,0 79.5890038,23.7907667,0 79.5889241,23.7908174,0 79.5888984,23.7908361,0 79.5887927,23.790848,0 79.5887065,23.7908874,0 79.5886101,23.7908601,0 79.5885835,23.7908106,0 79.5885193,23.7907941,0 79.5885014,23.7908152,0 79.5884496,23.7908254,0 79.5884249,23.7908241,0 79.5883947,23.7907959,0 79.588297,23.7907644,0 79.5882582,23.7907234,0 79.5882325,23.7907188,0 79.5882338,23.7906825,0 79.5882348,23.7906594,0 79.5882289,23.7906331,0 79.5881884,23.7906065,0 79.5881037,23.790568,0 79.5880803,23.7905675,0 79.5879957,23.7904984,0 79.5879858,23.7904726,0 79.5879535,23.7904317,0 79.5879394,23.7904053,0 79.5878583,23.7903578,0 79.5878009,23.7903718,0 79.5876544,23.7904172,0 79.5876359,23.7904095,0 79.5875542,23.7903943,0 79.5875203,23.7903886,0 79.5874301,23.7904076,0 79.5874098,23.7904189,0 79.5872898,23.7904253,0 79.5872655,23.7904396,0 79.5870342,23.790451,0 79.5868999,23.7904781,0 79.5868781,23.7904613,0 79.5867411,23.7904939,0 79.5863893,23.7903919,0 79.5863619,23.7903841,0 79.5863412,23.7903657,0 79.5862289,23.7903719,0 79.5862019,23.7903871,0 79.5860325,23.7904813,0 79.5860087,23.7904975,0 79.5858594,23.7905458,0 79.5858368,23.7905745,0 79.5856293,23.7905731,0 79.5856036,23.7905851,0 79.5854941,23.7906948,0 79.5853639,23.7908994,0 79.5852081,23.7910171,0 79.5851884,23.791042,0 79.5849598,23.7912371,0 79.5849232,23.7912521,0 79.5847985,23.7912065,0 79.5848549,23.7910085,0 79.5848793,23.7907283,0 79.5851054,23.7905259,0 79.5851393,23.7904527,0 79.5851238,23.7902814,0 79.5851438,23.7902285,0 79.5851598,23.7902113,0 79.5852239,23.79013,0 79.585372,23.7900453,0 79.5853195,23.7900143,0 79.5852884,23.7900575,0 79.585283,23.7900571,0 79.5852786,23.7900332,0 79.5852754,23.7900336,0 79.585258,23.7900255,0 79.5852291,23.7900135,0 79.5852321,23.7900101,0 79.5852215,23.7900074,0 79.5849788,23.7899887,0 79.5849571,23.7899165,0 79.5848767,23.7898315,0 79.5847043,23.7898972,0 79.5846884,23.7899103,0 79.5844004,23.7900267,0 79.5843892,23.7900367,0 79.5840985,23.7902297,0 79.5840436,23.7902195,0 79.5836789,23.7904012,0 79.5832262,23.7905722,0 79.5830877,23.7906214,0 79.583064,23.7906237,0 79.5828091,23.7906565,0 79.5828117,23.7906526,0</coordinates></LinearRing></outerBoundaryIs></Polygon><Polygon><outerBoundaryIs><LinearRing><coordinates>79.5889792,23.7943361,0 79.5889397,23.7943157,0 79.5889329834657,23.7943197141507,0 79.5889472,23.7943327,0 79.5889792,23.7943361,0</coordinates></LinearRing></outerBoundaryIs></Polygon><Polygon><outerBoundaryIs><LinearRing><coordinates>79.5868168,23.7960809,0 79.5868147063663,23.7960788296289,0 79.5868137,23.7960802,0 79.5868168,23.7960809,0</coordinates></LinearRing></outerBoundaryIs></Polygon></MultiGeometry>
  </Placemark>
  
    </Document>
</kml>