<?xml version="1.0" encoding="UTF-8"?>
<kml xmlns="http://www.opengis.net/kml/2.2">
    <Document>
        <Placemark xmlns:ns0="http://www.opengis.net/kml/2.2">
	<Style><LineStyle><color>ff0000ff</color></LineStyle><PolyStyle><fill>0</fill></PolyStyle></Style>
	<ExtendedData><SchemaData schemaUrl="#Wave24_v28MAR2025">
		<SimpleData name="area(ha)">50.804670129514705</SimpleData>
		<SimpleData name="site_id">240025_1.3</SimpleData>
		<SimpleData name="Land_parc">240025</SimpleData>
		<SimpleData name="district">Damoh</SimpleData>
		<SimpleData name="block">Damoh</SimpleData>
		<SimpleData name="village">Pathari</SimpleData>
		<SimpleData name="Land Type">Community</SimpleData>
		<SimpleData name="Instance">Wave 2024</SimpleData>
	</SchemaData></ExtendedData>
      <Polygon><outerBoundaryIs><LinearRing><coordinates>79.5365935425111,23.5621087376006,0 79.5366254870077,23.5620824341501,0 79.5376306,23.5604632,0 79.5382941,23.5602973,0 79.5386993,23.5601748,0 79.5392029,23.5598976,0 79.5391471,23.5594199,0 79.5386987,23.5594684,0 79.5385134,23.5591759,0 79.5385056,23.5590017,0 79.5385114,23.5589573,0 79.538304,23.5587136,0 79.5364889,23.5579833,0 79.5364489709363,23.558018250519,0 79.5355277,23.5577151,0 79.5342043,23.5576786,0 79.5354574,23.5570209,0 79.5377679,23.555151,0 79.5378925,23.5550431,0 79.5378919,23.5550393,0 79.5375146,23.5545261,0 79.5359951,23.5547363,0 79.5359046,23.5547651,0 79.5354649,23.5547821,0 79.5343996,23.5549931,0 79.5336306,23.5551022,0 79.533156,23.5551588,0 79.5324352,23.5552808,0 79.5318243,23.5555951,0 79.5315753,23.5556636,0 79.531159,23.555963,0 79.530635,23.5564198,0 79.5305722,23.5569729,0 79.5299019,23.5573461,0 79.5297151,23.5582163,0 79.5302649,23.5588752,0 79.5308876,23.558775,0 79.5312309,23.5588154,0 79.5314399,23.5594909,0 79.5322574,23.5596619,0 79.5329929,23.5593266,0 79.5335274,23.5602261,0 79.5321607,23.560823,0 79.5324208,23.5613495,0 79.5319835,23.5628175,0 79.5320616579603,23.5635212984791,0 79.5319588,23.5636914,0 79.5320871638276,23.5637509730484,0 79.5321085,23.5639431,0 79.5328486,23.5637704,0 79.5328686776463,23.5637541708801,0 79.5329135,23.5637439,0 79.5341339,23.5630384,0 79.5350010856931,23.5624644383325,0 79.5363694,23.5621869,0 79.5364124331148,23.5621285976603,0 79.5365935425111,23.5621087376006,0</coordinates></LinearRing></outerBoundaryIs></Polygon>
  </Placemark>
  
    </Document>
</kml>