<?xml version="1.0" encoding="UTF-8"?>
<kml xmlns="http://www.opengis.net/kml/2.2">
    <Document>
        <Placemark xmlns:ns0="http://www.opengis.net/kml/2.2">
	<Style><LineStyle><color>ff0000ff</color></LineStyle><PolyStyle><fill>0</fill></PolyStyle></Style>
	<ExtendedData><SchemaData schemaUrl="#Wave24_v28MAR2025">
		<SimpleData name="area(ha)">1.136727129006852</SimpleData>
		<SimpleData name="site_id">240074_1.1</SimpleData>
		<SimpleData name="Land_parc">240074</SimpleData>
		<SimpleData name="district">Chhatarpur</SimpleData>
		<SimpleData name="block">Bijawar</SimpleData>
		<SimpleData name="village">Gulat</SimpleData>
		<SimpleData name="Land Type">Farmer</SimpleData>
		<SimpleData name="Instance">Wave 2024</SimpleData>
	</SchemaData></ExtendedData>
      <Polygon><outerBoundaryIs><LinearRing><coordinates>79.4844954,24.5746576,0 79.4845118,24.5746494,0 79.4845462324435,24.574730226235,0 79.4845051367687,24.5747758880959,0 79.4845174083938,24.5751177812792,0 79.4846087321155,24.5753712046071,0 79.4846932065581,24.5755310211201,0 79.4847753979077,24.5756565912375,0 79.4848507399782,24.5757638966106,0 79.4848256259547,24.5759031652863,0 79.4849175,24.5762266,0 79.4849765954823,24.5762376384172,0 79.4850325312619,24.576228506045,0 79.4850873254949,24.5761223422185,0 79.4851664,24.576082,0 79.4852014801471,24.5761120682998,0 79.4852528497406,24.5760915204624,0 79.4852882376828,24.5760333015898,0 79.4854297894515,24.5759807904497,0 79.4855245378128,24.5759431194145,0 79.4855816151389,24.57590031142,0 79.4855610673015,24.5758386679078,0 79.4855154054406,24.5757193762962,0 79.4853944015093,24.5755144686955,0 79.4852294,24.5752697,0 79.4851044486927,24.5750527131274,0 79.4850393805417,24.5747667557239,0 79.4850587868318,24.5746874182404,0 79.4850295446703,24.5745093045869,0 79.4849845,24.5745066,0 79.4845583,24.5744898,0 79.4844791,24.5745177,0 79.4844954,24.5746576,0</coordinates></LinearRing></outerBoundaryIs></Polygon>
  </Placemark>
  
    </Document>
</kml>