<?xml version="1.0" encoding="UTF-8"?>
<kml xmlns="http://www.opengis.net/kml/2.2">
    <Document>
        <Placemark xmlns:ns0="http://www.opengis.net/kml/2.2">
	<Style><LineStyle><color>ff0000ff</color></LineStyle><PolyStyle><fill>0</fill></PolyStyle></Style>
	<ExtendedData><SchemaData schemaUrl="#Wave24_v28MAR2025">
		<SimpleData name="area(ha)">3.866207738572359</SimpleData>
		<SimpleData name="site_id">240010_1.1</SimpleData>
		<SimpleData name="Land_parc">240010</SimpleData>
		<SimpleData name="district">Chhatarpur</SimpleData>
		<SimpleData name="block">Nowgong</SimpleData>
		<SimpleData name="village">Bhaddaraa</SimpleData>
		<SimpleData name="Land Type">Community</SimpleData>
		<SimpleData name="Instance">Wave 2024</SimpleData>
	</SchemaData></ExtendedData>
      <Polygon><outerBoundaryIs><LinearRing><coordinates>79.3898885055402,25.2535593638789,0 79.3899599754575,25.253774806955,0 79.3901011657223,25.2540069112933,0 79.3901898566841,25.2542424183218,0 79.3904053485443,25.2544753325618,0 79.3906087771483,25.2546286099428,0 79.3909243238065,25.2548983914473,0 79.3912225463691,25.2551560577756,0 79.3913300321334,25.255292387667,0 79.3914816436886,25.2553973962381,0 79.3917159840255,25.2555271574592,0 79.3917867,25.2556466,0 79.3919712,25.2555133,0 79.392077,25.2553072,0 79.3921754013527,25.2551624629487,0 79.3920242605576,25.2550216829102,0 79.3919569999351,25.2548182123133,0 79.3918533743865,25.2545547167552,0 79.3917803697956,25.2542895670688,0 79.3915850584916,25.2540196014761,0 79.3914102584139,25.2537986015242,0 79.3912895168501,25.2535567477292,0 79.3912173638566,25.2533929760733,0 79.3910556808527,25.2530572927898,0 79.3908492454528,25.2528006266878,0 79.390532341995,25.2526341869838,0 79.390141,25.2526462,0 79.3898854,25.2527552,0 79.3897280640829,25.2527983407535,0 79.3898239747265,25.2531492090569,0 79.3898885055402,25.2535593638789,0</coordinates></LinearRing></outerBoundaryIs></Polygon>
  </Placemark>
  
    </Document>
</kml>