<?xml version="1.0" encoding="UTF-8"?>
<kml xmlns="http://www.opengis.net/kml/2.2">
    <Document>
        <Placemark xmlns:ns0="http://www.opengis.net/kml/2.2">
	<Style><LineStyle><color>ff0000ff</color></LineStyle><PolyStyle><fill>0</fill></PolyStyle></Style>
	<ExtendedData><SchemaData schemaUrl="#Wave24_v28MAR2025">
		<SimpleData name="area(ha)">11.346761804898337</SimpleData>
		<SimpleData name="site_id">240040_1.1</SimpleData>
		<SimpleData name="Land_parc">240040</SimpleData>
		<SimpleData name="district">Chhatarpur</SimpleData>
		<SimpleData name="block">Nowgong</SimpleData>
		<SimpleData name="village">Nowgong</SimpleData>
		<SimpleData name="Land Type">Farmer</SimpleData>
		<SimpleData name="Instance">Wave 2024</SimpleData>
	</SchemaData></ExtendedData>
      <MultiGeometry><Polygon><outerBoundaryIs><LinearRing><coordinates>79.4313222897157,25.0488624176329,0 79.4313283669425,25.0488592485269,0 79.4312977,25.048858,0 79.4313222897157,25.0488624176329,0</coordinates></LinearRing></outerBoundaryIs></Polygon><Polygon><outerBoundaryIs><LinearRing><coordinates>79.4311785,25.0489374,0 79.4309022,25.0490309,0 79.4305842,25.049159,0 79.4304067,25.0492968,0 79.4300848,25.049496,0 79.4297507,25.0498199,0 79.4294351,25.0499295,0 79.4289343,25.0504537,0 79.4286234,25.0507491,0 79.4285853,25.0508103,0 79.4282871,25.0511176,0 79.4278697,25.0514628,0 79.4274637,25.0518995,0 79.4272607,25.052105,0 79.4273503,25.0521857,0 79.4277318229942,25.0525015935628,0 79.4279116080783,25.0527327698876,0 79.4280518281598,25.0528221945692,0 79.4282761497201,25.0530758270028,0 79.4285705827653,25.0533741712356,0 79.4287541384008,25.0535802607202,0 79.4292208,25.0531439,0 79.4297289,25.0527059,0 79.4300614,25.0524519,0 79.4306465,25.0519515,0 79.4307877,25.0518165,0 79.4312636,25.051385,0 79.4314269,25.0511802,0 79.4316218,25.0510653,0 79.4318583,25.05081,0 79.4318687,25.0506753,0 79.4317023,25.0501041,0 79.4315825,25.0495849,0 79.431561,25.0494986,0 79.4314836,25.0491149,0 79.4313944,25.0488488,0 79.4313715189536,25.0488567290755,0 79.4313578,25.0488439,0 79.4313283669425,25.0488592485269,0 79.4313604761954,25.0488605557739,0 79.4313439,25.0488663,0 79.4313222897157,25.0488624176329,0 79.4311785,25.0489374,0</coordinates></LinearRing></outerBoundaryIs><innerBoundaryIs><LinearRing><coordinates>79.4303374767669,25.0508127507938,0 79.430193246206,25.0506322047688,0 79.4303563295125,25.0505506992566,0 79.4305182727904,25.050558692267,0 79.4305192365601,25.0506183762913,0 79.4305845953936,25.0506300595591,0 79.4305778047388,25.0507571872954,0 79.4304503942773,25.0507448482229,0 79.4303374767669,25.0508127507938,0</coordinates></LinearRing></innerBoundaryIs><innerBoundaryIs><LinearRing><coordinates>79.429973508773,25.0509659397376,0 79.4298083146598,25.0508071568194,0 79.4299386890214,25.050722165219,0 79.4301334653864,25.0508592756173,0 79.4300044145795,25.0509756886567,0 79.429973508773,25.0509659397376,0</coordinates></LinearRing></innerBoundaryIs></Polygon></MultiGeometry>
  </Placemark>
  
    </Document>
</kml>