<?xml version="1.0" encoding="UTF-8"?>
<kml xmlns="http://www.opengis.net/kml/2.2">
    <Document>
        <Placemark xmlns:ns0="http://www.opengis.net/kml/2.2">
	<Style><LineStyle><color>ff0000ff</color></LineStyle><PolyStyle><fill>0</fill></PolyStyle></Style>
	<ExtendedData><SchemaData schemaUrl="#Wave24_v28MAR2025">
		<SimpleData name="area(ha)">2.152545408026107</SimpleData>
		<SimpleData name="site_id">240051_1.1</SimpleData>
		<SimpleData name="Land_parc">240051</SimpleData>
		<SimpleData name="district">Chhatarpur</SimpleData>
		<SimpleData name="block">Bijawar</SimpleData>
		<SimpleData name="village">Gulat</SimpleData>
		<SimpleData name="Land Type">Farmer</SimpleData>
		<SimpleData name="Instance">Wave 2024</SimpleData>
	</SchemaData></ExtendedData>
      <MultiGeometry><Polygon><outerBoundaryIs><LinearRing><coordinates>79.4663474,24.5740852,0 79.4664162,24.5740635,0 79.4664078,24.5740613,0 79.4663751,24.5740387,0 79.466396,24.5740031,0 79.4664197,24.5739661,0 79.4664416,24.5739423,0 79.4664786,24.5739252,0 79.4664858,24.5738986,0 79.4664899,24.5738809,0 79.4665064,24.5738612,0 79.4665233,24.5738423,0 79.4665277,24.5738149,0 79.4665476,24.5738,0 79.4665571,24.5737465,0 79.4665586,24.573717,0 79.4665619,24.5737069,0 79.4665777,24.5736209,0 79.4665363,24.5734577,0 79.4665601,24.5734327,0 79.4665782,24.5733842,0 79.4666227,24.5733823,0 79.4666654,24.5733849,0 79.466726,24.5733908,0 79.4667666,24.5733718,0 79.4668512,24.573375,0 79.4668825,24.5733802,0 79.4669776,24.5733715,0 79.4670256,24.5733546,0 79.4670602,24.5733522,0 79.4671064839473,24.5733092970978,0 79.4671291,24.5732966,0 79.467146,24.57327,0 79.467172,24.5732528,0 79.4672231,24.5731998,0 79.4672604,24.5731702,0 79.4672894,24.5731482,0 79.467336,24.5731232,0 79.4673697,24.5731046,0 79.4674114,24.5730826,0 79.4674373,24.5730662,0 79.4675041,24.5730155,0 79.4675357,24.5729879,0 79.467557,24.5729427,0 79.4675928,24.5729046,0 79.4676197,24.572863,0 79.4676447,24.5728347,0 79.4676427,24.5728129,0 79.4676468,24.5727911,0 79.4676402,24.5727792,0 79.4676394,24.5727499,0 79.4675968,24.5727012,0 79.4675636,24.5726943,0 79.4675279,24.5726872,0 79.467491,24.5726781,0 79.4674685,24.5726699,0 79.4674434,24.572648,0 79.4674103,24.5726222,0 79.4673812,24.5726035,0 79.4673266,24.5725686,0 79.4673142,24.5725402,0 79.4673134,24.5725034,0 79.4672894,24.5724896,0 79.4672747,24.5724617,0 79.4672439,24.5724428,0 79.4671916,24.5724237,0 79.4671732,24.572399,0 79.4671394,24.5723771,0 79.4671033,24.5723738,0 79.4670528,24.5723938,0 79.4670141,24.572396,0 79.4669652,24.572398,0 79.4669201,24.5724041,0 79.46688,24.572417,0 79.4668541,24.5724188,0 79.4668457,24.5724047,0 79.4668562,24.5724014,0 79.4668042,24.5723721,0 79.4667646,24.572368,0 79.4667051,24.5723654,0 79.4666755,24.5723636,0 79.4666399,24.5723546,0 79.4666094,24.5723475,0 79.4665764,24.5723656,0 79.4665408,24.572359,0 79.4665023,24.5723695,0 79.466471,24.5723765,0 79.4664008,24.5723985,0 79.466355,24.5724022,0 79.4663297,24.5724292,0 79.4663052,24.572476,0 79.4662805,24.5724872,0 79.4662572,24.5724991,0 79.4662384,24.5725173,0 79.4662359,24.5725511,0 79.4662102,24.5725685,0 79.46619,24.5726096,0 79.4661799,24.5726515,0 79.4661763,24.5726979,0 79.4661578,24.5727405,0 79.4661337,24.5727722,0 79.4661149,24.5727962,0 79.4660998,24.5728179,0 79.4660777,24.5728398,0 79.4660474,24.5728643,0 79.4660264,24.5728896,0 79.4659951,24.57291,0 79.4659669,24.5729141,0 79.4659052,24.5729314,0 79.4659054,24.5729799,0 79.4658716,24.5729891,0 79.4658494,24.5730172,0 79.4658313,24.5730506,0 79.4658352,24.573094,0 79.4658311,24.5731265,0 79.4658145,24.5731833,0 79.4658137,24.5732138,0 79.4657754,24.5732376,0 79.4657483,24.5732573,0 79.465698,24.573305,0 79.4656886,24.5733247,0 79.4656765,24.5733256,0 79.465625,24.5733479,0 79.4656327,24.5733789,0 79.4656546,24.5734034,0 79.4656521,24.5734331,0 79.4656835,24.5734703,0 79.4657029,24.573496,0 79.465724,24.5735294,0 79.4657209,24.5735689,0 79.4657178,24.5736008,0 79.4657322,24.5736287,0 79.4657197,24.5736815,0 79.4657262,24.573711,0 79.4657009,24.5737773,0 79.4657032,24.5738052,0 79.4656989,24.573879,0 79.4657052,24.5739126,0 79.4657174,24.5739413,0 79.4657365,24.5739681,0 79.4657524,24.5739926,0 79.4657731,24.5740126,0 79.4658117,24.5740167,0 79.4658467,24.5740203,0 79.4658619,24.5740235,0 79.4658684,24.5740255,0 79.4659035,24.5740317,0 79.4659445,24.5740213,0 79.4659787,24.5740294,0 79.4660661,24.5740665,0 79.4661117,24.5740834,0 79.4661392,24.5740522,0 79.4661422,24.574039,0 79.4663309851924,24.5740834993668,0 79.4663474,24.5740852,0</coordinates></LinearRing></outerBoundaryIs></Polygon><Polygon><outerBoundaryIs><LinearRing><coordinates>79.4663252,24.5740829,0 79.4663382,24.5740852,0 79.4663309851924,24.5740834993668,0 79.4663252,24.5740829,0</coordinates></LinearRing></outerBoundaryIs></Polygon></MultiGeometry>
  </Placemark>
  
    </Document>
</kml>