<?xml version="1.0" encoding="UTF-8"?>
<kml xmlns="http://www.opengis.net/kml/2.2">
    <Document>
        <Placemark xmlns:ns0="http://www.opengis.net/kml/2.2">
	<Style><LineStyle><color>ff0000ff</color></LineStyle><PolyStyle><fill>0</fill></PolyStyle></Style>
	<ExtendedData><SchemaData schemaUrl="#Wave24_v28MAR2025">
		<SimpleData name="area(ha)">37.809321967132384</SimpleData>
		<SimpleData name="site_id">240030_1.1</SimpleData>
		<SimpleData name="Land_parc">240030</SimpleData>
		<SimpleData name="district">Damoh</SimpleData>
		<SimpleData name="block">Patera</SimpleData>
		<SimpleData name="village">Hansraj Majhguwan</SimpleData>
		<SimpleData name="Land Type">Community</SimpleData>
		<SimpleData name="Instance">Wave 2024</SimpleData>
	</SchemaData></ExtendedData>
      <Polygon><outerBoundaryIs><LinearRing><coordinates>79.8099096,23.8256989,0 79.8098015,23.8258426,0 79.8096367,23.8259868,0 79.8095395,23.82607,0 79.8095146,23.8260989,0 79.8094207,23.826145,0 79.8093587,23.8262112,0 79.8093912,23.8263051,0 79.8090373,23.8263309,0 79.8090134,23.826359,0 79.8089096,23.8263888,0 79.8087977,23.8264234,0 79.8087925,23.8264261,0 79.8087265,23.8264212,0 79.8087156,23.8264224,0 79.8086821,23.8264314,0 79.8084495,23.8265545,0 79.8082097,23.8267851,0 79.8080705,23.8269296,0 79.8079879,23.8270057,0 79.807919,23.8270571,0 79.8078646,23.8270914,0 79.8076590407458,23.8276292249722,0 79.8075681351738,23.8279512904273,0 79.8075291756429,23.8281279069673,0 79.8074850215079,23.8283123154133,0 79.8074096997482,23.8285486699006,0 79.80739931054,23.8290577411039,0 79.8074045051441,23.8292914982891,0 79.807443464675,23.8293434443302,0 79.8074772296017,23.8294161687878,0 79.8075006053203,23.8294888932455,0 79.807534370247,23.8295434365887,0 79.8076278731211,23.8296784962957,0 79.8078564357334,23.8298810858655,0 79.8079473412742,23.8299486157097,0 79.8081031793976,23.8301070511352,0 79.8083161581664,23.830278473071,0 79.8084979693104,23.830366781341,0 79.8087576995162,23.8304031435698,0 79.8089654836808,23.8305304113706,0 79.8091810597516,23.8306317061509,0 79.8094096223327,23.8307355982332,0 79.8097057147672,23.8308239065031,0 79.8099602503689,23.8307771550661,0 79.8102095913664,23.8306992360043,0 79.8104676270871,23.8305819917064,0 79.8106327269911,23.8304799917295,0 79.8108537222767,23.830460284215,0 79.8110043,23.8301983,0 79.8113092,23.8300081,0 79.8114686,23.8297702,0 79.8117087,23.8294852,0 79.8118511,23.8293235,0 79.8120138,23.8291772,0 79.8121356,23.8290289,0 79.8122622,23.82884,0 79.8123846,23.8286197,0 79.8125138,23.8284269,0 79.8125705389369,23.8282733558825,0 79.8126822229254,23.8281123231549,0 79.8127939069139,23.8279720688438,0 79.8129445504332,23.8277487008668,0 79.8131419453896,23.8275045544734,0 79.8133731052727,23.8273149514232,0 79.8134250513139,23.8272474215697,0 79.8135081649797,23.8271798917162,0 79.8136873,23.8269275,0 79.8137055,23.826968,0 79.8137053,23.8269662,0 79.813772,23.8268988,0 79.8139146,23.8267476,0 79.8139829,23.8265321,0 79.8139786,23.8265346,0 79.8141471,23.8261609,0 79.8143175,23.8258641,0 79.8144588,23.8256326,0 79.8145442,23.825481,0 79.8148908,23.825284,0 79.8151118,23.8252127,0 79.8151771,23.8249555,0 79.8151575,23.8246223,0 79.8151464,23.8243526,0 79.8151193,23.824017,0 79.8150574,23.823687,0 79.8149889,23.8234416,0 79.814875,23.8231031,0 79.8146694,23.823052,0 79.8144363,23.8230919,0 79.8141859,23.8231148,0 79.8139105,23.8231367,0 79.8134069,23.8232615,0 79.8130096,23.8233637,0 79.8127185851542,23.8234891254922,0 79.8126377,23.8235103,0 79.8126159917229,23.8234891254922,0 79.8125601497287,23.8234839308881,0 79.8124666468546,23.8234852295391,0 79.8122783424554,23.8234086091284,0 79.8120614677336,23.8234034145243,0 79.8116723,23.8234625,0 79.8113441,23.8234895,0 79.8111524,23.8235337,0 79.8108744,23.8236913,0 79.8107061,23.8237877,0 79.8105682,23.8240156,0 79.8104900999887,23.8241787091885,0 79.810412180927,23.8242877958749,0 79.810368026792,23.8243241581037,0 79.8103764680237,23.8243890906552,0 79.8103816626278,23.8244299981626,0 79.8103839352671,23.8244530492183,0 79.8103725720706,23.8244923334119,0 79.8103599102231,23.8245355135587,0 79.8103525241453,23.8246303150838,0 79.8103109673124,23.8247705693949,0 79.8103148632655,23.8248069316237,0 79.8103187592186,23.8248419952015,0 79.8103479788667,23.8249374460521,0 79.8104057688375,23.8251056213603,0 79.8104181060223,23.8252257465805,0 79.8103947303038,23.8252711993665,0 79.810271358456,23.8253075615953,0 79.810181751535,23.8253348332669,0 79.8100869500099,23.8253776887509,0 79.8100142255523,23.8254633997188,0 79.8099753,23.8255891,0 79.8099096,23.8256989,0</coordinates></LinearRing></outerBoundaryIs><innerBoundaryIs><LinearRing><coordinates>79.8077330638544,23.8288226852677,0 79.8077239732972,23.8284149088446,0 79.8082733026824,23.8284188047977,0 79.8082408364067,23.8287564540652,0 79.8077330638544,23.8288226852677,0</coordinates></LinearRing></innerBoundaryIs></Polygon>
  </Placemark>
  
    </Document>
</kml>