<?xml version="1.0" encoding="UTF-8"?>
<kml xmlns="http://www.opengis.net/kml/2.2">
    <Document>
        <Placemark xmlns:ns0="http://www.opengis.net/kml/2.2">
	<Style><LineStyle><color>ff0000ff</color></LineStyle><PolyStyle><fill>0</fill></PolyStyle></Style>
	<ExtendedData><SchemaData schemaUrl="#Wave24_v28MAR2025">
		<SimpleData name="area(ha)">2.353099487540883</SimpleData>
		<SimpleData name="site_id">240048_1.1</SimpleData>
		<SimpleData name="Land_parc">240048</SimpleData>
		<SimpleData name="district">Chhatarpur</SimpleData>
		<SimpleData name="block">Bijawar</SimpleData>
		<SimpleData name="village">Gulat</SimpleData>
		<SimpleData name="Land Type">Farmer</SimpleData>
		<SimpleData name="Instance">Wave 2024</SimpleData>
	</SchemaData></ExtendedData>
      <Polygon><outerBoundaryIs><LinearRing><coordinates>79.4836715516311,24.5730052223582,0 79.4836908271481,24.5729901836458,0 79.483801164017,24.5731053542551,0 79.4841323711939,24.5729957425244,0 79.4840737734698,24.5727335951849,0 79.4840046399768,24.5725367311896,0 79.4839038768086,24.5720311783249,0 79.4837955443089,24.5719520664621,0 79.4837241467016,24.5718421177467,0 79.4836309482801,24.5714845100903,0 79.4835309647748,24.571150612039,0 79.4834398721732,24.5708881373372,0 79.4832868153066,24.5709133465196,0 79.4829448117967,24.5709752919446,0 79.4827197607023,24.5710413868906,0 79.4827178994786,24.5711959248813,0 79.4827696723069,24.5714847541237,0 79.4827714,24.5715562,0 79.4828363016264,24.5717544133925,0 79.4827556996868,24.571835338271,0 79.4827089868647,24.5719359240606,0 79.482681951178,24.5720218468217,0 79.4827680788036,24.5722917025172,0 79.4828190183381,24.5723798968239,0 79.4829246,24.5726055,0 79.4830447,24.5727209,0 79.4831345,24.5730154,0 79.4831534,24.5730361,0 79.4832485337752,24.5731480893878,0 79.48346055375,24.5730848348455,0 79.4835943652785,24.5730386261271,0 79.4836715516311,24.5730052223582,0</coordinates></LinearRing></outerBoundaryIs></Polygon>
  </Placemark>
  
    </Document>
</kml>