<?xml version="1.0" encoding="UTF-8"?>
<kml xmlns="http://www.opengis.net/kml/2.2">
    <Document>
        <Placemark xmlns:ns0="http://www.opengis.net/kml/2.2">
	<Style><LineStyle><color>ff0000ff</color></LineStyle><PolyStyle><fill>0</fill></PolyStyle></Style>
	<ExtendedData><SchemaData schemaUrl="#Wave24_v28MAR2025">
		<SimpleData name="area(ha)">8.522884597354128</SimpleData>
		<SimpleData name="site_id">240066_1.1</SimpleData>
		<SimpleData name="Land_parc">240066</SimpleData>
		<SimpleData name="district">Chhatarpur</SimpleData>
		<SimpleData name="block">Chhatarpur</SimpleData>
		<SimpleData name="village">Pucchi</SimpleData>
		<SimpleData name="Land Type">Community</SimpleData>
		<SimpleData name="Instance">Wave 2024</SimpleData>
	</SchemaData></ExtendedData>
      <Polygon><outerBoundaryIs><LinearRing><coordinates>79.6333887,24.8310919,0 79.633365,24.8311587,0 79.6331489,24.8312911,0 79.6328378,24.8314294,0 79.6326059,24.8314901,0 79.6325613,24.8314457,0 79.6324522,24.8314032,0 79.6322407,24.8312408,0 79.6320152,24.8311533,0 79.6318097,24.8310753,0 79.6317746227979,24.8311073651149,0 79.6318652048147,24.8312154459304,0 79.6319619628781,24.8313019105828,0 79.6322178,24.8315524,0 79.632373699318,24.8317043829529,0 79.6325069989904,24.8317733488065,0 79.6326840456596,24.8319318673359,0 79.6328112,24.8321259,0 79.6329990240361,24.8323127235428,0 79.6330745,24.8324196,0 79.6333181197771,24.8326215258728,0 79.6335002,24.8329438,0 79.6336248634248,24.8332020742531,0 79.633796,24.8335249,0 79.6340089,24.8336889,0 79.6342694,24.8340064,0 79.6344215734361,24.8341459800417,0 79.6348067,24.8345222,0 79.6349007225115,24.834697017234,0 79.6349686503716,24.8347567114141,0 79.6351662586922,24.8349255018546,0 79.6352596,24.8350158,0 79.6354921,24.8352942,0 79.6360077880708,24.8357486641341,0 79.63618483474,24.8358598329729,0 79.6362692407102,24.8360059994091,0 79.6365739256758,24.836242747862,0 79.6367612657559,24.8364239118956,0 79.6367509723449,24.8365597849208,0 79.6368930214167,24.8366719831007,0 79.6371287405286,24.8368634405452,0 79.637205941111,24.8369365237633,0 79.6373335,24.8371474,0 79.6375231,24.8373623,0 79.637561,24.8373306,0 79.6376271,24.8370037,0 79.6376605,24.8369404,0 79.6377102,24.8367605,0 79.6377062,24.8362083,0 79.6376376,24.8360303,0 79.6375829,24.8359228,0 79.6372978,24.835587,0 79.6371402,24.8354414,0 79.6369021,24.835226,0 79.6366391,24.8349241,0 79.6364398,24.8347634,0 79.6362891,24.8344868,0 79.6360855,24.8343809,0 79.6358194,24.8340971,0 79.6354743,24.8337842,0 79.6353221,24.8336225,0 79.634995,24.8332999,0 79.6347532,24.8329838,0 79.6345801,24.8326665,0 79.6345262,24.8325875,0 79.6344177,24.8324444,0 79.6342813,24.8322731,0 79.6341164,24.8320306,0 79.6340062,24.8318932,0 79.6338663,24.8316604,0 79.6337558,24.8315075,0 79.6336172,24.8313676,0 79.6334983,24.8312485,0 79.6334359,24.8311487,0 79.6333887,24.8310919,0</coordinates></LinearRing></outerBoundaryIs></Polygon>
  </Placemark>
  
    </Document>
</kml>