<?xml version="1.0" encoding="UTF-8"?>
<kml xmlns="http://www.opengis.net/kml/2.2">
    <Document>
        <Placemark xmlns:ns0="http://www.opengis.net/kml/2.2">
	<Style><LineStyle><color>ff0000ff</color></LineStyle><PolyStyle><fill>0</fill></PolyStyle></Style>
	<ExtendedData><SchemaData schemaUrl="#Wave24_v28MAR2025">
		<SimpleData name="area(ha)">7.481442828119632</SimpleData>
		<SimpleData name="site_id">240004_1.1</SimpleData>
		<SimpleData name="Land_parc">240004</SimpleData>
		<SimpleData name="district">Chhatarpur</SimpleData>
		<SimpleData name="block">Bijawar</SimpleData>
		<SimpleData name="village">Patra</SimpleData>
		<SimpleData name="Land Type">Community</SimpleData>
		<SimpleData name="Instance">Wave 2024</SimpleData>
	</SchemaData></ExtendedData>
      <MultiGeometry><Polygon><outerBoundaryIs><LinearRing><coordinates>79.602635,24.5651597,0 79.6026282,24.5651564,0 79.6026288892912,24.5651570213332,0 79.602635,24.5651597,0</coordinates></LinearRing></outerBoundaryIs></Polygon><Polygon><outerBoundaryIs><LinearRing><coordinates>79.6000215,24.5648998,0 79.6000114,24.564913,0 79.5999957,24.5649233,0 79.5999815,24.5649343,0 79.5999622,24.5649427,0 79.5999415,24.5649537,0 79.5999171,24.5649683,0 79.5998931,24.5649855,0 79.5998677,24.5650063,0 79.5998447,24.5650253,0 79.5998174,24.565052,0 79.5998011,24.5650693,0 79.599778,24.5650865,0 79.5997546,24.5651004,0 79.5997266,24.5651193,0 79.5997053,24.5651351,0 79.5996812,24.5651463,0 79.5996546,24.5651601,0 79.5996283,24.5651849,0 79.5996053,24.5652043,0 79.5995805,24.5652266,0 79.5995625,24.565244,0 79.5995409,24.5652647,0 79.5995235,24.565285,0 79.5995015,24.5653055,0 79.5994776,24.5653285,0 79.5994471,24.5653486,0 79.5994235,24.5653689,0 79.5993911,24.5653957,0 79.5993658,24.5654147,0 79.5993359,24.5654299,0 79.5993072,24.5654434,0 79.5992783,24.5654515,0 79.5992479,24.565461,0 79.5992134,24.5654674,0 79.599186,24.5654712,0 79.5991607,24.5654841,0 79.5991564,24.5655085,0 79.5991536,24.5655297,0 79.5991473,24.5655522,0 79.5991462,24.5655847,0 79.5991404,24.5656076,0 79.5991214,24.5656209,0 79.5990919,24.5656301,0 79.5990782,24.5656579,0 79.5990762,24.5657008,0 79.5990717,24.5657272,0 79.5990845,24.5657577,0 79.5990974,24.5657847,0 79.5991175,24.5658035,0 79.5991357,24.5658243,0 79.5991423,24.5658579,0 79.5991748,24.5658783,0 79.5991959,24.5658942,0 79.5992242,24.565912,0 79.5992413,24.5659255,0 79.599255,24.565945,0 79.5992717,24.5659646,0 79.5992944,24.5659785,0 79.5993158,24.5659912,0 79.5993353,24.5660017,0 79.5993534,24.5660305,0 79.5993684,24.5660592,0 79.5993864,24.5660889,0 79.5993989,24.566117,0 79.5994144,24.5661432,0 79.5994352,24.566159,0 79.5994589,24.5661727,0 79.5994818,24.5661792,0 79.5995021,24.5661921,0 79.5994867,24.5662333,0 79.5994881,24.5662333,0 79.5995402,24.5662941,0 79.5995456,24.5663129,0 79.5995522,24.5663347,0 79.5995869,24.5663426,0 79.5996124,24.5663429,0 79.5996247,24.5663482,0 79.5996591,24.5663666,0 79.5996773,24.5663929,0 79.5997014,24.5664115,0 79.5997296,24.566411,0 79.5997554,24.5664051,0 79.599807,24.5664166,0 79.5998167,24.5664141,0 79.5998378,24.5664131,0 79.5998747,24.5664157,0 79.5999015,24.5664167,0 79.5999347,24.5664191,0 79.5999623,24.5664185,0 79.5999869,24.5664274,0 79.6000131,24.5664332,0 79.6000443,24.5664385,0 79.6000717,24.5664353,0 79.60011,24.5664408,0 79.6001395,24.5664413,0 79.600176,24.5664417,0 79.6002012,24.5664526,0 79.6002205,24.5664812,0 79.6002526,24.5664679,0 79.6002791,24.5664646,0 79.600303,24.5664648,0 79.6003369,24.5664766,0 79.6003696,24.5664589,0 79.6004035,24.5664452,0 79.6004292,24.5664428,0 79.6004519,24.5664327,0 79.6004748,24.5664148,0 79.6004967,24.5663984,0 79.6005232,24.566382,0 79.6005525,24.5663803,0 79.6005763,24.5663853,0 79.60061,24.5663873,0 79.6006349,24.5663887,0 79.6006616,24.5663912,0 79.6006878,24.5663894,0 79.6007181,24.566388,0 79.6007503,24.5663784,0 79.600784,24.5663634,0 79.6008094,24.5663613,0 79.6008331,24.5663712,0 79.600866,24.5663758,0 79.6008989,24.5663715,0 79.6009276,24.5663631,0 79.6009593,24.5663544,0 79.6009825,24.5663396,0 79.6010108,24.5663234,0 79.6010372,24.5662983,0 79.6010577,24.566281,0 79.6010817,24.5662851,0 79.6011057,24.5662826,0 79.6011292,24.5662765,0 79.6011565,24.5662712,0 79.601187,24.5662637,0 79.6012178,24.5662658,0 79.6012386,24.5662606,0 79.6012635,24.5662519,0 79.6012877,24.5662444,0 79.6013117,24.5662377,0 79.6013349,24.5662253,0 79.6013601,24.5662177,0 79.6013864,24.5662149,0 79.6014105,24.5662099,0 79.601441,24.5662064,0 79.6014681,24.5661951,0 79.6014911,24.566176,0 79.6015078,24.5661555,0 79.6015187,24.5661337,0 79.6015238,24.5661398,0 79.601523,24.5661324,0 79.6015197,24.5661075,0 79.6015134,24.5660777,0 79.6015088,24.5660533,0 79.6015076,24.5660297,0 79.6015001,24.5660058,0 79.6015003,24.5659805,0 79.6014995,24.5659541,0 79.6015029,24.5659259,0 79.6015064,24.5658966,0 79.6015092,24.5658712,0 79.6015118,24.5658453,0 79.6015135,24.5658183,0 79.6015163,24.5657959,0 79.6015363,24.5657766,0 79.6015445,24.5657532,0 79.6015652,24.5657256,0 79.6015902,24.5657108,0 79.6016122,24.5656996,0 79.6016328,24.5656953,0 79.6016564,24.5656922,0 79.6016806,24.5656838,0 79.6016934,24.5656846,0 79.6016943,24.5656858,0 79.6017137,24.565688,0 79.6017362,24.5656828,0 79.601767,24.56568,0 79.6017965,24.5656717,0 79.6018207,24.5656781,0 79.6018452,24.5656795,0 79.6018698,24.5656767,0 79.6018995,24.5656672,0 79.6019273,24.5656583,0 79.6019582,24.5656595,0 79.6019905,24.5656592,0 79.6020219,24.5656546,0 79.6020484,24.5656465,0 79.6020749,24.5656514,0 79.6021083,24.5656542,0 79.6021345,24.5656496,0 79.6021737,24.5656487,0 79.6022092,24.5656468,0 79.6022385,24.565646,0 79.6022644,24.56564,0 79.6022992,24.5656353,0 79.602329,24.5656317,0 79.6023581,24.5656291,0 79.6023856,24.5656337,0 79.6024179,24.5656399,0 79.6024428,24.5656359,0 79.6024713,24.5656423,0 79.6024954,24.5656551,0 79.6025143,24.5656684,0 79.6025273,24.5656903,0 79.6025351,24.5657126,0 79.6025488,24.565729,0 79.6025723,24.565742,0 79.602612,24.5657526,0 79.602643,24.5657632,0 79.6026738,24.5657802,0 79.6026917,24.565801,0 79.6027192,24.5658283,0 79.6027566,24.5658386,0 79.6027813,24.5658464,0 79.6028066,24.5658624,0 79.6028208,24.5658816,0 79.6028474,24.5659039,0 79.6028708,24.5659106,0 79.6028817,24.5659398,0 79.6029055,24.5659602,0 79.602932,24.5659759,0 79.6029547,24.565996,0 79.6029794,24.5660228,0 79.6030018,24.5660483,0 79.6030252,24.5660718,0 79.6030376,24.5660945,0 79.6030542,24.5661238,0 79.6030658,24.5661497,0 79.6030848,24.5661805,0 79.603105,24.5662032,0 79.6031468,24.5662447,0 79.6031515,24.5662681,0 79.6031518,24.5663066,0 79.6031588,24.566334,0 79.6031817,24.5663638,0 79.6031837,24.5663898,0 79.6031849,24.5664212,0 79.6031983,24.5664481,0 79.6032133,24.5664766,0 79.6032414,24.5665009,0 79.6032687,24.566517,0 79.6032936,24.5665255,0 79.6033095,24.5665427,0 79.6033267,24.5665676,0 79.6033512,24.5665782,0 79.6033664,24.5665989,0 79.603385,24.5666244,0 79.6034022,24.5666409,0 79.6034224,24.5666535,0 79.6034747,24.5666647,0 79.603481,24.566668,0 79.6035071,24.5666832,0 79.6035351,24.5666995,0 79.6035717,24.5667199,0 79.603599,24.5667306,0 79.603631,24.5667372,0 79.6036576,24.5667456,0 79.6036817,24.5667538,0 79.603707,24.5667652,0 79.603734,24.5667794,0 79.6037603,24.5667918,0 79.603793,24.5668077,0 79.6038241,24.566814,0 79.603855,24.5668175,0 79.6038828,24.5668204,0 79.6039139,24.5668279,0 79.6039426,24.5668299,0 79.603975,24.5668287,0 79.6040012,24.566829,0 79.6040282,24.5668282,0 79.6040626,24.5668236,0 79.6040864,24.5668138,0 79.6041189,24.5668075,0 79.6041469,24.5668031,0 79.6041816,24.5668022,0 79.6042106,24.5668039,0 79.6042392,24.5667936,0 79.6042686,24.56679,0 79.6042983,24.5667951,0 79.6043269,24.5668033,0 79.6043572,24.5668094,0 79.6043855,24.5668191,0 79.6044169,24.5668278,0 79.6044471,24.5668304,0 79.6044798,24.5668251,0 79.6045082,24.5668212,0 79.6045379,24.5668203,0 79.6045678,24.5668188,0 79.604597,24.5668153,0 79.6046242,24.5668094,0 79.6046505,24.5667987,0 79.6046745,24.5667943,0 79.6047038,24.5667927,0 79.60473,24.5667905,0 79.6047475,24.5667724,0 79.6047653,24.5667452,0 79.6047808,24.5667253,0 79.6048004,24.566711,0 79.6048306,24.5667043,0 79.604846,24.5666828,0 79.604854,24.5666623,0 79.6048748,24.5666463,0 79.6048944,24.5666237,0 79.604888,24.5665969,0 79.6048742,24.566576,0 79.6048673,24.5665528,0 79.6048527,24.5665502,0 79.6048172,24.5665478,0 79.6047854,24.5665401,0 79.6047535,24.5665303,0 79.6047395,24.5665371,0 79.604717,24.5665376,0 79.6046933,24.5665311,0 79.6046808,24.5665089,0 79.6046656,24.5664897,0 79.6046516,24.5664739,0 79.6046523,24.566475,0 79.604644,24.5664694,0 79.6046228,24.5664688,0 79.6046066,24.5664531,0 79.6045964,24.5664359,0 79.6045741,24.5664275,0 79.604563,24.5664208,0 79.6045446,24.5664169,0 79.6045274,24.5664147,0 79.6045115,24.5664094,0 79.6044933,24.5664016,0 79.6044773,24.566391,0 79.6044633,24.5663849,0 79.6044516,24.5663732,0 79.6044402,24.5663594,0 79.6044148,24.56635,0 79.6043937,24.566345,0 79.604374,24.5663444,0 79.6043622,24.5663334,0 79.6043456,24.5663202,0 79.60432,24.5663123,0 79.6042965,24.5663073,0 79.6042744,24.5663008,0 79.6042563,24.5662877,0 79.6042426,24.5662709,0 79.6042258,24.5662564,0 79.6042053,24.5662499,0 79.6041829,24.5662466,0 79.6041654,24.5662351,0 79.6041524,24.5662257,0 79.6041446,24.5662202,0 79.6041466,24.5662242,0 79.6041359,24.566222,0 79.6041236,24.566192,0 79.6041167,24.5661825,0 79.604089,24.5661713,0 79.6040582,24.5661619,0 79.6040255,24.5661442,0 79.604007,24.5661259,0 79.6039833,24.5661093,0 79.6039565,24.5660994,0 79.6039283,24.5660862,0 79.6039031,24.5660747,0 79.6038729,24.5660661,0 79.6038413,24.5660537,0 79.6038111,24.5660404,0 79.6037867,24.566026,0 79.6037552,24.5660117,0 79.6037298,24.5659884,0 79.6036969,24.5659764,0 79.6036601,24.5659603,0 79.6036387,24.5659365,0 79.6036066,24.5659203,0 79.6035823,24.5658995,0 79.6035596,24.5658732,0 79.6035359,24.5658505,0 79.6035159,24.5658221,0 79.603497,24.565797,0 79.6034736,24.5657739,0 79.6034582,24.5657421,0 79.6034547,24.5657112,0 79.6034389,24.5656897,0 79.6034139,24.5656665,0 79.6033909,24.5656512,0 79.6033677,24.5656334,0 79.6033386,24.5656146,0 79.6033132,24.5656033,0 79.6032793,24.565591,0 79.6032482,24.5655783,0 79.6032157,24.5655657,0 79.603193,24.5655558,0 79.6031624,24.565544,0 79.6031371,24.5655276,0 79.6031096,24.5655169,0 79.6030784,24.5655052,0 79.6030523,24.5655016,0 79.6030277,24.5655007,0 79.6030066,24.5654989,0 79.6029834,24.5654898,0 79.6029563,24.5654733,0 79.6029576,24.565433,0 79.6029492,24.5654005,0 79.6029277,24.5653717,0 79.6029035,24.5653599,0 79.6028704,24.5653578,0 79.6028416,24.5653524,0 79.6028284,24.5653278,0 79.602812,24.5653171,0 79.6027997,24.5653022,0 79.6027778,24.5652995,0 79.6027744,24.5652681,0 79.6027678,24.5652444,0 79.602745,24.5652295,0 79.6027365,24.5652334,0 79.6027224,24.5652114,0 79.602697,24.565199,0 79.6026637,24.5651884,0 79.6026288892912,24.5651570213332,0 79.6026277,24.5651565,0 79.6026147,24.5651401,0 79.6025866,24.5651248,0 79.6025543,24.5651142,0 79.6025353,24.5650985,0 79.602526,24.5651085,0 79.602538,24.5650808,0 79.602534,24.5650536,0 79.6025042,24.5650432,0 79.6024747,24.5650351,0 79.6024441,24.5650254,0 79.6024134,24.5650138,0 79.602393,24.5649923,0 79.6023694,24.5649728,0 79.6023436,24.5649529,0 79.6023198,24.5649334,0 79.6022926,24.5649207,0 79.6022846,24.5648926,0 79.6022838,24.5648547,0 79.6022748,24.5648141,0 79.6022606,24.5647841,0 79.602238,24.5647519,0 79.6022149,24.5647256,0 79.6022019,24.5647023,0 79.6021899,24.5646758,0 79.6021707,24.5646485,0 79.6021494,24.5646227,0 79.6021241,24.5645928,0 79.6021073,24.5645637,0 79.6020889,24.5645443,0 79.6020685,24.5645174,0 79.6020475,24.5644944,0 79.6020231,24.5644853,0 79.6019926,24.5644851,0 79.601974,24.5644682,0 79.6019558,24.564447,0 79.6019344,24.564427,0 79.6019167,24.5643974,0 79.6019101,24.5643729,0 79.6019067,24.5643634,0 79.6019026,24.5643533,0 79.601883,24.5643375,0 79.6018592,24.5643211,0 79.6018473,24.5642918,0 79.6018376,24.564267,0 79.6018513,24.564239,0 79.6018702,24.5642321,0 79.601872,24.5642088,0 79.6018888,24.5641911,0 79.6019251,24.5641786,0 79.6019524,24.5641616,0 79.6019566,24.5641326,0 79.6019605,24.5641057,0 79.6019637,24.56408,0 79.6019248,24.5640389,0 79.6019304,24.5640083,0 79.601924,24.5639774,0 79.6019292,24.5639569,0 79.6019254,24.5639314,0 79.6019267,24.5639002,0 79.601914,24.5638742,0 79.601915,24.5638422,0 79.6018967,24.5638158,0 79.6018733,24.5637915,0 79.6018467,24.5637741,0 79.6018053,24.5637782,0 79.6017796,24.5637675,0 79.6017747,24.5637709,0 79.6017538,24.5637573,0 79.6017323,24.5637541,0 79.6016998,24.5637403,0 79.6016637,24.5637368,0 79.6016255,24.5637567,0 79.6016027,24.5637831,0 79.601589,24.5638139,0 79.6015743,24.5638176,0 79.601566,24.5638284,0 79.6015586,24.5638329,0 79.6015374,24.5638419,0 79.6015175,24.5638589,0 79.6014952,24.5638747,0 79.6014697,24.5638954,0 79.601448,24.5639167,0 79.6014194,24.5639353,0 79.601389,24.5639513,0 79.6013697,24.5639667,0 79.6013478,24.5639879,0 79.6013037,24.5639906,0 79.6012752,24.5640013,0 79.6012529,24.5640211,0 79.6012243,24.5640369,0 79.6011976,24.5640595,0 79.6011733,24.5640762,0 79.601151,24.5640891,0 79.6011197,24.5641079,0 79.6010925,24.5641203,0 79.601064,24.5641365,0 79.6010356,24.5641529,0 79.6010088,24.5641679,0 79.6009791,24.5641843,0 79.6009464,24.5642045,0 79.6009164,24.564224,0 79.6008897,24.5642427,0 79.6008614,24.5642506,0 79.6008334,24.5642562,0 79.6008065,24.5642736,0 79.600779,24.5642935,0 79.6007559,24.564314,0 79.6007317,24.5643333,0 79.6006991,24.5643527,0 79.6006693,24.564372,0 79.6006459,24.5643921,0 79.6006253,24.5644136,0 79.600605,24.5644374,0 79.6005818,24.5644622,0 79.6005614,24.5644834,0 79.6005308,24.5644968,0 79.600504,24.5645131,0 79.6004778,24.564534,0 79.6004564,24.564558,0 79.6004433,24.564583,0 79.6004194,24.5645964,0 79.6003851,24.5646157,0 79.6003612,24.5646326,0 79.6003346,24.5646518,0 79.6003172,24.5646702,0 79.6002923,24.5646936,0 79.6002692,24.5647114,0 79.6002446,24.5647329,0 79.6002213,24.5647532,0 79.6001971,24.5647743,0 79.6001719,24.5647947,0 79.600151,24.5648111,0 79.6001303,24.5648267,0 79.6001091,24.5648435,0 79.6000904,24.5648635,0 79.6000738,24.5648792,0 79.6000767,24.5648617,0 79.6000215,24.5648998,0</coordinates></LinearRing></outerBoundaryIs><innerBoundaryIs><LinearRing><coordinates>79.5997384836181,24.565425852777,0 79.5996944934445,24.5653699565032,0 79.5997413195421,24.5653312241106,0 79.5997850740157,24.565408333962,0 79.5997384836181,24.565425852777,0</coordinates></LinearRing></innerBoundaryIs></Polygon></MultiGeometry>
  </Placemark>
  
    </Document>
</kml>