<?xml version="1.0" encoding="UTF-8"?>
<kml xmlns="http://www.opengis.net/kml/2.2">
    <Document>
        <Placemark xmlns:ns0="http://www.opengis.net/kml/2.2">
	<Style><LineStyle><color>ff0000ff</color></LineStyle><PolyStyle><fill>0</fill></PolyStyle></Style>
	<ExtendedData><SchemaData schemaUrl="#Wave24_v28MAR2025">
		<SimpleData name="area(ha)">0.190646669001970</SimpleData>
		<SimpleData name="site_id">240082_1.1</SimpleData>
		<SimpleData name="Land_parc">240082</SimpleData>
		<SimpleData name="district">Chhatarpur</SimpleData>
		<SimpleData name="block">Nowgong</SimpleData>
		<SimpleData name="village">Sahaniya</SimpleData>
		<SimpleData name="Land Type">Farmer</SimpleData>
		<SimpleData name="Instance">Wave 2024</SimpleData>
	</SchemaData></ExtendedData>
      <Polygon><outerBoundaryIs><LinearRing><coordinates>79.4927566346416,25.0087610620059,0 79.4927384607661,25.0087156522305,0 79.4926290486469,25.0087802481497,0 79.4925759831269,25.0086781660283,0 79.4923698292609,25.0088433251202,0 79.4920509650643,25.0090363535066,0 79.491911246936,25.0091288008168,0 79.4920692540189,25.0093023456969,0 79.4924337903692,25.0090500485228,0 79.4926417955179,25.0088578234967,0 79.4927566346416,25.0087610620059,0</coordinates></LinearRing></outerBoundaryIs></Polygon>
  </Placemark>
  
    </Document>
</kml>