<?xml version="1.0" encoding="UTF-8"?>
<kml xmlns="http://www.opengis.net/kml/2.2">
    <Document>
        <Placemark xmlns:ns0="http://www.opengis.net/kml/2.2">
	<Style><LineStyle><color>ff0000ff</color></LineStyle><PolyStyle><fill>0</fill></PolyStyle></Style>
	<ExtendedData><SchemaData schemaUrl="#Wave24_v28MAR2025">
		<SimpleData name="area(ha)">2.116323494231270</SimpleData>
		<SimpleData name="site_id">240098_1.1</SimpleData>
		<SimpleData name="Land_parc">240098</SimpleData>
		<SimpleData name="district">Damoh</SimpleData>
		<SimpleData name="block">Tendukheda</SimpleData>
		<SimpleData name="village">Samnapur</SimpleData>
		<SimpleData name="Land Type">Farmer</SimpleData>
		<SimpleData name="Instance">Wave 2024</SimpleData>
	</SchemaData></ExtendedData>
      <Polygon><outerBoundaryIs><LinearRing><coordinates>79.3903193447395,23.3201633914648,0 79.3901769795188,23.3200179678649,0 79.3900398,23.3200725,0 79.389574471085,23.3202263592819,0 79.3896075678051,23.3204086877295,0 79.3896838323925,23.3204257690517,0 79.3897336857893,23.3209260700975,0 79.3897557675804,23.321290273558,0 79.3898031059902,23.321755237557,0 79.3899052920939,23.3221840959489,0 79.3900211,23.322147,0 79.3901917320868,23.3220892547463,0 79.3903475313828,23.3220962880421,0 79.3906980479611,23.3220537128382,0 79.3909072076524,23.3220259825254,0 79.3911977625771,23.3220778588521,0 79.3913212126784,23.3220845589866,0 79.3914108,23.3220671,0 79.3916453,23.321455,0 79.3913442,23.3215363,0 79.3910937,23.3214417,0 79.3906996583837,23.3213094787195,0 79.3904795216185,23.3212719061995,0 79.3903207660815,23.3212662008262,0 79.390157,23.3205674,0 79.3901466515259,23.3203381729551,0 79.3902530112709,23.3202985221174,0 79.3903193447395,23.3201633914648,0</coordinates></LinearRing></outerBoundaryIs><innerBoundaryIs><LinearRing><coordinates>79.3899594430372,23.320436071204,0 79.3899461439586,23.3204413670249,0 79.3899365617925,23.3204433057373,0 79.3899153554734,23.320433580961,0 79.3899074073312,23.320421955249,0 79.3899091967931,23.3203954902696,0 79.3899211645408,23.3203786367376,0 79.3899373880578,23.3203747290928,0 79.3899734047482,23.32037577827,0 79.3899842037134,23.3203949029426,0 79.3899898808117,23.3204119377998,0 79.3899815727166,23.3204301870657,0 79.3899711326396,23.3204423028756,0 79.3899594430372,23.320436071204,0</coordinates></LinearRing></innerBoundaryIs></Polygon>
  </Placemark>
  
    </Document>
</kml>