<?xml version="1.0" encoding="UTF-8"?>
<kml xmlns="http://www.opengis.net/kml/2.2">
    <Document>
        <Placemark xmlns:ns0="http://www.opengis.net/kml/2.2">
	<Style><LineStyle><color>ff0000ff</color></LineStyle><PolyStyle><fill>0</fill></PolyStyle></Style>
	<ExtendedData><SchemaData schemaUrl="#Wave24_v28MAR2025">
		<SimpleData name="area(ha)">13.470394407461889</SimpleData>
		<SimpleData name="site_id">240062_2.2</SimpleData>
		<SimpleData name="Land_parc">240062</SimpleData>
		<SimpleData name="district">Damoh</SimpleData>
		<SimpleData name="block">Patera</SimpleData>
		<SimpleData name="village">Bagsari</SimpleData>
		<SimpleData name="Land Type">Community</SimpleData>
		<SimpleData name="Instance">Wave 2024</SimpleData>
	</SchemaData></ExtendedData>
      <MultiGeometry><Polygon><outerBoundaryIs><LinearRing><coordinates>79.7875972,23.8518264,0 79.7875831,23.8518156,0 79.7875820169826,23.8518211698036,0 79.7875972,23.8518264,0</coordinates></LinearRing></outerBoundaryIs></Polygon><Polygon><outerBoundaryIs><LinearRing><coordinates>79.7865721,23.8517154,0 79.7866678,23.8517331,0 79.7867882,23.851722,0 79.7869094,23.8517094,0 79.7869867,23.8517356,0 79.787032,23.8517386,0 79.7870374,23.8517588,0 79.7870553,23.8517808,0 79.7870752,23.8518048,0 79.7871099,23.8519179,0 79.7871196,23.8519324,0 79.787147,23.8519467,0 79.7871671,23.8519529,0 79.7871957,23.8519624,0 79.7872577,23.8519542,0 79.7872863,23.8519443,0 79.7873411,23.8519177,0 79.787433,23.8519183,0 79.7875172,23.8518721,0 79.7875364,23.8518674,0 79.7875761,23.8518516,0 79.7875820169826,23.8518211698036,0 79.7875284,23.8518027,0 79.7875577,23.8517168,0 79.7876299,23.8516272,0 79.7876693,23.8515928,0 79.7877093,23.8515567,0 79.7877606,23.8514723,0 79.7877855,23.8514361,0 79.7878945,23.8514176,0 79.7879892,23.8514136,0 79.7880175,23.8514012,0 79.7880588,23.851366,0 79.7880853,23.8513428,0 79.7881055,23.8513151,0 79.7881346,23.8512954,0 79.7881978,23.8512606,0 79.7882602,23.8512422,0 79.7882905,23.851231,0 79.788317,23.8512126,0 79.7883448,23.8511901,0 79.7883755,23.851168,0 79.7884062,23.8511488,0 79.7884532,23.8511013,0 79.7884828,23.8510823,0 79.7885046,23.8510664,0 79.7885384,23.8510475,0 79.7885645,23.8510456,0 79.788598,23.8510321,0 79.788627,23.8510234,0 79.7886535,23.8510242,0 79.7886824,23.851018,0 79.7887109,23.8510196,0 79.7887697,23.8510201,0 79.7888269,23.8509909,0 79.7888587,23.8509853,0 79.7889223,23.8509784,0 79.7889409,23.8509973,0 79.7889729,23.8510012,0 79.7889976,23.8510119,0 79.7890272,23.8510128,0 79.7890562,23.8510235,0 79.789088,23.8510231,0 79.7891729,23.8510252,0 79.7892073,23.8510134,0 79.7892235,23.8510097,0 79.7892806,23.8509917,0 79.7893472,23.8509851,0 79.7894403,23.8509542,0 79.7894639,23.8509407,0 79.7895014,23.850952,0 79.7895265,23.8509612,0 79.7895608,23.8509746,0 79.7896189,23.8509758,0 79.7896801,23.8509831,0 79.789702,23.8509976,0 79.7897523,23.851035,0 79.7897871,23.8510405,0 79.7898192,23.8510583,0 79.7898837,23.8510869,0 79.7899151,23.8510891,0 79.7899462,23.8511002,0 79.7899789,23.851094,0 79.79001,23.8511096,0 79.7900425,23.8511056,0 79.790104,23.8511149,0 79.7901344,23.8511073,0 79.7902262,23.8510991,0 79.7903567,23.851057,0 79.7904334,23.8510105,0 79.7904686,23.8509881,0 79.7906098,23.8510257,0 79.7906181,23.8510523,0 79.7906409,23.8510778,0 79.7906097,23.8511441,0 79.7906143,23.8511492,0 79.7906236,23.8511516,0 79.7906354,23.8511656,0 79.7906346,23.851182,0 79.7907342,23.8512248,0 79.7907544,23.8512169,0 79.7907556,23.8512734,0 79.7907817,23.8513203,0 79.7908941,23.8513804,0 79.7910079,23.8514594,0 79.7910467,23.851507,0 79.7910497,23.8515451,0 79.7911006,23.8516103,0 79.7911115,23.8516392,0 79.7911312,23.8516989,0 79.7911385,23.8517305,0 79.7911772,23.8517942,0 79.7911912,23.8518162,0 79.7911891,23.8518617,0 79.7911935,23.8518919,0 79.7911891,23.8519518,0 79.7911741,23.8520131,0 79.7911702,23.8520674,0 79.7911656,23.8521026,0 79.7911473,23.8521238,0 79.7911031,23.8521784,0 79.7910553,23.8522114,0 79.7909961,23.8522809,0 79.7909561,23.8523304,0 79.790927,23.8523826,0 79.7908948,23.8524369,0 79.790877,23.8524535,0 79.7908652,23.8524829,0 79.7908468,23.8525358,0 79.7908513,23.8525618,0 79.7908452,23.8525921,0 79.7908511,23.8526272,0 79.7908494,23.8527155,0 79.7908581,23.8527727,0 79.7908617,23.8528002,0 79.790866,23.8528309,0 79.7908643,23.8528601,0 79.7908716,23.8528902,0 79.7908951,23.8529473,0 79.7908752,23.8530062,0 79.7907728,23.8530972,0 79.7907005,23.8531086,0 79.7906299,23.8531284,0 79.7905687,23.8531613,0 79.7905318,23.8531923,0 79.7904654,23.8532694,0 79.7904661,23.8533255,0 79.79043,23.8534129,0 79.7904055,23.8535855,0 79.7905164,23.8536596,0 79.7904728,23.8536643,0 79.7906788,23.8537879,0 79.7910324,23.8538675,0 79.7912673,23.8539258,0 79.7911881,23.8541287,0 79.79115,23.8542374,0 79.7912901,23.8543253,0 79.7914734,23.8543338,0 79.7915369,23.8543119,0 79.7922877,23.8544576,0 79.7920829,23.8541712,0 79.7919457,23.854068,0 79.7917189,23.853875,0 79.7917237,23.8538664,0 79.791835,23.8536989,0 79.7918527,23.853484,0 79.7919032,23.853348,0 79.7919469,23.8532369,0 79.7920307,23.8530404,0 79.7920618,23.8528457,0 79.7920824,23.8526734,0 79.7923203,23.8524643,0 79.7923919,23.8522804,0 79.7924686,23.8520966,0 79.7924581,23.8518464,0 79.7923855,23.8515774,0 79.7923265,23.8514279,0 79.7922637,23.8512786,0 79.7921886,23.8511334,0 79.7921925,23.8510739,0 79.7922115,23.8509517,0 79.7922554,23.8508486,0 79.7924714,23.8506291,0 79.7924858,23.8506073,0 79.7925313,23.8505333,0 79.7925625,23.8505277,0 79.7925958,23.8504927,0 79.7927308,23.8502633,0 79.7927759,23.8502041,0 79.7927786,23.8501895,0 79.7927911,23.8501612,0 79.7927816,23.8501639,0 79.7927627,23.8501086,0 79.7927261,23.8500367,0 79.7926893,23.8499735,0 79.7925994,23.8498796,0 79.7924882,23.8497818,0 79.7924448,23.8497334,0 79.7924274,23.8497164,0 79.7924171,23.8496858,0 79.7924106,23.8496631,0 79.7923972,23.8496373,0 79.7923781,23.8496155,0 79.7923601,23.8495918,0 79.7923423,23.8495725,0 79.7923248,23.8495553,0 79.7923018,23.849536,0 79.7922755,23.8495128,0 79.7922602,23.8494943,0 79.7922353,23.8494779,0 79.7922052,23.8494684,0 79.7921807,23.8494641,0 79.7921496,23.8494595,0 79.7921264,23.8494633,0 79.7920951,23.8494585,0 79.7920741,23.8494555,0 79.7920222,23.8494636,0 79.7920098,23.8494731,0 79.791989,23.8494599,0 79.7919642,23.8494374,0 79.7919412,23.8494178,0 79.7919096,23.849399,0 79.7918828,23.8493117,0 79.7918801,23.8493221,0 79.7916388,23.8494301,0 79.7911545,23.8496167,0 79.7906446,23.8497573,0 79.7901044,23.849872,0 79.7895173,23.84978,0 79.7890318,23.8497192,0 79.7885634,23.8497245,0 79.7883204,23.8497725,0 79.7881475,23.8498655,0 79.7878739,23.8500631,0 79.7875685,23.8504412,0 79.7871941,23.8507393,0 79.7869058,23.8510698,0 79.7866307,23.8512234,0 79.7864664,23.8514966,0 79.7862588,23.8518372,0 79.7861985909951,23.8519195733917,0 79.7863495,23.8517692,0 79.7865721,23.8517154,0</coordinates></LinearRing></outerBoundaryIs></Polygon><Polygon><outerBoundaryIs><LinearRing><coordinates>79.786117,23.8520312,0 79.7861985909951,23.8519195733917,0 79.7858987,23.8522184,0 79.786065,23.8520718,0 79.786117,23.8520312,0</coordinates></LinearRing></outerBoundaryIs></Polygon></MultiGeometry>
  </Placemark>
  
    </Document>
</kml>