<?xml version="1.0" encoding="UTF-8"?>
<kml xmlns="http://www.opengis.net/kml/2.2">
    <Document>
        <Placemark xmlns:ns0="http://www.opengis.net/kml/2.2">
	<Style><LineStyle><color>ff0000ff</color></LineStyle><PolyStyle><fill>0</fill></PolyStyle></Style>
	<ExtendedData><SchemaData schemaUrl="#Wave24_v28MAR2025">
		<SimpleData name="area(ha)">10.989721789946225</SimpleData>
		<SimpleData name="site_id">240067_1.1</SimpleData>
		<SimpleData name="Land_parc">240067</SimpleData>
		<SimpleData name="district">Chhatarpur</SimpleData>
		<SimpleData name="block">Chhatarpur</SimpleData>
		<SimpleData name="village">Ramgarh</SimpleData>
		<SimpleData name="Land Type">Community</SimpleData>
		<SimpleData name="Instance">Wave 2024</SimpleData>
	</SchemaData></ExtendedData>
      <Polygon><outerBoundaryIs><LinearRing><coordinates>79.6293317,24.828715,0 79.6293066,24.8286862,0 79.6292897,24.8286664,0 79.6292551,24.8286103,0 79.6292338,24.8285706,0 79.629115,24.8284834,0 79.6289588,24.8283928,0 79.6288925,24.8283311,0 79.6287563,24.82821,0 79.6286216,24.8281076,0 79.628577,24.8280918,0 79.628372,24.8281719,0 79.62826,24.8282799,0 79.6287404,24.8289204,0 79.6287931,24.829091,0 79.628866,24.8293408,0 79.6289299,24.8295424,0 79.6293095,24.8300419,0 79.6293993,24.8302486,0 79.6295942,24.8305443,0 79.6297574,24.8307025,0 79.629963,24.8308833,0 79.6301479,24.8309905,0 79.6303031,24.8310956,0 79.6306505823169,24.8312432381401,0 79.630817335575,24.8313255854281,0 79.6311358,24.8315424,0 79.6313805,24.831654,0 79.6315666958957,24.83196377691,0 79.6317190383785,24.8320234786938,0 79.6319129,24.8322564,0 79.631949,24.8323185,0 79.6317725641157,24.8324166869939,0 79.6318116790775,24.8325957923453,0 79.6324206,24.8330374,0 79.6324735,24.8330378,0 79.6325152,24.8330751,0 79.6325889,24.8331747,0 79.6327682,24.8333584,0 79.6329495,24.8335831,0 79.6330877,24.8337297,0 79.6332421,24.8339567,0 79.6333551,24.8341319,0 79.6334674,24.8342428,0 79.6335543,24.8343555,0 79.6337527,24.8345749,0 79.6339873,24.8348398,0 79.6341064,24.8350374,0 79.6343054,24.835249,0 79.6344611,24.8354221,0 79.6345847,24.8355778,0 79.6347066,24.8357205,0 79.634981,24.8359605,0 79.6351529,24.8361202,0 79.6354215,24.8362841,0 79.6356432,24.8364574,0 79.6357843,24.8365432,0 79.6359181,24.8366656,0 79.6360226,24.8367503,0 79.636236,24.8369161,0 79.63647,24.8371052,0 79.6367663,24.8372758,0 79.6369273,24.837318,0 79.6374010012496,24.8373781110952,0 79.6371949,24.8369481,0 79.6371933,24.8369433,0 79.6367379,24.8365576,0 79.6367445,24.8364326,0 79.636506,24.8362128,0 79.6362201,24.8360003,0 79.6361658,24.8358738,0 79.6360022,24.8357577,0 79.6358461815182,24.8356508767296,0 79.6356952,24.8355335,0 79.6351198,24.8349233,0 79.6348808,24.8347192,0 79.6347528,24.8344789,0 79.6344732,24.834208,0 79.6341263,24.8338974,0 79.6339565,24.8336674,0 79.6337662,24.8335119,0 79.6335672,24.8331375,0 79.6332584,24.8326683,0 79.6330953,24.8324567,0 79.6329467,24.832297,0 79.6326424,24.8319342,0 79.6323404,24.8316933,0 79.6321909,24.8315587,0 79.6319875,24.8313728,0 79.6317354,24.8310782,0 79.6314106,24.8308335,0 79.6312228,24.8306185,0 79.6309468,24.8303,0 79.6307816,24.8302073,0 79.6307679,24.8301997,0 79.6306711691388,24.8301418431633,0 79.6305332374315,24.8299812659517,0 79.6304550075079,24.8298330408333,0 79.6303,24.8297513,0 79.630242,24.8297319,0 79.6301441,24.829704,0 79.6300432,24.8296072,0 79.6299959,24.8295804,0 79.6299318,24.829598,0 79.6297796,24.8294591,0 79.6297406447846,24.8292339643132,0 79.6296335933102,24.829159851754,0 79.629511,24.8290238,0 79.6293317,24.828715,0</coordinates></LinearRing></outerBoundaryIs></Polygon>
  </Placemark>
  
    </Document>
</kml>