<?xml version="1.0" encoding="UTF-8"?>
<kml xmlns="http://www.opengis.net/kml/2.2">
    <Document>
        <Placemark xmlns:ns0="http://www.opengis.net/kml/2.2">
	<Style><LineStyle><color>ff0000ff</color></LineStyle><PolyStyle><fill>0</fill></PolyStyle></Style>
	<ExtendedData><SchemaData schemaUrl="#Wave24_v28MAR2025">
		<SimpleData name="area(ha)">30.486047725826410</SimpleData>
		<SimpleData name="site_id">240055_1.1</SimpleData>
		<SimpleData name="Land_parc">240055</SimpleData>
		<SimpleData name="district">Damoh</SimpleData>
		<SimpleData name="block">Tendukheda</SimpleData>
		<SimpleData name="village">Sailwada</SimpleData>
		<SimpleData name="Land Type">Community</SimpleData>
		<SimpleData name="Instance">Wave 2024</SimpleData>
	</SchemaData></ExtendedData>
      <Polygon><outerBoundaryIs><LinearRing><coordinates>79.6754376,23.4106433,0 79.6756119,23.4106062,0 79.675948,23.4105727,0 79.6759645,23.4105072,0 79.6761931,23.4102569,0 79.676444,23.4102413,0 79.676722,23.4102588,0 79.6768974,23.4102157,0 79.6770525,23.4101055,0 79.6772348,23.4099896,0 79.6774642,23.4098553,0 79.6775115,23.4098739,0 79.6778519,23.4098216,0 79.6782309,23.4096813,0 79.6785049,23.4096109,0 79.6791542,23.4093817,0 79.6790954,23.4089465,0 79.678973,23.4085063,0 79.6788539,23.4081925,0 79.6786653,23.4076787,0 79.6786055,23.4073939,0 79.6785042,23.406956,0 79.6784117,23.4066445,0 79.6782616,23.40614,0 79.6781409,23.4057265,0 79.678,23.4051649,0 79.6779272,23.404918,0 79.6778731,23.4047506,0 79.6778359,23.4047048,0 79.6776953,23.4047754,0 79.6776142,23.4048323,0 79.6774261,23.4048821,0 79.6773121,23.4048909,0 79.6771899,23.4049948,0 79.677015,23.405036,0 79.6767982,23.405085,0 79.676674,23.4049261,0 79.6765411,23.4047183,0 79.6763736,23.4047815,0 79.6760737,23.4048498,0 79.6758311,23.404772,0 79.6753852,23.4047035,0 79.6750505,23.4047921,0 79.6746578,23.4048566,0 79.6743999,23.4048397,0 79.6739761,23.4048552,0 79.6737353,23.4048459,0 79.6735296,23.4047088,0 79.673412,23.4046286,0 79.6730039,23.4047653,0 79.6729884,23.4047811,0 79.672932,23.4048719,0 79.6730634,23.4049326,0 79.6732978,23.4050997,0 79.6730868,23.4053044,0 79.6730138,23.4053423,0 79.6729168,23.4054217,0 79.6725641,23.405513,0 79.6724487,23.4055477,0 79.6722782,23.4055983,0 79.672211,23.4055944,0 79.6720627,23.4056515,0 79.6719739,23.4058221,0 79.6719889,23.406042,0 79.6719777,23.4062601,0 79.6720684,23.4065391,0 79.6721617,23.4066487,0 79.6722477,23.4067703,0 79.6723423,23.4068747,0 79.6724317,23.4069823,0 79.672522,23.4071654,0 79.6727224,23.4075545,0 79.6728263,23.407846,0 79.6729059,23.4080212,0 79.6730994,23.4083448,0 79.6731703,23.4085542,0 79.6733909,23.4089146,0 79.6734953,23.4091163,0 79.6735182,23.4093132,0 79.6735227,23.409489,0 79.6735757,23.4096851,0 79.6736184,23.4099252,0 79.6737336,23.4101061,0 79.6738457,23.4103211,0 79.6739585,23.410517,0 79.674107,23.4107202,0 79.6742238,23.4109661,0 79.6743047,23.4111305,0 79.6744034,23.4111151,0 79.6744933,23.4110724,0 79.6745884,23.4110181,0 79.6746731,23.410971,0 79.6753489,23.4107103,0 79.6754376,23.4106433,0</coordinates></LinearRing></outerBoundaryIs><innerBoundaryIs><LinearRing><coordinates>79.6767465,23.407238,0 79.6783147,23.4068043,0 79.6791203,23.4093847,0 79.6775033,23.4098038,0 79.6767465,23.407238,0</coordinates></LinearRing></innerBoundaryIs></Polygon>
  </Placemark>
  
    </Document>
</kml>