<?xml version="1.0" encoding="UTF-8"?>
<kml xmlns="http://www.opengis.net/kml/2.2">
    <Document>
        <Placemark xmlns:ns0="http://www.opengis.net/kml/2.2">
	<Style><LineStyle><color>ff0000ff</color></LineStyle><PolyStyle><fill>0</fill></PolyStyle></Style>
	<ExtendedData><SchemaData schemaUrl="#Wave24_v28MAR2025">
		<SimpleData name="area(ha)">93.479500063493518</SimpleData>
		<SimpleData name="site_id">240025_3.3</SimpleData>
		<SimpleData name="Land_parc">240025</SimpleData>
		<SimpleData name="district">Damoh</SimpleData>
		<SimpleData name="block">Damoh</SimpleData>
		<SimpleData name="village">Pathari</SimpleData>
		<SimpleData name="Land Type">Community</SimpleData>
		<SimpleData name="Instance">Wave 2024</SimpleData>
	</SchemaData></ExtendedData>
      <Polygon><outerBoundaryIs><LinearRing><coordinates>79.5580263,23.7814954,0 79.5579992,23.7815164,0 79.5579757,23.7815328,0 79.5579469,23.7815531,0 79.5579246,23.7815732,0 79.5578915,23.7815876,0 79.5578643,23.7816034,0 79.5578343,23.781615,0 79.5578042,23.7816283,0 79.5577727,23.7816358,0 79.557744,23.7816407,0 79.5577114,23.7816808,0 79.5576943,23.781696,0 79.557684,23.7817003,0 79.5576546,23.7817424,0 79.5576227,23.7817719,0 79.5575998,23.7818652,0 79.5576179,23.7819457,0 79.5574381,23.7825079,0 79.5574052,23.7826147,0 79.5573489,23.7827321,0 79.557545,23.7829258,0 79.5576066,23.7830404,0 79.5576376,23.783106,0 79.5579875,23.7831965,0 79.5581926,23.78324,0 79.5583974,23.7832616,0 79.5585314809709,23.7833508060129,0 79.5585425,23.7833911,0 79.5585914469532,23.7834960120935,0 79.5585985,23.7835168,0 79.5586540266436,23.7837339296776,0 79.5586552017225,23.7837405234808,0 79.5586425,23.7838189,0 79.5586097,23.783996,0 79.558587,23.7842256,0 79.5586075,23.7844329,0 79.5586595,23.7845927,0 79.5587703,23.7847398,0 79.5589076,23.7848765,0 79.5590382,23.7849697,0 79.5591199,23.7849878,0 79.5592561,23.7850004,0 79.5594602382974,23.7850140935653,0 79.5595479,23.7850539,0 79.5598053,23.7851191,0 79.5600827,23.7851318,0 79.5603628,23.7851074,0 79.5604674456333,23.7850765843911,0 79.5606447,23.7850819,0 79.5611689,23.7849684,0 79.5612822,23.7849258,0 79.5612669465654,23.7848573529405,0 79.5612678,23.7848571,0 79.5615098,23.7847881,0 79.5616878,23.7847305,0 79.5619109,23.7847278,0 79.5621205,23.78477,0 79.562374,23.7848836,0 79.5626092,23.7849523,0 79.5628774,23.7850213,0 79.563158,23.7850908,0 79.5633597,23.7851415,0 79.5635008,23.7852509,0 79.5636397,23.7854873,0 79.5638119,23.7855931,0 79.5639395,23.7856932,0 79.5640338,23.7858551,0 79.5641175,23.7860547,0 79.5642041,23.7862246,0 79.5641613,23.7864359,0 79.5641232,23.7865906,0 79.5641186,23.7867174,0 79.5643807,23.7869997,0 79.5644322,23.7870112,0 79.564575,23.7871534,0 79.5646555,23.7872051,0 79.5648199,23.7872604,0 79.5648941,23.7873488,0 79.5648644,23.7874963,0 79.5648812,23.7877407,0 79.5648109,23.7879704,0 79.5647246,23.7883261,0 79.5647664,23.7884208,0 79.5646775,23.7885143,0 79.5646731,23.7885768,0 79.5646989,23.7886322,0 79.5647287043612,23.7887122451784,0 79.5647431,23.7887608,0 79.564818,23.788835,0 79.5649298,23.7888143,0 79.5650178,23.7887865,0 79.5651264,23.7887476,0 79.5654553,23.7888953,0 79.5658034,23.7889514,0 79.5661049,23.7889999,0 79.566397,23.7890592,0 79.5670456,23.7889243,0 79.5677903,23.7888526,0 79.5678955,23.7888406,0 79.5681283,23.7887736,0 79.5683213,23.7887705,0 79.5688647,23.788684,0 79.569112,23.7886819,0 79.5693597,23.7886653,0 79.5695574,23.7886175,0 79.5697323,23.7885836,0 79.5698464,23.7885654,0 79.5701517,23.7885433,0 79.5703723,23.7885046,0 79.5706374,23.7884642,0 79.5709194,23.7884135,0 79.5712428,23.7883588,0 79.5717428,23.7883911,0 79.5720326,23.7883754,0 79.5722984,23.7883075,0 79.5725663,23.7882598,0 79.572812,23.7882333,0 79.5732342,23.7882317,0 79.5735066,23.7882197,0 79.573776,23.7881406,0 79.5740416,23.7881051,0 79.5743225,23.7881049,0 79.5745494,23.788177,0 79.5749444,23.7881307,0 79.5750637,23.7881601,0 79.5751731,23.7881142,0 79.5751862,23.7880272,0 79.5751535,23.7879362,0 79.5750711,23.787917,0 79.5749743,23.7878505,0 79.5748487,23.7876715,0 79.5746914,23.7874768,0 79.5745738,23.7873756,0 79.5744467,23.7872113,0 79.5743262,23.7871471,0 79.5741987,23.7870471,0 79.5740994,23.7869367,0 79.5739167,23.7867647,0 79.573825,23.7866868,0 79.5737222,23.7866114,0 79.5736218,23.7865032,0 79.5735707,23.7863936,0 79.5735224,23.7862473,0 79.5734208,23.7861315,0 79.5733629,23.7860247,0 79.5733081,23.7859458,0 79.5731718,23.7858628,0 79.5730143,23.7857552,0 79.5728908,23.7856341,0 79.572842,23.7855364,0 79.572826,23.7854349,0 79.572774,23.7852714,0 79.5726844,23.7850948,0 79.5726117,23.7849522,0 79.572514,23.78477,0 79.5724522,23.7845938,0 79.5724246,23.7844599,0 79.5723699,23.7842937,0 79.5723301,23.7841829,0 79.5723286,23.7841248,0 79.5722066,23.7839627,0 79.5720675,23.7838887,0 79.5719872,23.7838969,0 79.5718673,23.7839616,0 79.5717528,23.783987,0 79.5715769,23.7839923,0 79.5713892,23.7839197,0 79.5710092,23.783774,0 79.570867,23.7837167,0 79.5707895,23.7836082,0 79.570743,23.7834517,0 79.5705436,23.7833048,0 79.5703013,23.7832914,0 79.5701004,23.7833057,0 79.5699766,23.7833157,0 79.5695599,23.7834139,0 79.5691867,23.7835985,0 79.5688857,23.7836597,0 79.5686588,23.7834283,0 79.5685333,23.7833688,0 79.5683272,23.7833201,0 79.5681416,23.7833182,0 79.5679141,23.7832668,0 79.5677358,23.7831868,0 79.5676592,23.7830838,0 79.5675711,23.7829534,0 79.5674345,23.7826446,0 79.5673869,23.7825023,0 79.5670363,23.7819383,0 79.5668995,23.7816241,0 79.5669746,23.7813836,0 79.56709,23.7812268,0 79.5671275,23.7811264,0 79.5671693,23.7810289,0 79.5669612,23.7809466,0 79.5666238,23.7808313,0 79.5663084,23.7808887,0 79.5660837,23.7809236,0 79.5655731,23.7809462,0 79.5652518,23.7810548,0 79.5647863,23.7811916,0 79.5647048,23.7810931,0 79.5646398,23.7810221,0 79.5645605,23.7809156,0 79.564405,23.7806903,0 79.5642915,23.7804365,0 79.5641622,23.7801315,0 79.563967,23.7798333,0 79.5637511,23.7799098,0 79.563621,23.7800713,0 79.563432,23.7802615,0 79.5628935,23.7804592,0 79.5626563,23.7805623,0 79.5623893,23.7805205,0 79.562283,23.780638,0 79.562161,23.7805542,0 79.5623625,23.7803122,0 79.5625126,23.7801083,0 79.5626104,23.7798748,0 79.5627258,23.7796862,0 79.5626636,23.7795281,0 79.5624473,23.7795196,0 79.562198,23.7796629,0 79.5619521,23.7797716,0 79.5615722,23.7798925,0 79.561387,23.7798617,0 79.5612705,23.7799102,0 79.561042,23.7798677,0 79.5609169,23.7800249,0 79.5608017,23.7801432,0 79.5605629,23.7803792,0 79.5602801,23.7805966,0 79.5601292,23.7806205,0 79.5599853,23.7806117,0 79.5598047,23.7805979,0 79.5596311,23.7805742,0 79.5594385,23.7805546,0 79.559322,23.7805898,0 79.5592912,23.7806233,0 79.559122,23.7807165,0 79.5590496,23.7807567,0 79.5590109,23.780748,0 79.5589835,23.7807408,0 79.5589724,23.7807187,0 79.5589487,23.7807104,0 79.5588565,23.7807049,0 79.5587996,23.7807066,0 79.5587373,23.7807367,0 79.558705,23.7807655,0 79.5586643,23.7807848,0 79.5586537,23.7807969,0 79.5586312,23.7808455,0 79.558504,23.780829,0 79.5585149,23.7809353,0 79.5584759,23.780921,0 79.5583799,23.7809386,0 79.5583684,23.7809803,0 79.5583629,23.7809868,0 79.5583242,23.7810545,0 79.5582283,23.7811662,0 79.5580846,23.781371,0 79.5580573303862,23.7814839645985,0 79.5580552,23.7814842,0 79.5580263,23.7814954,0</coordinates></LinearRing></outerBoundaryIs></Polygon>
  </Placemark>
  
    </Document>
</kml>