<?xml version="1.0" encoding="UTF-8"?>
<kml xmlns="http://www.opengis.net/kml/2.2">
    <Document>
        <Placemark xmlns:ns0="http://www.opengis.net/kml/2.2">
	<Style><LineStyle><color>ff0000ff</color></LineStyle><PolyStyle><fill>0</fill></PolyStyle></Style>
	<ExtendedData><SchemaData schemaUrl="#Wave24_v28MAR2025">
		<SimpleData name="area(ha)">0.224179957199484</SimpleData>
		<SimpleData name="site_id">240095_1.1</SimpleData>
		<SimpleData name="Land_parc">240095</SimpleData>
		<SimpleData name="district">Chhatarpur</SimpleData>
		<SimpleData name="block">Nowgong</SimpleData>
		<SimpleData name="village">Sahaniya</SimpleData>
		<SimpleData name="Land Type">Farmer</SimpleData>
		<SimpleData name="Instance">Wave 2024</SimpleData>
	</SchemaData></ExtendedData>
      <Polygon><outerBoundaryIs><LinearRing><coordinates>79.4994848565854,24.9991946809334,0 79.4994919603877,24.9992217641793,0 79.4994966962558,24.9992495874047,0 79.4995126798108,24.9992785945971,0 79.4995387270856,24.9993158895587,0 79.4995493827889,24.9993443047676,0 79.4995594465087,24.9993697600589,0 79.4995766140308,24.9993963993172,0 79.499583717833,24.999422446592,0 79.4995982214292,24.9994413900646,0 79.4996275246134,24.9994476058916,0 79.4996497239953,24.9994333982871,0 79.4996739953196,24.9994254065096,0 79.4997139542071,24.9994097189464,0 79.4997482892511,24.9994023191524,0 79.4997897,24.9993895,0 79.4998206,24.9993781,0 79.4998655,24.9993651,0 79.4998826,24.9993561,0 79.4999297,24.9993376,0 79.4999742,24.9993251,0 79.4999978,24.9993133,0 79.5000051,24.9993078,0 79.5000404,24.9992846,0 79.5000599,24.999277,0 79.5001070312632,24.999262759038,0 79.5001697815161,24.9992248720928,0 79.5002100363954,24.9992183602741,0 79.500215364247,24.9991785493825,0 79.5002082604448,24.9991382945033,0 79.5001910929228,24.9991193510307,0 79.5001786612688,24.9991122472285,0 79.5001792532524,24.9990885678877,0 79.5001644536644,24.9990702163987,0 79.5001378144061,24.9990435771403,0 79.5001135430818,24.9990187138326,0 79.5000886797741,24.9990098340798,0 79.5000650004333,24.9989950344918,0 79.5000247455541,24.9990003623435,0 79.4999590353836,24.999016937882,0 79.4998838534767,24.9990376573052,0 79.4998370867788,24.9990471290414,0 79.4998157753722,24.9990549728231,0 79.4997968318996,24.9990709563781,0 79.4997672327237,24.9990721403451,0 79.4997346736302,24.9990816120814,0 79.4996956027179,24.9990751002627,0 79.4996399562672,24.9990970036529,0 79.4995890456847,24.9991135791914,0 79.4994913684041,24.999148506219,0 79.4994727209233,24.9991588659305,0 79.4994801207173,24.9991813613042,0 79.4994848565854,24.9991946809334,0</coordinates></LinearRing></outerBoundaryIs></Polygon>
  </Placemark>
  
    </Document>
</kml>