<?xml version="1.0" encoding="UTF-8"?>
<kml xmlns="http://www.opengis.net/kml/2.2">
    <Document>
        <Placemark xmlns:ns0="http://www.opengis.net/kml/2.2">
	<Style><LineStyle><color>ff0000ff</color></LineStyle><PolyStyle><fill>0</fill></PolyStyle></Style>
	<ExtendedData><SchemaData schemaUrl="#Wave24_v28MAR2025">
		<SimpleData name="area(ha)">13.293634078290930</SimpleData>
		<SimpleData name="site_id">240081_1.1</SimpleData>
		<SimpleData name="Land_parc">240081</SimpleData>
		<SimpleData name="district">Chhatarpur</SimpleData>
		<SimpleData name="block">Nowgong</SimpleData>
		<SimpleData name="village">Chaukara (Khurda)</SimpleData>
		<SimpleData name="Land Type">Community</SimpleData>
		<SimpleData name="Instance">Wave 2024</SimpleData>
	</SchemaData></ExtendedData>
      <Polygon><outerBoundaryIs><LinearRing><coordinates>79.5286577,25.0988909,0 79.5285993,25.0988953,0 79.5284091,25.0989133,0 79.5282028,25.0989111,0 79.527962,25.0989024,0 79.5275976,25.0989223,0 79.5273934,25.0990014,0 79.527251,25.0990229,0 79.5270934,25.0990113,0 79.5269337,25.0991455,0 79.5268109,25.0992645,0 79.5266358,25.0992823,0 79.5264667,25.0994064,0 79.5263158,25.0994884,0 79.5261289,25.0995186,0 79.525999,25.0996405,0 79.5259087,25.0996799,0 79.5257569,25.0997165,0 79.5255511,25.0998641,0 79.5254322,25.0999472,0 79.5253051,25.1000499,0 79.5251699,25.1001061,0 79.5250572,25.1001548,0 79.5249615,25.1002594,0 79.5248862,25.1003867,0 79.5247892,25.1004825,0 79.5247348,25.1007719,0 79.5247369,25.1009276,0 79.524725,25.1010833,0 79.5247478,25.1013862,0 79.5248454,25.1016646,0 79.5248908,25.1017868,0 79.5249437,25.1019262,0 79.5250314,25.102025,0 79.5251556,25.1021085,0 79.5252689,25.1021875,0 79.5253383,25.1022675,0 79.5254341,25.1024861,0 79.5254777,25.102585,0 79.5255104,25.1026922,0 79.5255504,25.1027969,0 79.5256733,25.102832,0 79.5259198,25.102626,0 79.526053,25.1025074,0 79.5264037,25.1022332,0 79.5265543,25.1021623,0 79.526712,25.1021258,0 79.5270221,25.1020885,0 79.5272256,25.1020409,0 79.527354,25.1020062,0 79.5275826,25.1019591,0 79.5280203,25.1018769,0 79.5284017,25.1018364,0 79.5285176,25.1017684,0 79.5286717,25.1014238,0 79.5288001,25.1010495,0 79.5288971,25.1008466,0 79.5290193,25.1005603,0 79.5291227,25.1002945,0 79.5293246,25.0997733,0 79.5293497,25.0993563,0 79.5293707,25.0988819,0 79.5292589,25.0988222,0 79.5289479,25.0988445,0 79.5286577,25.0988909,0</coordinates></LinearRing></outerBoundaryIs></Polygon>
  </Placemark>
  
    </Document>
</kml>