<?xml version="1.0" encoding="UTF-8"?>
<kml xmlns="http://www.opengis.net/kml/2.2">
    <Document>
        <Placemark xmlns:ns0="http://www.opengis.net/kml/2.2">
	<Style><LineStyle><color>ff0000ff</color></LineStyle><PolyStyle><fill>0</fill></PolyStyle></Style>
	<ExtendedData><SchemaData schemaUrl="#Wave24_v28MAR2025">
		<SimpleData name="area(ha)">1.520478007374704</SimpleData>
		<SimpleData name="site_id">240052_1.1</SimpleData>
		<SimpleData name="Land_parc">240052</SimpleData>
		<SimpleData name="district">Chhatarpur</SimpleData>
		<SimpleData name="block">Bijawar</SimpleData>
		<SimpleData name="village">Gulat</SimpleData>
		<SimpleData name="Land Type">Farmer</SimpleData>
		<SimpleData name="Instance">Wave 2024</SimpleData>
	</SchemaData></ExtendedData>
      <Polygon><outerBoundaryIs><LinearRing><coordinates>79.4781994,24.5766949,0 79.4781615,24.5766465,0 79.478178,24.5765961,0 79.4782141,24.5765263,0 79.4783186,24.5763401,0 79.4783624541453,24.5762979550212,0 79.478335681125,24.5762397855227,0 79.4782670264508,24.5762369069966,0 79.477989134524,24.5762985525737,0 79.4779497637505,24.5762943311818,0 79.4777656795613,24.57620507602,0 79.477679890202,24.5761867299704,0 79.4775543934716,24.5761920160383,0 79.4773566941752,24.5763396808755,0 79.4774256616287,24.5764649155545,0 79.4774992221822,24.5766054907089,0 79.4775150792086,24.5767760706626,0 79.477577249982,24.5768706484297,0 79.4777329,24.576975,0 79.4781054,24.5772997,0 79.4782684,24.5775019,0 79.4783242,24.5775418,0 79.4785001,24.5774516,0 79.4788157,24.5774292,0 79.4789582,24.5774985,0 79.4791189,24.5775849,0 79.479144,24.5774497,0 79.4791819,24.5771901,0 79.47915,24.5771583,0 79.479172,24.5771127,0 79.4791042,24.5769626,0 79.4790645,24.5768696,0 79.4789767,24.5768383,0 79.4788002,24.5770177,0 79.4786486,24.5767754,0 79.4785763,24.5765539,0 79.4783667,24.5764407,0 79.4782472,24.5765197,0 79.4781994,24.5766949,0</coordinates></LinearRing></outerBoundaryIs></Polygon>
  </Placemark>
  
    </Document>
</kml>