<?xml version="1.0" encoding="UTF-8"?>
<kml xmlns="http://www.opengis.net/kml/2.2">
    <Document>
        <Placemark xmlns:ns0="http://www.opengis.net/kml/2.2">
	<Style><LineStyle><color>ff0000ff</color></LineStyle><PolyStyle><fill>0</fill></PolyStyle></Style>
	<ExtendedData><SchemaData schemaUrl="#Wave24_v28MAR2025">
		<SimpleData name="area(ha)">7.810546610776894</SimpleData>
		<SimpleData name="site_id">240025_2.3</SimpleData>
		<SimpleData name="Land_parc">240025</SimpleData>
		<SimpleData name="district">Damoh</SimpleData>
		<SimpleData name="block">Damoh</SimpleData>
		<SimpleData name="village">Pathari</SimpleData>
		<SimpleData name="Land Type">Community land</SimpleData>
		<SimpleData name="Instance">Wave 2024</SimpleData>
	</SchemaData></ExtendedData>
      <Polygon><outerBoundaryIs><LinearRing><coordinates>79.5705361,23.7886062,0 79.5700183,23.7886279,0 79.5694326,23.7887246,0 79.5694058,23.7887792,0 79.5692463,23.7888881,0 79.5690612,23.7890958,0 79.5689497,23.789356,0 79.5689609,23.7896551,0 79.569087,23.7899368,0 79.5692994,23.7901558,0 79.5695743,23.7902525,0 79.5699088,23.7902487,0 79.5702022,23.7901639,0 79.570796,23.7899191,0 79.5709453,23.7898463,0 79.5711584,23.7896721,0 79.5712772,23.7894501,0 79.5715122,23.7894603,0 79.5716135,23.7892697,0 79.5716898,23.7891187,0 79.5718254,23.7888441,0 79.5719976,23.788941,0 79.5722491,23.7891858,0 79.5724784,23.789369,0 79.5726909,23.7894485,0 79.5731001,23.789579,0 79.5734331,23.789592,0 79.5738667,23.7896998,0 79.5742135,23.789888,0 79.5745023,23.7899236,0 79.5746927,23.7898071,0 79.5749464,23.789725,0 79.5752412,23.7896818,0 79.5753013,23.7895827,0 79.5752354,23.789372,0 79.5752135,23.7892496,0 79.5753519,23.7891016,0 79.575315,23.7889996,0 79.5749143,23.7888786,0 79.5741636,23.7888562,0 79.5740086,23.7887633,0 79.5738066,23.7887001,0 79.5734411,23.7885347,0 79.5732273,23.7884083,0 79.5730037,23.7883387,0 79.572774,23.7883158,0 79.5725264,23.7883172,0 79.5722617,23.7883402,0 79.572059,23.7883718,0 79.5719034,23.788401,0 79.5716811,23.7884396,0 79.5715032,23.7884639,0 79.5709172,23.7885647,0 79.5706928,23.78859,0 79.5705361,23.7886062,0</coordinates></LinearRing></outerBoundaryIs></Polygon>
  </Placemark>
  
    </Document>
</kml>