<?xml version="1.0" encoding="UTF-8"?>
<kml xmlns="http://www.opengis.net/kml/2.2">
    <Document>
        <Placemark xmlns:ns0="http://www.opengis.net/kml/2.2">
	<Style><LineStyle><color>ff0000ff</color></LineStyle><PolyStyle><fill>0</fill></PolyStyle></Style>
	<ExtendedData><SchemaData schemaUrl="#Wave24_v28MAR2025">
		<SimpleData name="area(ha)">0.575021460291953</SimpleData>
		<SimpleData name="site_id">240049_1.1</SimpleData>
		<SimpleData name="Land_parc">240049</SimpleData>
		<SimpleData name="district">Chhatarpur</SimpleData>
		<SimpleData name="block">Bijawar</SimpleData>
		<SimpleData name="village">Gulat</SimpleData>
		<SimpleData name="Land Type">Farmer</SimpleData>
		<SimpleData name="Instance">Wave 2024</SimpleData>
	</SchemaData></ExtendedData>
      <Polygon><outerBoundaryIs><LinearRing><coordinates>79.4753370429471,24.5752698712822,0 79.475333463972,24.5752430624422,0 79.4753244193282,24.5751840711407,0 79.4753474196262,24.5750575802813,0 79.4754805106023,24.5750268003472,0 79.4754890726095,24.5749644175826,0 79.4754432543621,24.5747891509615,0 79.4754378389459,24.5746721890704,0 79.4754600830093,24.5746081599544,0 79.475420006263,24.5746237063091,0 79.475400971923,24.5745838009289,0 79.4754104683321,24.5745651562254,0 79.4754344551461,24.5745587058714,0 79.4754300786169,24.574517164021,0 79.4754387141125,24.574287453162,0 79.4753870968145,24.5742788988986,0 79.4752740183828,24.5742688300331,0 79.4750973185781,24.5741938627096,0 79.475036865635,24.5741896809757,0 79.4749060078558,24.574197280234,0 79.4748855638354,24.5742738213746,0 79.4748667903728,24.5743735823544,0 79.4749182624491,24.5745049546715,0 79.4749807534565,24.5745020177316,0 79.4749987848942,24.5745441440561,0 79.4749672476869,24.5745697049276,0 79.4749172550686,24.5745579319267,0 79.4749329818836,24.5747098026189,0 79.4749967399648,24.5749246290577,0 79.4749478,24.5752339,0 79.474957,24.5752382,0 79.4750603,24.5752857,0 79.4753144314384,24.5753642389392,0 79.4753370429471,24.5752698712822,0</coordinates></LinearRing></outerBoundaryIs></Polygon>
  </Placemark>
  
    </Document>
</kml>