<?xml version="1.0" encoding="UTF-8"?>
<kml xmlns="http://www.opengis.net/kml/2.2">
    <Document>
        <Placemark xmlns:ns0="http://www.opengis.net/kml/2.2">
	<Style><LineStyle><color>ff0000ff</color></LineStyle><PolyStyle><fill>0</fill></PolyStyle></Style>
	<ExtendedData><SchemaData schemaUrl="#Wave24_v28MAR2025">
		<SimpleData name="area(ha)">23.904989603734016</SimpleData>
		<SimpleData name="site_id">240071_1.1</SimpleData>
		<SimpleData name="Land_parc">240071</SimpleData>
		<SimpleData name="district">Chhatarpur</SimpleData>
		<SimpleData name="block">Nowgong</SimpleData>
		<SimpleData name="village">Chirvari</SimpleData>
		<SimpleData name="Land Type">Community</SimpleData>
		<SimpleData name="Instance">Wave 2024</SimpleData>
	</SchemaData></ExtendedData>
      <Polygon><outerBoundaryIs><LinearRing><coordinates>79.3772111,25.2403862,0 79.3773824,25.2406723,0 79.3774959,25.2409918,0 79.377691,25.2414985,0 79.3778898,25.241976,0 79.378353,25.2423863,0 79.3788674,25.2428654,0 79.3795932,25.2434863,0 79.3798583,25.2436977,0 79.3800828,25.243929,0 79.3805981,25.2443965,0 79.3808022,25.2445773,0 79.3812401,25.2449646,0 79.3817502,25.2453994,0 79.3820792,25.2456712,0 79.3824717,25.2460021,0 79.3829391,25.2464451,0 79.3832292,25.246774,0 79.3834498,25.2469859,0 79.3837437,25.2470644,0 79.3841127,25.2472759,0 79.3846875,25.2473762,0 79.3847682,25.2473949,0 79.3847438,25.2472552,0 79.3846807,25.247161,0 79.3842176,25.2467379,0 79.3837578,25.2462739,0 79.383599,25.2459344,0 79.3837223,25.2458036,0 79.3839092,25.245705,0 79.3840458,25.2456538,0 79.3840797,25.2456437,0 79.3840661,25.2454545,0 79.3839889,25.2453358,0 79.3839108,25.2449619,0 79.3839776,25.2444561,0 79.3836796685183,25.2438457309379,0 79.3830009660358,25.2435213186512,0 79.382497,25.2430078,0 79.382346,25.2427196,0 79.3820349,25.2420365,0 79.3808591,25.2408908,0 79.380297,25.240484,0 79.3796786,25.2400252,0 79.3796002,25.2399492,0 79.3792526187642,25.239809873258,0 79.3789457698335,25.2397040658857,0 79.3783703433319,25.2397354901033,0 79.3782652660654,25.2396130260667,0 79.3780071590135,25.2394080079544,0 79.3778723398021,25.2392933043873,0 79.3774086624713,25.239614401063,0 79.3772009210134,25.2398574349815,0 79.3771616,25.2402648,0 79.3772111,25.2403862,0</coordinates></LinearRing></outerBoundaryIs></Polygon>
  </Placemark>
  
    </Document>
</kml>