<?xml version="1.0" encoding="UTF-8"?>
<kml xmlns="http://www.opengis.net/kml/2.2">
    <Document>
        <Placemark xmlns:ns0="http://www.opengis.net/kml/2.2">
	<Style><LineStyle><color>ff0000ff</color></LineStyle><PolyStyle><fill>0</fill></PolyStyle></Style>
	<ExtendedData><SchemaData schemaUrl="#Wave24_v28MAR2025">
		<SimpleData name="area(ha)">2.737581789869699</SimpleData>
		<SimpleData name="site_id">240043_1.1</SimpleData>
		<SimpleData name="Land_parc">240043</SimpleData>
		<SimpleData name="district">Chhatarpur</SimpleData>
		<SimpleData name="block">Nowgong</SimpleData>
		<SimpleData name="village">Teela</SimpleData>
		<SimpleData name="Land Type">Farmer</SimpleData>
		<SimpleData name="Instance">Wave 2024</SimpleData>
	</SchemaData></ExtendedData>
      <Polygon><outerBoundaryIs><LinearRing><coordinates>79.3412130724055,25.1182526932701,0 79.3411589,25.1182916,0 79.3411312,25.1183027,0 79.340953,25.1184004,0 79.3408465028065,25.1184942959604,0 79.3408322208741,25.1185918891653,0 79.3408679257051,25.1187251872013,0 79.3409345747231,25.1188965703905,0 79.3410107450294,25.1191417435638,0 79.3409155321466,25.1192179138701,0 79.3408036570092,25.1193059857868,0 79.3407512899236,25.1193892970593,0 79.3407393883133,25.1197034995727,0 79.3407809,25.1198229,0 79.340833,25.1198262,0 79.3410119351904,25.1199332006526,0 79.3412475870755,25.1200046103148,0 79.3414241772192,25.1199949402564,0 79.3414879996048,25.1199403416189,0 79.3415229605852,25.1198699733476,0 79.341683632325,25.1198271275503,0 79.341716956834,25.119715252413,0 79.3417467108599,25.1196319411405,0 79.3418347827765,25.1196045674367,0 79.3418752482518,25.1194391350527,0 79.3419514185581,25.1194450858579,0 79.3422608604274,25.1194807906889,0 79.3425881547122,25.1195569609952,0 79.3425929153563,25.119714062252,0 79.3426024474132,25.119931583543,0 79.3427738,25.1199077,0 79.3431689532976,25.1198057046517,0 79.3430839407924,25.1196824082367,0 79.3430785010589,25.1195426790628,0 79.3430642191265,25.1194070007047,0 79.343088766198,25.1191964909715,0 79.3431113792576,25.1189560784422,0 79.3429507075117,25.1189358457081,0 79.3427269572431,25.1189049015177,0 79.3426067509784,25.118881098297,0 79.34245917101,25.1188442033049,0 79.3423163516857,25.1188215902452,0 79.3420854604448,25.1187835050921,0 79.3419783459515,25.118748990422,0 79.3418629003311,25.1187335183286,0 79.3416843761757,25.1187097151078,0 79.3415237044359,25.1186787709209,0 79.3415463174956,25.1183205324491,0 79.3415415568514,25.1182336506935,0 79.341512397906,25.1182300802104,0 79.3414201604258,25.1182259146468,0 79.3413035246442,25.1182265097273,0 79.3412130724055,25.1182526932701,0</coordinates></LinearRing></outerBoundaryIs></Polygon>
  </Placemark>
  
    </Document>
</kml>