<?xml version="1.0" encoding="UTF-8"?>
<kml xmlns="http://www.opengis.net/kml/2.2">
    <Document>
        <Placemark xmlns:ns0="http://www.opengis.net/kml/2.2">
	<Style><LineStyle><color>ff0000ff</color></LineStyle><PolyStyle><fill>0</fill></PolyStyle></Style>
	<ExtendedData><SchemaData schemaUrl="#Wave24_v28MAR2025">
		<SimpleData name="area(ha)">2.147898648965231</SimpleData>
		<SimpleData name="site_id">240045_1.1</SimpleData>
		<SimpleData name="Land_parc">240045</SimpleData>
		<SimpleData name="district">Chhatarpur</SimpleData>
		<SimpleData name="block">Bijawar</SimpleData>
		<SimpleData name="village">Gulat</SimpleData>
		<SimpleData name="Land Type">Farmer</SimpleData>
		<SimpleData name="Instance">Wave 2024</SimpleData>
	</SchemaData></ExtendedData>
      <Polygon><outerBoundaryIs><LinearRing><coordinates>79.4808311,24.5855019,0 79.480872,24.5854926,0 79.4809040673136,24.5854232738273,0 79.4809694837062,24.5853995258648,0 79.4809941888644,24.5854315054257,0 79.4811271,24.5853494,0 79.481494,24.5851286,0 79.4815275,24.5850528,0 79.4815357,24.5846809,0 79.4815413,24.5844118,0 79.4815607,24.5842006,0 79.481595,24.5839407,0 79.4816404,24.5836305,0 79.4815506742978,24.5832892191629,0 79.4814942272073,24.5831890654967,0 79.4812580700933,24.5832940787615,0 79.4810738147547,24.583344941399,0 79.4810263241471,24.5833874203235,0 79.4809436824035,24.583511555319,0 79.4809032481129,24.583677121425,0 79.4806892182557,24.5837179199998,0 79.4806103838865,24.5837034560937,0 79.4805266313524,24.5837426399884,0 79.4805372507912,24.5839243422304,0 79.480489170711,24.5840156308988,0 79.4804480614518,24.5840601266519,0 79.4804386726702,24.5841303267685,0 79.4804414156817,24.5842977151559,0 79.480483218364,24.5843318977276,0 79.4805894445441,24.584376903968,0 79.4805694635913,24.584882434834,0 79.4806326514638,24.5853087468949,0 79.4807589414938,24.585549219006,0 79.4808311,24.5855019,0</coordinates></LinearRing></outerBoundaryIs></Polygon>
  </Placemark>
  
    </Document>
</kml>