<?xml version="1.0" encoding="UTF-8"?>
<kml xmlns="http://www.opengis.net/kml/2.2">
    <Document>
        <Placemark xmlns:ns0="http://www.opengis.net/kml/2.2">
	<Style><LineStyle><color>ff0000ff</color></LineStyle><PolyStyle><fill>0</fill></PolyStyle></Style>
	<ExtendedData><SchemaData schemaUrl="#Wave24_v28MAR2025">
		<SimpleData name="area(ha)">32.514111426836443</SimpleData>
		<SimpleData name="site_id">240026_2.2</SimpleData>
		<SimpleData name="Land_parc">240026</SimpleData>
		<SimpleData name="district">Damoh</SimpleData>
		<SimpleData name="block">Damoh</SimpleData>
		<SimpleData name="village">Halgaj</SimpleData>
		<SimpleData name="Land Type">Community</SimpleData>
		<SimpleData name="Instance">Wave 2024</SimpleData>
	</SchemaData></ExtendedData>
      <Polygon><outerBoundaryIs><LinearRing><coordinates>79.5769465,23.7998428,0 79.5766611,23.7993698,0 79.576759,23.799125,0 79.5765194,23.7983016,0 79.5763718,23.7983016,0 79.5761526,23.79841,0 79.5759183,23.7984324,0 79.5758254,23.7982764,0 79.5758991,23.7980553,0 79.5759844,23.7977961,0 79.5759312,23.7975524,0 79.5757592,23.7974982,0 79.5755501,23.7975299,0 79.5752586,23.7975782,0 79.5750791,23.7974538,0 79.5750653,23.7971115,0 79.5752394,23.7970545,0 79.5754627,23.7968828,0 79.5756494,23.7966999,0 79.5756554,23.796494,0 79.5757026,23.7963206,0 79.5758143,23.7962289,0 79.5759378,23.7961496,0 79.5761611,23.7961013,0 79.5763838,23.796098,0 79.5765949,23.7960264,0 79.5767792,23.7958922,0 79.5769374,23.7957318,0 79.5770097,23.7956059,0 79.5769228,23.7952769,0 79.5767974,23.7950858,0 79.5766451,23.7949329,0 79.5765488,23.7947883,0 79.5764987,23.7945508,0 79.5763594,23.7945417,0 79.5762339,23.7946146,0 79.5760996,23.7947251,0 79.5759653,23.7948509,0 79.5758617,23.7949585,0 79.5757908,23.7950447,0 79.5757043,23.7951239,0 79.5756064,23.7951709,0 79.5755062,23.7951759,0 79.5753956,23.7951394,0 79.5750932,23.7951044,0 79.5748895,23.7951093,0 79.5747161,23.7951122,0 79.5746652,23.795017,0 79.5747093,23.7948412,0 79.5747015,23.7946042,0 79.5747194,23.7944167,0 79.5747747,23.7942602,0 79.5747971,23.7941105,0 79.5747786,23.7939427,0 79.5747634,23.793709,0 79.5746782,23.7934822,0 79.5746247,23.7933307,0 79.5745144,23.7932454,0 79.5741546,23.7929907,0 79.5741543,23.7929917,0 79.5740659,23.792986,0 79.574084,23.792947,0 79.5741647,23.7928545,0 79.5741828,23.7928056,0 79.5743709,23.792698,0 79.5743832,23.7926917,0 79.5744301,23.7926022,0 79.5744387,23.7925824,0 79.5744395,23.792572,0 79.5744577,23.7924904,0 79.5744742,23.7924645,0 79.5744953,23.7923735,0 79.5745409,23.7923265,0 79.5745715,23.7922604,0 79.5745909,23.792219,0 79.574635,23.7921649,0 79.5746795,23.7921373,0 79.574708,23.7921154,0 79.574722,23.7920856,0 79.5748307,23.7920614,0 79.5749584,23.7920527,0 79.5750777,23.7920718,0 79.5751499,23.7920949,0 79.5752387,23.7921522,0 79.5757301,23.792426,0 79.5759569,23.792518,0 79.5763268,23.7925926,0 79.5764126,23.7924815,0 79.5762991,23.7921804,0 79.5761455,23.791846,0 79.5759727,23.7916373,0 79.5758937,23.7914875,0 79.5758443,23.7914133,0 79.5757241,23.7912503,0 79.5755832,23.7909989,0 79.5755769,23.7908942,0 79.5754057,23.7907792,0 79.5753311,23.7907807,0 79.57512,23.7908165,0 79.5749109,23.7907677,0 79.5747074,23.7906757,0 79.5745051,23.7905804,0 79.5742459,23.7905207,0 79.5738981,23.7906128,0 79.5738272,23.7909213,0 79.5738546,23.7910808,0 79.5739123,23.7912317,0 79.5740369,23.7914304,0 79.574162,23.7916654,0 79.5742348,23.7919485,0 79.5742727,23.7922494,0 79.5741217,23.7923681,0 79.5740301,23.792389,0 79.573869,23.7923458,0 79.5737108,23.7922961,0 79.5736571,23.7922858,0 79.5736023,23.7922415,0 79.5734496,23.7921838,0 79.5733569,23.7922295,0 79.5731907,23.7922839,0 79.5731865,23.7924172,0 79.5732145,23.7926406,0 79.5732295,23.7928493,0 79.5731494,23.7930264,0 79.5730038,23.7933336,0 79.5729307,23.7935413,0 79.5728856,23.7937195,0 79.5728496,23.7939075,0 79.5727352,23.7941313,0 79.5726723,23.7943136,0 79.5723442,23.794703,0 79.5722013,23.7949643,0 79.5721715,23.7951203,0 79.5721157,23.7953504,0 79.572068,23.7954654,0 79.5720332,23.7956059,0 79.5718039,23.7959985,0 79.5717821,23.7961584,0 79.5717088,23.796432,0 79.5715998,23.7966389,0 79.5715486,23.7967785,0 79.5714624,23.7970208,0 79.5713234,23.7973965,0 79.5713239,23.7974872,0 79.5713238,23.7974882,0 79.5713242,23.7974897,0 79.5713236,23.7975006,0 79.5713228,23.7975018,0 79.5713218,23.7975023,0 79.5713195,23.7975014,0 79.5713148,23.7974962,0 79.571302,23.7974803,0 79.5712944,23.7975923,0 79.5712853,23.7977402,0 79.5713181,23.7978275,0 79.5713405,23.797921,0 79.5713523,23.7980022,0 79.5716056,23.7980278,0 79.5717227,23.7980435,0 79.5719612,23.7981328,0 79.5721623,23.7983012,0 79.5723079,23.7984158,0 79.5723896,23.7984578,0 79.5725128,23.7985342,0 79.5725421,23.7986329,0 79.5725757,23.7987975,0 79.5725495,23.799021,0 79.5725381,23.799175,0 79.5725517,23.7992771,0 79.5726268,23.7994234,0 79.5726596,23.7995458,0 79.5727664,23.799612,0 79.5730159,23.7997424,0 79.5731303,23.7998093,0 79.5734208,23.7998653,0 79.5738557,23.7999119,0 79.5739826,23.7999369,0 79.5740885,23.799969,0 79.5741594,23.7999942,0 79.5743629,23.800025,0 79.5746561,23.800061,0 79.5747925,23.800083,0 79.5750082,23.800119,0 79.5751979,23.8001412,0 79.5754102,23.8001476,0 79.5757174,23.8001203,0 79.5760466,23.7999885,0 79.5762401,23.7998659,0 79.576415,23.7997518,0 79.5764956,23.7996958,0 79.5765686,23.799658,0 79.5767432,23.799769,0 79.57686,23.7998847,0 79.5768801,23.7998836,0 79.5769465,23.7998428,0</coordinates></LinearRing></outerBoundaryIs></Polygon>
  </Placemark>
  
    </Document>
</kml>