<?xml version="1.0" encoding="UTF-8"?>
<kml xmlns="http://www.opengis.net/kml/2.2">
    <Document>
        <Placemark xmlns:ns0="http://www.opengis.net/kml/2.2">
	<Style><LineStyle><color>ff0000ff</color></LineStyle><PolyStyle><fill>0</fill></PolyStyle></Style>
	<ExtendedData><SchemaData schemaUrl="#Wave24_v28MAR2025">
		<SimpleData name="area(ha)">5.717783988030162</SimpleData>
		<SimpleData name="site_id">240178_2.4</SimpleData>
		<SimpleData name="Land_parc">240178</SimpleData>
		<SimpleData name="district">Katni</SimpleData>
		<SimpleData name="block">Barwara</SimpleData>
		<SimpleData name="village">Sandhi , Guda Kalan</SimpleData>
		<SimpleData name="Land Type">Community</SimpleData>
		<SimpleData name="Instance">Wave 2024</SimpleData>
	</SchemaData></ExtendedData>
      <Polygon><outerBoundaryIs><LinearRing><coordinates>80.6461787,23.7575376,0 80.6461816,23.7575646,0 80.646204,23.7576067,0 80.6462281,23.7576451,0 80.6462449,23.7577233,0 80.6462667,23.7577903,0 80.6462939,23.7578555,0 80.6463121,23.7579566,0 80.6463323,23.7580114,0 80.6463589,23.758106,0 80.6463902,23.7582147,0 80.6464184,23.75826,0 80.6464716,23.7582887,0 80.6465557,23.7582726,0 80.6466503,23.7582548,0 80.6467557,23.7582478,0 80.6469045,23.758221,0 80.6469739,23.7581977,0 80.6470235,23.7581705,0 80.6471275,23.7580918,0 80.6471977,23.7580756,0 80.6473124,23.7580686,0 80.6474276,23.7581074,0 80.647514,23.7580675,0 80.6475596,23.7580797,0 80.6476706,23.7580187,0 80.6476982,23.7579881,0 80.6476786,23.7579425,0 80.6479134159408,23.7579184891743,0 80.6480404,23.757897,0 80.6480892,23.7578786,0 80.6481552,23.7578737,0 80.6482119,23.7578657,0 80.6483098,23.7578093,0 80.6483514,23.757802,0 80.6484221,23.7578155,0 80.6484738,23.7578332,0 80.6484969,23.7577787,0 80.6485236,23.7577311,0 80.6485164,23.7576438,0 80.6484785,23.7575608,0 80.6484796,23.7575316,0 80.6485547,23.7575014,0 80.648586,23.7574258,0 80.6486419,23.7573868,0 80.6487829,23.7573556,0 80.6488508,23.7573177,0 80.6489205,23.7572825,0 80.6489777,23.7572852,0 80.6490713808286,23.7572718817192,0 80.6491368818727,23.7572461886414,0 80.6492210975009,23.75722905992,0 80.6491991,23.7571959,0 80.6491647,23.7571104,0 80.6491342,23.7569359,0 80.6491619,23.7569018,0 80.6492315,23.7568878,0 80.649256,23.7568714,0 80.6493794,23.7568378,0 80.6494053,23.7568188,0 80.6494816,23.7568047,0 80.6495977285048,23.7567815712759,0 80.6496842834561,23.7567858534711,0 80.6497989102833,23.7567494548068,0 80.6499135371106,23.756736608217,0 80.6499837168008,23.7567216205273,0 80.650067932429,23.7567044917369,0 80.6501521480572,23.7566745163483,0 80.6502340243624,23.7566402587528,0 80.6503603478047,23.7566231299518,0 80.650479,23.756607,0 80.650507725154,23.7565845901411,0 80.6505147431231,23.7565546147249,0 80.6505100644771,23.7564850289106,0 80.6504948588775,23.7563972436765,0 80.650477313955,23.7562955411971,0 80.650470295986,23.7562238141376,0 80.6504462,23.7561419,0 80.6504242,23.7561228,0 80.6503278,23.7561427,0 80.6502112,23.756164,0 80.6501052,23.7561836,0 80.6499384,23.7561945,0 80.6498095,23.7562469,0 80.6497183,23.7562436,0 80.6496219,23.7562716,0 80.6495461,23.756286,0 80.6494404,23.7562988,0 80.6493575,23.7563223,0 80.6492941,23.7563336,0 80.6492416,23.7563645,0 80.6491405,23.7564149,0 80.6490929,23.7563494,0 80.6490804,23.756302,0 80.6490709,23.7562535,0 80.6490287,23.75618,0 80.6489473967094,23.7561456637142,0 80.6488889136342,23.7561478048224,0 80.648804698006,23.756173498117,0 80.6487064464398,23.7561906269772,0 80.6486269094576,23.7562098969423,0 80.6485122826303,23.7562355902247,0 80.6484397636171,23.756261283502,0 80.6483555479889,23.7562591423957,0 80.648227157292,23.7562864877395,0 80.6481543662104,23.7563233755678,0 80.6480213,23.7563786,0 80.6478975,23.7564275,0 80.6478993800029,23.7563940320205,0 80.6478385576047,23.7562826945625,0 80.6478362182817,23.7562420135445,0 80.6478292003127,23.7562077558352,0 80.6477941104676,23.7561563692545,0 80.6476490724413,23.7561884858698,0 80.647522748999,23.7562206024773,0 80.6473749,23.7562227,0 80.6472906,23.7562829,0 80.6472545,23.7563243,0 80.6472161,23.7563641,0 80.6471276,23.7564191,0 80.6470581,23.7564652,0 80.6470052,23.7565037,0 80.6469153,23.7565781,0 80.6467791,23.7566423,0 80.6467171,23.756677,0 80.6466549,23.7567049,0 80.6465613,23.7567538,0 80.646483,23.7567857,0 80.6464113,23.7568587,0 80.6463894,23.7568753,0 80.6463162,23.7570243,0 80.6462811,23.7570684,0 80.646218,23.7571554,0 80.6461984,23.7572282,0 80.6461585,23.7573848,0 80.6461469,23.7574916,0 80.6461886,23.7575317,0 80.6461787,23.7575376,0</coordinates></LinearRing></outerBoundaryIs></Polygon>
  </Placemark>
  
    </Document>
</kml>