<?xml version="1.0" encoding="UTF-8"?>
<kml xmlns="http://www.opengis.net/kml/2.2">
    <Document>
        <Placemark xmlns:ns0="http://www.opengis.net/kml/2.2">
	<Style><LineStyle><color>ff0000ff</color></LineStyle><PolyStyle><fill>0</fill></PolyStyle></Style>
	<ExtendedData><SchemaData schemaUrl="#Wave24_v28MAR2025">
		<SimpleData name="area(ha)">0.365671685159975</SimpleData>
		<SimpleData name="site_id">240174_1.2</SimpleData>
		<SimpleData name="Land_parc">240174</SimpleData>
		<SimpleData name="district">Niwari</SimpleData>
		<SimpleData name="block">Niwari</SimpleData>
		<SimpleData name="village">Rawali</SimpleData>
		<SimpleData name="Land Type">Private land</SimpleData>
		<SimpleData name="Instance">Wave 2024</SimpleData>
	</SchemaData></ExtendedData>
      <Polygon><outerBoundaryIs><LinearRing><coordinates>78.8933441776616,25.4027322322861,0 78.8931953,25.4027824,0 78.8930746,25.4027196,0 78.8929913,25.4027296,0 78.8929173,25.4027358,0 78.8928727,25.4027446,0 78.8927992,25.4027347,0 78.8927763141573,25.4027609998858,0 78.892766110412,25.4028107727142,0 78.8927416214232,25.4028789798901,0 78.8927457029214,25.4029711516882,0 78.8927415,25.4031124,0 78.8928008031461,25.4031278435834,0 78.8928647,25.4031752,0 78.8929203,25.4031069,0 78.8930110002996,25.4029693082529,0 78.8932558901872,25.4028937273825,0 78.8933803758801,25.4029490304631,0 78.8935293505617,25.4029803688642,0 78.893472209588,25.403061479982,0 78.8936109805243,25.4031020355205,0 78.8936844474906,25.4030504193783,0 78.8938068924344,25.4030430456419,0 78.8938885223969,25.403006176953,0 78.8939130113857,25.4029269092339,0 78.8938946446441,25.4028273636524,0 78.8939415818726,25.402670671367,0 78.8938946446441,25.402700166401,0 78.8937987294381,25.4027112270368,0 78.8936505,25.4027122,0 78.8935058,25.4027411,0 78.8933726120484,25.4027350861975,0 78.8933441776616,25.4027322322861,0</coordinates></LinearRing></outerBoundaryIs></Polygon>
  </Placemark>
  
    </Document>
</kml>