<?xml version="1.0" encoding="UTF-8"?>
<kml xmlns="http://www.opengis.net/kml/2.2">
    <Document>
        <Placemark xmlns:ns0="http://www.opengis.net/kml/2.2">
	<Style><LineStyle><color>ff0000ff</color></LineStyle><PolyStyle><fill>0</fill></PolyStyle></Style>
	<ExtendedData><SchemaData schemaUrl="#Wave24_v28MAR2025">
		<SimpleData name="area(ha)">0.886419149097428</SimpleData>
		<SimpleData name="site_id">240188_1.1</SimpleData>
		<SimpleData name="Land_parc">240188</SimpleData>
		<SimpleData name="district">Chhatarpur</SimpleData>
		<SimpleData name="block">Bijawar</SimpleData>
		<SimpleData name="village">Gulat</SimpleData>
		<SimpleData name="Land Type">Farmer</SimpleData>
		<SimpleData name="Instance">Wave 2024</SimpleData>
	</SchemaData></ExtendedData>
      <Polygon><outerBoundaryIs><LinearRing><coordinates>79.4729308451571,24.5910971199778,0 79.4729783126198,24.5911665499978,0 79.4730257800824,24.5911941803119,0 79.4730881254065,24.5912352715483,0 79.4731398436867,24.5912572341056,0 79.4731639316528,24.5912118920517,0 79.4732500107083,24.5911892210248,0 79.4733137729716,24.5911948887815,0 79.4733392778769,24.5912501494097,0 79.4733640743126,24.591244481653,0 79.4734186,24.5912586,0 79.4734772,24.5912508,0 79.4735612,24.5912482,0 79.4736206,24.5912388,0 79.473712,24.5912569,0 79.4737713,24.5912484,0 79.4738469,24.5912289,0 79.4739251822294,24.5912154343997,0 79.4739591887698,24.5911814278593,0 79.4739854021447,24.5911460043797,0 79.4739676904049,24.5911070385521,0 79.4739315584557,24.5910886183427,0 79.4739138467159,24.5910624049678,0 79.4738713385404,24.5910142290355,0 79.4738288303649,24.590956134529,0 79.4738104101555,24.590886704509,0 79.4737877391286,24.5908427793943,0 79.4737622342233,24.590794603462,0 79.4736928042032,24.5907124209893,0 79.4736347096967,24.5906642450571,0 79.4735695304942,24.590617486064,0 79.4735199376228,24.5905990658546,0 79.4734575922987,24.5905664762534,0 79.4734108333057,24.5905310527738,0 79.4733612404342,24.590494212355,0 79.4733045628669,24.5904602058146,0 79.4732633693919,24.5904386475463,0 79.4732016693927,24.5903949475521,0 79.4731529503742,24.590370938646,0 79.473113276077,24.5903071763827,0 79.4731061913811,24.590263251268,0 79.4730906050501,24.5902278277884,0 79.4730162157429,24.5902384548323,0 79.4729241146959,24.5902490818762,0 79.4728386,24.5902298,0 79.4728150103788,24.5902150753358,0 79.4727760445512,24.5902143668662,0 79.4727066145312,24.5901909873696,0 79.4727193669839,24.5902774206599,0 79.4727307024973,24.590351809967,0 79.4727445176544,24.5904517041795,0 79.4727686056205,24.5905012970509,0 79.4727955274651,24.5905452221656,0 79.4727926935867,24.5906160691248,0 79.4727813580732,24.5906769975098,0 79.4727898597083,24.5907379258947,0 79.472795527465,24.5908031050971,0 79.4728096968569,24.5908739520563,0 79.4728281170662,24.5909107924751,0 79.4728621236067,24.5909589684074,0 79.4728777099377,24.5909993511741,0 79.4728982555559,24.5910496525152,0 79.4729308451571,24.5910971199778,0</coordinates></LinearRing></outerBoundaryIs></Polygon>
  </Placemark>
  
    </Document>
</kml>