<?xml version="1.0" encoding="UTF-8"?>
<kml xmlns="http://www.opengis.net/kml/2.2">
    <Document>
        <Placemark xmlns:ns0="http://www.opengis.net/kml/2.2">
	<Style><LineStyle><color>ff0000ff</color></LineStyle><PolyStyle><fill>0</fill></PolyStyle></Style>
	<ExtendedData><SchemaData schemaUrl="#Wave24_v28MAR2025">
		<SimpleData name="area(ha)">0.491388712662831</SimpleData>
		<SimpleData name="site_id">240151_2.2</SimpleData>
		<SimpleData name="Land_parc">240151</SimpleData>
		<SimpleData name="district">Chhatarpur</SimpleData>
		<SimpleData name="block">bijawar</SimpleData>
		<SimpleData name="village">Gulat</SimpleData>
		<SimpleData name="Land Type">Farmer</SimpleData>
		<SimpleData name="Instance">Wave 2024</SimpleData>
	</SchemaData></ExtendedData>
      <Polygon><outerBoundaryIs><LinearRing><coordinates>79.4653325743477,24.5827213439389,0 79.4653914854294,24.5827080055808,0 79.4655070845329,24.5826868865138,0 79.4656171259872,24.582650206029,0 79.4656515834123,24.5826313100217,0 79.4656582525913,24.5825857372982,0 79.4656371335243,24.5824968149109,0 79.4656082337485,24.5823978887551,0 79.4655948953904,24.5823234162557,0 79.4656071222186,24.5821944787941,0 79.465569330204,24.582104444877,0 79.4655682186742,24.5820055187211,0 79.4656504718824,24.5818904753825,0 79.4656193490469,24.5818771370244,0 79.4655876704464,24.5818693563155,0 79.4655293151297,24.581858796782,0 79.4654270543843,24.5818632429014,0 79.4652553230239,24.5818410123046,0 79.465093039667,24.5818499045433,0 79.4649063026537,24.5818676890208,0 79.4648707336987,24.5819143732741,0 79.4650080076342,24.5821311215932,0 79.4650546918875,24.5821222293544,0 79.4650902608424,24.5821978133836,0 79.4650558034173,24.5822067056224,0 79.4651658448716,24.5824245654713,0 79.4652803324453,24.582664655917,0 79.4653325743477,24.5827213439389,0</coordinates></LinearRing></outerBoundaryIs></Polygon>
  </Placemark>
  
    </Document>
</kml>