<?xml version="1.0" encoding="UTF-8"?>
<kml xmlns="http://www.opengis.net/kml/2.2">
    <Document>
        <Placemark xmlns:ns0="http://www.opengis.net/kml/2.2">
	<Style><LineStyle><color>ff0000ff</color></LineStyle><PolyStyle><fill>0</fill></PolyStyle></Style>
	<ExtendedData><SchemaData schemaUrl="#Wave24_v28MAR2025">
		<SimpleData name="area(ha)">5.925197011039016</SimpleData>
		<SimpleData name="site_id">240108_4.4</SimpleData>
		<SimpleData name="Land_parc">240108</SimpleData>
		<SimpleData name="district">Damoh</SimpleData>
		<SimpleData name="block">Pathariya</SimpleData>
		<SimpleData name="village">Seeta Nagar- Hawai Adde ke Pic</SimpleData>
		<SimpleData name="Land Type">Community</SimpleData>
		<SimpleData name="Instance">Wave 2024</SimpleData>
	</SchemaData></ExtendedData>
      <Polygon><outerBoundaryIs><LinearRing><coordinates>79.4281129750897,24.0405628077165,0 79.4280991001282,24.0405766826759,0 79.4281031518972,24.0407134298814,0 79.4280606083222,24.0408846171239,0 79.4280211035739,24.0409301995257,0 79.4279238611167,24.0409616007359,0 79.4279076540404,24.0409757819276,0 79.4278448516201,24.0410162996181,0 79.4278073727564,24.0410294678675,0 79.42762099138,24.0409605877936,0 79.4275774348627,24.0409018371424,0 79.4274558817911,24.0408400476643,0 79.427382278536,24.0407283439192,0 79.4273526,24.0407446,0 79.4273287,24.0407612,0 79.4272775,24.0407893,0 79.4272582,24.0408062,0 79.4272122,24.0408287,0 79.4271898,24.0408373,0 79.4271614,24.0408638,0 79.427128,24.0408734,0 79.427055,24.0409377,0 79.4270207,24.0409123,0 79.4270084,24.0409117,0 79.4269214,24.0409036,0 79.4268555,24.0409703,0 79.4268261,24.040978,0 79.4267828,24.0410045,0 79.4267704,24.041027,0 79.4267806,24.0410975,0 79.4267395,24.0412486,0 79.426661,24.0411918,0 79.4266613,24.0412042,0 79.4266388,24.041232,0 79.4266054,24.0413073,0 79.4265564,24.0413692,0 79.4265424,24.0414082,0 79.4265113,24.0414612,0 79.4264829,24.0415126,0 79.4264646,24.0415664,0 79.4264429,24.0416227,0 79.4264281,24.0416752,0 79.4264217,24.0417214,0 79.426415,24.0417636,0 79.4263968,24.0417987,0 79.4263774,24.0418309,0 79.4263779,24.0418589,0 79.4263942,24.0418768,0 79.4263923,24.0418672,0 79.4264116,24.0418763,0 79.4264542,24.0418847,0 79.4264925,24.0418922,0 79.426531,24.0418975,0 79.4265665,24.0419051,0 79.4265969,24.0419281,0 79.4266336,24.041937,0 79.4266743,24.0419407,0 79.4267038,24.0419553,0 79.426736,24.0419742,0 79.4267712,24.0419977,0 79.4267992,24.0420236,0 79.4268107,24.0420455,0 79.4268315,24.0420627,0 79.4268725,24.0420802,0 79.4269123,24.0420834,0 79.4269508,24.0420822,0 79.4269862,24.042091,0 79.4270407,24.0421319,0 79.4270763,24.0421459,0 79.4271068,24.042173,0 79.4271408,24.0422096,0 79.4271723,24.0422397,0 79.4272011,24.0422663,0 79.4272194,24.042277,0 79.4272261,24.0423188,0 79.427252,24.0423587,0 79.4272989,24.0423682,0 79.4273499,24.0423642,0 79.4273754,24.0423711,0 79.427394,24.0423938,0 79.4273981,24.0424323,0 79.4273943,24.042468,0 79.4274242,24.0425028,0 79.4274633,24.0425148,0 79.4274939,24.0425311,0 79.4275419,24.0425488,0 79.4275903,24.0425487,0 79.4276317,24.0425548,0 79.4276455,24.0425512,0 79.4276461,24.0425436,0 79.4276736,24.0425607,0 79.4277296,24.0425962,0 79.4277332,24.0425829,0 79.4277589,24.042594,0 79.4277961,24.0425521,0 79.4278141,24.0425271,0 79.4278889,24.0425391,0 79.4279068,24.0425377,0 79.427912,24.0425297,0 79.4279272,24.0425568,0 79.4280043,24.0426442,0 79.4280394,24.0426772,0 79.4280696,24.0426785,0 79.4281143,24.0426951,0 79.4282308,24.0427357,0 79.4283063,24.0427792,0 79.4283119,24.0428201,0 79.4283363,24.0428367,0 79.428412,24.0428558,0 79.4284506,24.0428662,0 79.428494,24.0428694,0 79.4285663,24.0428896,0 79.4285905,24.042906,0 79.4286226,24.0429307,0 79.4287222,24.0429337,0 79.4287621,24.0429487,0 79.4287987,24.0429571,0 79.4288349,24.0429544,0 79.4289231,24.0429749,0 79.4290336,24.0430174,0 79.4290868,24.0430275,0 79.4292011,24.0430366,0 79.4292479,24.0430289,0 79.42929,24.043022,0 79.429456,24.0430468,0 79.4295072,24.0430644,0 79.4295602,24.0430698,0 79.4296097,24.0430689,0 79.4296647185556,24.043113638347,0 79.4297687220605,24.0431220257264,0 79.4298274337165,24.0431203482505,0 79.4298995651795,24.0431203482505,0 79.4299280822696,24.043142155437,0 79.4300136335397,24.0431438329129,0 79.430068990244,24.0431304131058,0 79.4301109271411,24.0431203482505,0 79.4301729937489,24.0431220257264,0 79.430230027929,24.0431018960158,0 79.4302551900672,24.0430649915463,0 79.4302602224949,24.0430264096009,0 79.4302333828807,24.0429744078485,0 79.4302098982183,24.0429408583308,0 79.4302082207425,24.0428922115301,0 79.4302115756942,24.0428368548259,0 79.4301797036524,24.0427814981217,0 79.4301444766588,24.0427278188933,0 79.4301142820929,24.0426842045203,0 79.4300673127681,24.042630525292,0 79.4299767290703,24.0425751685878,0 79.4299549218838,24.0425483289736,0 79.429907952559,24.0425198118836,0 79.4298811129448,24.0424912947935,0 79.4298394071896,24.0424595027193,0 79.4298145,24.0424508,0 79.4298011,24.0424146,0 79.4297749,24.0423876,0 79.42973,24.0423905,0 79.4297127,24.0423834,0 79.4296841,24.0423611,0 79.4296082,24.0423292,0 79.4295614393487,24.0422768678668,0 79.4295382,24.0422733,0 79.429528,24.0422524,0 79.4295135,24.0422457,0 79.4294978,24.0422109,0 79.4294698,24.042173,0 79.4294294,24.0421562,0 79.429416,24.0421349,0 79.4294049,24.0421074,0 79.4293912,24.042038,0 79.4294069,24.041991,0 79.4294095,24.0419769,0 79.4294378,24.0419627,0 79.4294608,24.0419182,0 79.4294576,24.0418698,0 79.4294392,24.0418546,0 79.4293724,24.041813,0 79.4293568,24.0417686,0 79.429344,24.041746,0 79.4293324,24.0417061,0 79.4293333,24.0416804,0 79.4293277,24.041625,0 79.4293171,24.0416036,0 79.4292829,24.0415307,0 79.4292604,24.0414993,0 79.4292472,24.0414738,0 79.4292416,24.041424,0 79.4292425,24.0414011,0 79.4292437,24.041377,0 79.429213,24.0413357,0 79.4291878,24.0413213,0 79.429174,24.0413042,0 79.429135,24.0412654,0 79.4291137,24.041246,0 79.4290956,24.0412369,0 79.4290766,24.0412263,0 79.4290954,24.0412504,0 79.4290819,24.0412487,0 79.4290731,24.0412418,0 79.4290622,24.0412303,0 79.4290566,24.0412044,0 79.4290433,24.0411759,0 79.4290261,24.0411575,0 79.4290054,24.0411212,0 79.4289902,24.0410936,0 79.4289569,24.0410518,0 79.4289362,24.0410361,0 79.4289178,24.0410217,0 79.4288962,24.0410026,0 79.4288345,24.0409887,0 79.4287978,24.0409844,0 79.4287121,24.0409654,0 79.4286914,24.0409526,0 79.4286469,24.0409251,0 79.4286305,24.0409023,0 79.4286402,24.0408811,0 79.4286639,24.0408282,0 79.4286615,24.0407801,0 79.4286488,24.0407591,0 79.4286052,24.0407372,0 79.4285637,24.0407313,0 79.4285446,24.0406845,0 79.4285104,24.0406446,0 79.428494,24.0406269,0 79.4284592,24.040602,0 79.4284272,24.0405967,0 79.4284019,24.0406004,0 79.4283378,24.0406087,0 79.4283048,24.0406041,0 79.4282542,24.0406049,0 79.428212,24.0405922,0 79.4281656,24.0405874,0 79.4281386,24.0405781,0 79.4281129750897,24.0405628077165,0</coordinates></LinearRing></outerBoundaryIs></Polygon>
  </Placemark>
  
    </Document>
</kml>