<?xml version="1.0" encoding="UTF-8"?>
<kml xmlns="http://www.opengis.net/kml/2.2">
    <Document>
        <Placemark xmlns:ns0="http://www.opengis.net/kml/2.2">
	<Style><LineStyle><color>ff0000ff</color></LineStyle><PolyStyle><fill>0</fill></PolyStyle></Style>
	<ExtendedData><SchemaData schemaUrl="#Wave24_v28MAR2025">
		<SimpleData name="area(ha)">2.315832991201454</SimpleData>
		<SimpleData name="site_id">240170_1.1</SimpleData>
		<SimpleData name="Land_parc">240170</SimpleData>
		<SimpleData name="district">Chhatarpur</SimpleData>
		<SimpleData name="block">bijawar</SimpleData>
		<SimpleData name="village">Mednipura</SimpleData>
		<SimpleData name="Land Type">Farmer</SimpleData>
		<SimpleData name="Instance">Wave 2024</SimpleData>
	</SchemaData></ExtendedData>
      <Polygon><outerBoundaryIs><LinearRing><coordinates>79.4748617830031,24.5556787859126,0 79.4748391441288,24.5557557580851,0 79.4747417969695,24.5558780080062,0 79.474553894313,24.5560545912255,0 79.4744656027034,24.5561881605837,0 79.4744859776902,24.5562266466699,0 79.4746625609095,24.5563579521407,0 79.4747485886318,24.5564507715252,0 79.4749908245864,24.5564734103995,0 79.4751971,24.5564893,0 79.4755522686683,24.5564926534426,0 79.4758805323452,24.5564790701181,0 79.4759009073321,24.5564643548498,0 79.4759575045177,24.5562175911202,0 79.4760563,24.5562102,0 79.4763047,24.5560945,0 79.4765886,24.5559528,0 79.4766629,24.5558828,0 79.4766649,24.555759,0 79.4766581776764,24.5556889734061,0 79.4765676221793,24.5555078624119,0 79.4765721499541,24.5554490013388,0 79.4765630944044,24.5553403347423,0 79.4762710529264,24.5552746820069,0 79.4761646502173,24.5551863903973,0 79.4760967335945,24.5551207376619,0 79.4759608,24.5550569,0 79.4759495809117,24.5549645294294,0 79.4758489,24.5549118,0 79.4757503588182,24.5548920850318,0 79.4755624561617,24.5550686682511,0 79.4755126506383,24.555147904311,0 79.475431150691,24.5552610986824,0 79.4753768173927,24.5553267514178,0 79.4752568313591,24.5555576679353,0 79.4751187342261,24.5555305012862,0 79.475004407911,24.5554886193688,0 79.4749342274008,24.5555633276539,0 79.47488215799,24.5556153970647,0 79.4748617830031,24.5556787859126,0</coordinates></LinearRing></outerBoundaryIs></Polygon>
  </Placemark>
  
    </Document>
</kml>