<?xml version="1.0" encoding="UTF-8"?>
<kml xmlns="http://www.opengis.net/kml/2.2">
    <Document>
        <Placemark xmlns:ns0="http://www.opengis.net/kml/2.2">
	<Style><LineStyle><color>ff0000ff</color></LineStyle><PolyStyle><fill>0</fill></PolyStyle></Style>
	<ExtendedData><SchemaData schemaUrl="#Wave24_v28MAR2025">
		<SimpleData name="area(ha)">10.542478762534483</SimpleData>
		<SimpleData name="site_id">240199_1.1</SimpleData>
		<SimpleData name="Land_parc">240199</SimpleData>
		<SimpleData name="district">Niwari</SimpleData>
		<SimpleData name="block">Niwari</SimpleData>
		<SimpleData name="village">Jhingaura</SimpleData>
		<SimpleData name="Land Type">Farmer</SimpleData>
		<SimpleData name="Instance">Wave 2024</SimpleData>
	</SchemaData></ExtendedData>
      <Polygon><outerBoundaryIs><LinearRing><coordinates>78.8133498,25.2856514,0 78.8134645,25.2860118,0 78.8136624,25.2862117,0 78.8139639,25.286387,0 78.8141959,25.286539,0 78.8143379,25.2863351,0 78.8143523502902,25.2861090081915,0 78.8145276558079,25.2858918386695,0 78.8147317428286,25.2859101541713,0 78.8148861163442,25.2859127706716,0 78.8150983,25.2859481,0 78.8154273,25.2859234,0 78.8155991126664,25.2858813726684,0 78.8156828406748,25.2862071269514,0 78.8156292024194,25.2864452284755,0 78.8156396684205,25.2865014832312,0 78.8156697581735,25.2865237234835,0 78.8160365,25.2865154,0 78.816525,25.2865395,0 78.8166038,25.2865258,0 78.8167002,25.2861374,0 78.8169479185529,25.2860972339403,0 78.8171297653213,25.2861508721957,0 78.8172893718375,25.286133864944,0 78.8174372041024,25.2861037751909,0 78.8171792,25.2856092,0 78.8170761270659,25.2852678033563,0 78.8170290300611,25.2851945413489,0 78.8168825060463,25.2848674788157,0 78.8167542975333,25.2842892322572,0 78.8167464480325,25.2842369022519,0 78.8169442,25.2838971,0 78.8171179910701,25.2833773819149,0 78.8171327088841,25.283176238457,0 78.8171935425153,25.2829348663076,0 78.8168882,25.2827156,0 78.8167735942228,25.2826784492816,0 78.8166022134554,25.2828720703012,0 78.8167081817161,25.2829034683044,0 78.8168769459832,25.2828707620511,0 78.8168789083584,25.2829158966807,0 78.8169946884951,25.2830120530654,0 78.817013003997,25.2830493381942,0 78.8170136581221,25.2831101718253,0 78.8170143122471,25.2831965163341,0 78.816925,25.2833267,0 78.8164153,25.2837768,0 78.8161467,25.2840564,0 78.8157217,25.28398,0 78.8152699,25.2833722,0 78.8145666,25.2831125,0 78.8144762,25.2830579,0 78.8141476,25.2832973,0 78.8140783,25.2835249,0 78.8140228,25.2837829,0 78.8131158,25.2853817,0 78.8133584,25.2857099,0 78.8133498,25.2856514,0</coordinates></LinearRing></outerBoundaryIs></Polygon>
  </Placemark>
  
    </Document>
</kml>