<?xml version="1.0" encoding="UTF-8"?>
<kml xmlns="http://www.opengis.net/kml/2.2">
    <Document>
        <Placemark xmlns:ns0="http://www.opengis.net/kml/2.2">
	<Style><LineStyle><color>ff0000ff</color></LineStyle><PolyStyle><fill>0</fill></PolyStyle></Style>
	<ExtendedData><SchemaData schemaUrl="#Wave24_v28MAR2025">
		<SimpleData name="area(ha)">0.824427737656981</SimpleData>
		<SimpleData name="site_id">240184_2.2</SimpleData>
		<SimpleData name="Land_parc">240184</SimpleData>
		<SimpleData name="district">Chhatarpur</SimpleData>
		<SimpleData name="block">Bijawar</SimpleData>
		<SimpleData name="village">Tikri</SimpleData>
		<SimpleData name="Land Type">Farmer</SimpleData>
		<SimpleData name="Instance">Wave 2024</SimpleData>
	</SchemaData></ExtendedData>
      <Polygon><outerBoundaryIs><LinearRing><coordinates>79.4564026502146,24.5733682129203,0 79.4564523497965,24.573401345975,0 79.4565782554043,24.5734527022097,0 79.4566445215136,24.5734460755988,0 79.4567439206777,24.5734659554316,0 79.4568416631889,24.5735073717499,0 79.4570023585041,24.5734112858914,0 79.4570520580861,24.573345019782,0 79.4570951310571,24.5732770970199,0 79.4572028134848,24.5732307107434,0 79.4572624529832,24.5731776978559,0 79.4575701762285,24.5730114113378,0 79.4575386998265,24.5729335486593,0 79.4575072234246,24.5728556859809,0 79.4573862877751,24.5728705958555,0 79.4571874894471,24.5729153254793,0 79.457144416476,24.5728805357719,0 79.4570549572284,24.5728871623828,0 79.4569290516206,24.5728805357719,0 79.4568561589004,24.5728755658137,0 79.4567567597363,24.5728971022992,0 79.4566838670161,24.5729004156047,0 79.4566192575595,24.5728076430516,0 79.4565016352154,24.5727496602059,0 79.456410519315,24.5726204412927,0 79.456360819733,24.572569085058,0 79.4562245600457,24.5725017835407,0 79.4561210192499,24.5724992985616,0 79.4561110793335,24.5725647363445,0 79.4560597230987,24.5725796462191,0 79.4559317466751,24.5727016172766,0 79.4559483132024,24.5727397202895,0 79.4560692488519,24.5728092997043,0 79.4561852145433,24.5729898748523,0 79.4562485815103,24.5730319124154,0 79.4562485815103,24.5730849253029,0 79.4562899978287,24.5731876377723,0 79.4563579205907,24.5732886935891,0 79.4564026502146,24.5733682129203,0</coordinates></LinearRing></outerBoundaryIs></Polygon>
  </Placemark>
  
    </Document>
</kml>