<?xml version="1.0" encoding="UTF-8"?>
<kml xmlns="http://www.opengis.net/kml/2.2">
    <Document>
        <Placemark xmlns:ns0="http://www.opengis.net/kml/2.2">
	<Style><LineStyle><color>ff0000ff</color></LineStyle><PolyStyle><fill>0</fill></PolyStyle></Style>
	<ExtendedData><SchemaData schemaUrl="#Wave24_v28MAR2025">
		<SimpleData name="area(ha)">4.562645164925070</SimpleData>
		<SimpleData name="site_id">240122_1.1</SimpleData>
		<SimpleData name="Land_parc">240122</SimpleData>
		<SimpleData name="district">Chhatarpur</SimpleData>
		<SimpleData name="block">Bijawar</SimpleData>
		<SimpleData name="village">Dahi (Baksoi)</SimpleData>
		<SimpleData name="Land Type">Community</SimpleData>
		<SimpleData name="Instance">Wave 2024</SimpleData>
	</SchemaData></ExtendedData>
      <Polygon><outerBoundaryIs><LinearRing><coordinates>79.5583084204382,24.6357493181037,0 79.5583830584836,24.635852152744,0 79.5584328171805,24.6358753734693,0 79.5584643310219,24.6359052286875,0 79.558522382835,24.6358538113673,0 79.558593703634,24.6358422010047,0 79.5587031727673,24.6358621044834,0 79.5588259108864,24.6358471768744,0 79.5589685,24.6358148,0 79.5592417,24.6357569,0 79.5594097462639,24.6357609284663,0 79.559510922281,24.6358355665117,0 79.5595391188759,24.6357974181774,0 79.5595590223547,24.6357542939734,0 79.5595711,24.635691,0 79.5596054638052,24.6355950661432,0 79.5596102,24.635438,0 79.5596476,24.6354244,0 79.5597868,24.6353725,0 79.5599587505535,24.6353628588907,0 79.5601111,24.6353897,0 79.5603800408543,24.6354242279503,0 79.5604181891886,24.6354159348342,0 79.5605616330533,24.6354555153519,0 79.5607573778651,24.6352423525694,0 79.5608470134356,24.6350169119752,0 79.5608668622515,24.6349205348279,0 79.5606835689057,24.6348959564511,0 79.5604696065088,24.6348445391309,0 79.5601478336019,24.6347914631875,0 79.5599620678,24.6347516562299,0 79.559776301998,24.6347101906491,0 79.5596353190233,24.6346836526774,0 79.5594454066633,24.634684481989,0 79.5592015890483,24.6346231129295,0 79.5591111940822,24.6346081853204,0 79.558779,24.6345536,0 79.5586048,24.63463,0 79.5584934,24.6346501,0 79.557989,24.6350477,0 79.5576704,24.6351626,0 79.5574444,24.6351614,0 79.5571105,24.6350721,0 79.5569737,24.635053,0 79.5569024,24.6354188,0 79.5568605,24.6355051,0 79.5567516,24.6356685,0 79.5566555,24.6359086,0 79.5565374,24.6360753,0 79.5564149,24.6363033,0 79.5565419866966,24.6366317056629,0 79.5566779938016,24.636618436677,0 79.5567542904702,24.636532188269,0 79.5567841456884,24.6364194018892,0 79.556953325258,24.6364260363822,0 79.5572850499043,24.6364293536286,0 79.5574641812133,24.6364592088468,0 79.5576715091173,24.6361722670278,0 79.5579003991232,24.635858787237,0 79.5580662614464,24.6357891250613,0 79.5583084204382,24.6357493181037,0</coordinates></LinearRing></outerBoundaryIs><innerBoundaryIs><LinearRing><coordinates>79.5579116132482,24.6354115557119,0 79.5579066366852,24.6353601312275,0 79.5580169504987,24.6353476898199,0 79.5580094856541,24.6354007731587,0 79.5579116132482,24.6354115557119,0</coordinates></LinearRing></innerBoundaryIs></Polygon>
  </Placemark>
  
    </Document>
</kml>