<?xml version="1.0" encoding="UTF-8"?>
<kml xmlns="http://www.opengis.net/kml/2.2">
    <Document>
        <Placemark xmlns:ns0="http://www.opengis.net/kml/2.2">
	<Style><LineStyle><color>ff0000ff</color></LineStyle><PolyStyle><fill>0</fill></PolyStyle></Style>
	<ExtendedData><SchemaData schemaUrl="#Wave24_v28MAR2025">
		<SimpleData name="area(ha)">9.002144274466474</SimpleData>
		<SimpleData name="site_id">240140_1.2</SimpleData>
		<SimpleData name="Land_parc">240140</SimpleData>
		<SimpleData name="district">Chhatarpur</SimpleData>
		<SimpleData name="block">Bada Malahara</SimpleData>
		<SimpleData name="village">Sizwaha</SimpleData>
		<SimpleData name="Land Type">Community</SimpleData>
		<SimpleData name="Instance">Wave 2024</SimpleData>
	</SchemaData></ExtendedData>
      <Polygon><outerBoundaryIs><LinearRing><coordinates>79.2579844,24.6296245,0 79.257983,24.6296227,0 79.2579903,24.6296025,0 79.258078,24.629506,0 79.2580953,24.6294636,0 79.258124,24.6294042,0 79.2581788,24.6293587,0 79.2582267,24.6293208,0 79.2583327,24.629219,0 79.2583551,24.6291776,0 79.2584153,24.6291061,0 79.2584852,24.6290164,0 79.2585522,24.6289035,0 79.2586127,24.6287984,0 79.2586484,24.6287126,0 79.2586843,24.6286608,0 79.2587035,24.6286035,0 79.2587111,24.6285536,0 79.2587438,24.6284906,0 79.2587945,24.6283748,0 79.2587902,24.6283368,0 79.2588093,24.6282647,0 79.2588259,24.6281771,0 79.2588414,24.6280569,0 79.25885,24.6280339,0 79.2588634,24.6279607,0 79.2588692,24.6278987,0 79.2588688,24.6278473,0 79.2588848,24.6277507,0 79.2589021,24.6276704,0 79.2589093,24.6276082,0 79.2589174,24.6275164,0 79.2589568,24.6274364,0 79.258985,24.6273564,0 79.2590214,24.6272502,0 79.2590364,24.6270987,0 79.2590608,24.6270029,0 79.2590549,24.6269512,0 79.2590614,24.6269473,0 79.2590896,24.6268655,0 79.2591334,24.6267339,0 79.2591362,24.6266479,0 79.2591376,24.6266188,0 79.2591737,24.6264626,0 79.2592021,24.6263872,0 79.2591951,24.6262701,0 79.2592632,24.626027,0 79.2592558,24.6260014,0 79.2593063,24.625697,0 79.2592665,24.6256307,0 79.2593227,24.6254248,0 79.2593069,24.6254013,0 79.2592914,24.6252599,0 79.2592808,24.6251914,0 79.2592781,24.6251253,0 79.2592756,24.6250568,0 79.2592758,24.6249683,0 79.2592771,24.6249109,0 79.2592451,24.6248201,0 79.2592411,24.6247782,0 79.2592323,24.6247836,0 79.2591433,24.6248241,0 79.2590105,24.6248155,0 79.2589151,24.6248289,0 79.2588524,24.6248149,0 79.258776,24.6248161,0 79.2586742,24.6248348,0 79.2585378,24.6248867,0 79.2584598,24.6249404,0 79.2583867,24.6249966,0 79.258324,24.625019,0 79.2581691,24.6251162,0 79.2581005,24.6251524,0 79.2580276,24.6251887,0 79.2579651,24.6252227,0 79.2579137,24.6252761,0 79.2577732,24.6253574,0 79.2576252,24.6254382,0 79.2575893,24.6254735,0 79.2575342,24.6255911,0 79.2575016,24.6256758,0 79.2575003,24.625732,0 79.2574673,24.6258656,0 79.257404,24.6259988,0 79.2573314,24.6261527,0 79.2572872,24.626259,0 79.2572511,24.6263555,0 79.2572374,24.6264227,0 79.2571988,24.6265411,0 79.2571752,24.6266335,0 79.2571422,24.6267523,0 79.2571198,24.626819,0 79.2570742,24.6270088,0 79.2569635,24.6272661,0 79.2569197,24.6273723,0 79.2568976,24.6274133,0 79.256858,24.6275542,0 79.2568439,24.6276696,0 79.2568204,24.6277615,0 79.2567703,24.6279694,0 79.2567193,24.6281502,0 79.2567001,24.628269,0 79.2567037,24.6283313,0 79.256713,24.6284765,0 79.25672,24.6285402,0 79.2567452,24.6285628,0 79.2568819,24.6285482,0 79.2569571,24.6285501,0 79.2570348,24.6285297,0 79.2571432,24.6284998,0 79.2571771,24.6284951,0 79.2572766,24.6284968,0 79.2573072,24.6285147,0 79.2573302,24.6285624,0 79.2573481,24.6286572,0 79.2573588,24.6286829,0 79.2574985,24.6287676,0 79.2575197,24.6287868,0 79.2575671,24.6288363,0 79.2575161,24.6289272,0 79.2574594,24.6289731,0 79.2573971,24.6289883,0 79.2573949,24.6290686,0 79.2574055,24.6291757,0 79.2573987,24.6292499,0 79.2574073,24.6292843,0 79.2573472,24.6294078,0 79.2573374,24.629456,0 79.2573444,24.6294901,0 79.2573519,24.6296761,0 79.2573999,24.6297402,0 79.2573731,24.6298255,0 79.2572773,24.6299628,0 79.2572534,24.6299922,0 79.2572897,24.6300302,0 79.2573717,24.6300791,0 79.2574342,24.630114,0 79.2575098,24.6300591,0 79.2575587,24.6300074,0 79.2576136,24.6299427,0 79.2576004,24.6298891,0 79.2575788,24.6298661,0 79.2576362,24.6297801,0 79.2576729,24.6297417,0 79.257714,24.6296821,0 79.257753,24.6296316,0 79.2578229,24.6296047,0 79.2578591,24.6296071,0 79.2579508,24.6296501,0 79.2579844,24.6296245,0</coordinates></LinearRing></outerBoundaryIs></Polygon>
  </Placemark>
  
    </Document>
</kml>