<?xml version="1.0" encoding="UTF-8"?>
<kml xmlns="http://www.opengis.net/kml/2.2">
    <Document>
        <Placemark xmlns:ns0="http://www.opengis.net/kml/2.2">
	<Style><LineStyle><color>ff0000ff</color></LineStyle><PolyStyle><fill>0</fill></PolyStyle></Style>
	<ExtendedData><SchemaData schemaUrl="#Wave24_v28MAR2025">
		<SimpleData name="area(ha)">2.925443362979510</SimpleData>
		<SimpleData name="site_id">240184_1.2</SimpleData>
		<SimpleData name="Land_parc">240184</SimpleData>
		<SimpleData name="district">Chhatarpur</SimpleData>
		<SimpleData name="block">Bijawar</SimpleData>
		<SimpleData name="village">Tikri</SimpleData>
		<SimpleData name="Land Type">Farmer</SimpleData>
		<SimpleData name="Instance">Wave 2024</SimpleData>
	</SchemaData></ExtendedData>
      <Polygon><outerBoundaryIs><LinearRing><coordinates>79.456075,24.5747067,0 79.4561102510071,24.5746305823032,0 79.456141727409,24.5745924792903,0 79.4562129634766,24.5746057325122,0 79.4563090493351,24.5745610028884,0 79.4563885686663,24.5745046766955,0 79.4564614613866,24.5743439813803,0 79.4565095043159,24.574196539287,0 79.4565061910104,24.574072290332,0 79.4564945944413,24.5739579812934,0 79.4565696,24.5736936,0 79.4564467585936,24.5734491818226,0 79.4563716,24.5733716,0 79.4562142,24.5730977,0 79.4560245192282,24.5729219520902,0 79.4558683,24.5726683,0 79.4560258652584,24.5725540716426,0 79.4560308352166,24.5724861488805,0 79.4559330927053,24.5723552733146,0 79.4558585433323,24.5722227410959,0 79.4557558308629,24.5721697282085,0 79.4556216419914,24.5722674707197,0 79.4553814273451,24.5722856938998,0 79.4552406118628,24.5723453333982,0 79.455171032448,24.5722856938998,0 79.4550500967984,24.5722807239416,0 79.4549324744544,24.5722890072053,0 79.4548479851649,24.5723088870381,0 79.454798285583,24.5723933763275,0 79.4547900023193,24.5724447325622,0 79.4547346,24.5724575,0 79.4546186,24.5724785,0 79.4545913,24.5725531,0 79.4548538,24.5727313,0 79.4549576,24.5729039,0 79.4550091,24.5730167,0 79.4550429,24.5731803,0 79.4551745,24.5735125,0 79.4552705,24.5738076,0 79.4553971,24.5739584,0 79.4554972,24.5741205,0 79.4556812,24.5743999,0 79.4557967,24.5745728,0 79.4559447,24.5747109,0 79.4560614,24.574712,0 79.4560715,24.5747133,0 79.456075,24.5747067,0</coordinates></LinearRing></outerBoundaryIs></Polygon>
  </Placemark>
  
    </Document>
</kml>