<?xml version="1.0" encoding="UTF-8"?>
<kml xmlns="http://www.opengis.net/kml/2.2">
    <Document>
        <Placemark xmlns:ns0="http://www.opengis.net/kml/2.2">
	<Style><LineStyle><color>ff0000ff</color></LineStyle><PolyStyle><fill>0</fill></PolyStyle></Style>
	<ExtendedData><SchemaData schemaUrl="#Wave24_v28MAR2025">
		<SimpleData name="area(ha)">0.675273887101413</SimpleData>
		<SimpleData name="site_id">240149_1.1</SimpleData>
		<SimpleData name="Land_parc">240149</SimpleData>
		<SimpleData name="district">Chhatarpur</SimpleData>
		<SimpleData name="block">Bijawar</SimpleData>
		<SimpleData name="village">Gulat</SimpleData>
		<SimpleData name="Land Type">Farmer</SimpleData>
		<SimpleData name="Instance">Wave 2024</SimpleData>
	</SchemaData></ExtendedData>
      <Polygon><outerBoundaryIs><LinearRing><coordinates>79.4737697915336,24.5708390043973,0 79.4737226,24.5708339,0 79.4736663965036,24.5708480514624,0 79.473621161178,24.5708286648943,0 79.4735229358996,24.5708209102671,0 79.4734583140059,24.5707989388232,0 79.4734221257454,24.5707989388232,0 79.4733859374849,24.5708105707641,0 79.473384645047,24.5708635607169,0 79.4733794752955,24.5710199456997,0 79.4734001543015,24.5710638885874,0 79.4734311728105,24.5711220482918,0 79.4734691381731,24.5711906282765,0 79.4734898171791,24.5712507266376,0 79.4735085575283,24.5712817451466,0 79.4735266516585,24.5713243955965,0 79.4735260054396,24.5713476594782,0 79.4735479768834,24.5713857863955,0 79.4735550852917,24.5713967721174,0 79.4735693021084,24.5714096964962,0 79.4735841651439,24.5714155124666,0 79.4735996743984,24.5714077578394,0 79.4735957970848,24.5714542856028,0 79.4736972,24.5715061,0 79.4737337,24.5715587,0 79.4737453,24.5715633,0 79.473793,24.5715657,0 79.4739628494411,24.5715609117275,0 79.4739867595417,24.5715938688933,0 79.47399386795,24.5716300571537,0 79.4741024327315,24.5716132554614,0 79.474199365572,24.5716610756627,0 79.4742112,24.5717428,0 79.4742598,24.5717495,0 79.4742523555249,24.5716875706392,0 79.4742594639332,24.5715376478457,0 79.4742411,24.5715235,0 79.4742559,24.5714302,0 79.4744211802223,24.5713714888015,0 79.4744767550509,24.5713521022334,0 79.4744767550509,24.5713301307895,0 79.4744483214176,24.5713055744699,0 79.4744108407193,24.5712913576533,0 79.4743759448967,24.5712836030261,0 79.4743552658907,24.5712836030261,0 79.4743345868847,24.5712680937716,0 79.4743190776302,24.571243537452,0 79.4742880591212,24.5712034718779,0 79.4742686725531,24.5711595289901,0 79.4742311918547,24.5710561339602,0 79.4741988809079,24.5709798801256,0 79.4741510607065,24.5709217204212,0 79.4741109951324,24.5708842397229,0 79.4740877312507,24.5708402968352,0 79.4739842294743,24.5707459361306,0 79.4738615546227,24.5708312497701,0 79.4738189041728,24.570841589273,0 79.4737853007881,24.5708402968352,0 79.4737697915336,24.5708390043973,0</coordinates></LinearRing></outerBoundaryIs><innerBoundaryIs><LinearRing><coordinates>79.4737799694819,24.5714252057507,0 79.4737747997304,24.5713967721174,0 79.4738239123696,24.5713967721174,0 79.4738135728666,24.5714187435613,0 79.4737799694819,24.5714252057507,0</coordinates></LinearRing></innerBoundaryIs></Polygon>
  </Placemark>
  
    </Document>
</kml>