<?xml version="1.0" encoding="UTF-8"?>
<kml xmlns="http://www.opengis.net/kml/2.2">
    <Document>
        <Placemark xmlns:ns0="http://www.opengis.net/kml/2.2">
	<Style><LineStyle><color>ff0000ff</color></LineStyle><PolyStyle><fill>0</fill></PolyStyle></Style>
	<ExtendedData><SchemaData schemaUrl="#Wave24_v28MAR2025">
		<SimpleData name="area(ha)">23.136080373807982</SimpleData>
		<SimpleData name="site_id">240121_2.2</SimpleData>
		<SimpleData name="Land_parc">240121</SimpleData>
		<SimpleData name="district">Katni</SimpleData>
		<SimpleData name="block">Barwara</SimpleData>
		<SimpleData name="village">?????</SimpleData>
		<SimpleData name="Land Type">Community land</SimpleData>
		<SimpleData name="Instance">Wave 2024</SimpleData>
	</SchemaData></ExtendedData>
      <Polygon><outerBoundaryIs><LinearRing><coordinates>80.5755488,23.7112352,0 80.5755261,23.7112547,0 80.5755202,23.7112752,0 80.5755133,23.7112964,0 80.5755122,23.7113528,0 80.5755359,23.711369,0 80.5756195,23.7114139,0 80.5756319,23.7115117,0 80.575531,23.7115937,0 80.5755192,23.7116458,0 80.5755478,23.7116961,0 80.5755594,23.7117563,0 80.5755688,23.711851,0 80.575603,23.7119234,0 80.5756218,23.711939,0 80.5756477,23.7119323,0 80.5756798,23.7119095,0 80.5756963,23.711876,0 80.5757329,23.711857,0 80.5758125,23.711852,0 80.5758651,23.7118624,0 80.5759556,23.7119046,0 80.5759573,23.7119053,0 80.5760147,23.7119287,0 80.5760584,23.7119351,0 80.5761425,23.7119569,0 80.5762635,23.7120537,0 80.5762911,23.7121034,0 80.5763418,23.7121125,0 80.5763617,23.7121279,0 80.5764415,23.7121515,0 80.5764739,23.7121617,0 80.5765294,23.7121993,0 80.5765732,23.7121924,0 80.5766121,23.7122058,0 80.5766349,23.7122229,0 80.5766722,23.7122591,0 80.5767164,23.7122601,0 80.5767453,23.7122977,0 80.57677,23.7123093,0 80.5768292,23.7123224,0 80.5768871,23.7123312,0 80.5769126,23.712346,0 80.5769188,23.7123662,0 80.5769496,23.7123867,0 80.5770133,23.7124352,0 80.5770551,23.7124636,0 80.5771079,23.7125412,0 80.5771556,23.7125884,0 80.5771804,23.7125998,0 80.5772615,23.7125914,0 80.5772942,23.7125808,0 80.5773426,23.7125877,0 80.5773556,23.7126098,0 80.5774258,23.7126314,0 80.5774499,23.7126466,0 80.577486,23.7126597,0 80.5775436,23.7126817,0 80.5775939,23.7127152,0 80.5776253,23.7127193,0 80.5776532,23.7127289,0 80.5776907,23.7127528,0 80.5777373,23.7127451,0 80.5778023,23.7127454,0 80.5778279,23.7127539,0 80.577897,23.7128014,0 80.577925,23.7128392,0 80.5779447,23.7128826,0 80.5779487,23.7129088,0 80.5779524,23.7129603,0 80.5779566,23.7130093,0 80.5780254,23.7130432,0 80.5780624,23.7130777,0 80.57809,23.7130914,0 80.5781477,23.7131212,0 80.5782076,23.7131397,0 80.5782669,23.7131414,0 80.5782909,23.7131528,0 80.5783154,23.7131544,0 80.5783614,23.7131937,0 80.5784179,23.7132029,0 80.5784812,23.7132739,0 80.5784959,23.7133034,0 80.5785416,23.7133272,0 80.5786282,23.713373,0 80.5786488,23.7133954,0 80.5786874,23.7134265,0 80.5787494,23.7133988,0 80.5787804,23.7133794,0 80.5788295,23.7134232,0 80.5788088,23.7134963,0 80.5788191,23.7135175,0 80.5788448,23.713552,0 80.5788315,23.7136231,0 80.5788113,23.7136646,0 80.5788165,23.7136914,0 80.5788281,23.7137479,0 80.5788193,23.7137934,0 80.5788113,23.7138436,0 80.5787948,23.7138633,0 80.5787749,23.7138959,0 80.5787632,23.7139146,0 80.5787752,23.7139565,0 80.5787734,23.713979,0 80.57884,23.7140325,0 80.5788479,23.7140546,0 80.5788811,23.7141294,0 80.5789237,23.7141554,0 80.5789699,23.7142074,0 80.5789782,23.7142302,0 80.5789786,23.7142339,0 80.5789741,23.7143,0 80.5790047,23.7143472,0 80.5790143,23.7143657,0 80.579077,23.7143829,0 80.5790824,23.7144053,0 80.5790986,23.7144471,0 80.5791919,23.7144559,0 80.5792583,23.7144792,0 80.5792836,23.714489,0 80.5793078,23.7145287,0 80.5793265,23.7145278,0 80.5793654,23.7145683,0 80.579425,23.7146097,0 80.5795003,23.7146115,0 80.5795677,23.7146189,0 80.5796121,23.7145962,0 80.579683,23.7146221,0 80.5797157,23.7145914,0 80.579773,23.7145517,0 80.5797974,23.7144706,0 80.5798147,23.7143712,0 80.5798726,23.7143616,0 80.5799431,23.7143378,0 80.5799703,23.7143429,0 80.5799974,23.7143591,0 80.5800343,23.7143759,0 80.5800899,23.7143612,0 80.5801399,23.7144321,0 80.5801231,23.7144714,0 80.5801,23.7144864,0 80.5801012,23.7144962,0 80.5800858,23.7145196,0 80.5801667,23.714656,0 80.58031,23.7146771,0 80.5804396,23.7146265,0 80.5804118,23.7145979,0 80.5804744,23.7145404,0 80.5805509,23.714565,0 80.5805951,23.7145878,0 80.5806473,23.7145532,0 80.5807181,23.7145437,0 80.5808028,23.7145188,0 80.5808134,23.7145685,0 80.580844,23.7145674,0 80.5809305,23.7145801,0 80.5810829,23.7146105,0 80.5811584,23.7145558,0 80.5811862,23.7144814,0 80.5811915,23.7144297,0 80.5812175,23.7143812,0 80.5813049,23.7143996,0 80.5813765,23.7144217,0 80.581399,23.7144404,0 80.5814948,23.7143611,0 80.5815547,23.7143261,0 80.5816615,23.7142812,0 80.5817199,23.7142123,0 80.5817916,23.7141821,0 80.5818665,23.7141426,0 80.5819296,23.7140311,0 80.5819927,23.7139504,0 80.5820375,23.7139346,0 80.5820403,23.7139066,0 80.5820951,23.7138545,0 80.582068,23.7137464,0 80.5819992,23.7136791,0 80.5820095,23.713608,0 80.5820547,23.7135607,0 80.5821494,23.7134973,0 80.5821611,23.713437,0 80.5821602,23.7133984,0 80.5821224,23.7133623,0 80.5821536,23.713293,0 80.5821007,23.713151,0 80.5821551,23.7128859,0 80.5821622,23.7127286,0 80.5821571,23.7126828,0 80.5821794,23.71259,0 80.5821629,23.7124961,0 80.5821477,23.7124492,0 80.5821174,23.7123821,0 80.5820615,23.712309,0 80.58201,23.7122122,0 80.5819731,23.7121532,0 80.5819567,23.7120468,0 80.5819677,23.7119605,0 80.5819947,23.711904,0 80.5820114,23.7118483,0 80.5820511,23.7118284,0 80.5821431,23.7117466,0 80.5821482,23.7116801,0 80.5821116,23.7116227,0 80.5821059,23.7116008,0 80.5821327,23.7115661,0 80.5821743,23.7115436,0 80.5821908,23.7114937,0 80.582169,23.7114754,0 80.5821342,23.7114074,0 80.5820907,23.7113661,0 80.5820631,23.7113515,0 80.5820218,23.7113049,0 80.5819812,23.7112592,0 80.581937,23.7112191,0 80.5819039,23.7111782,0 80.5818799,23.711158,0 80.5818442,23.7111253,0 80.5817993,23.7110608,0 80.5817667,23.71099,0 80.58171,23.7109369,0 80.5816704,23.7108944,0 80.581656,23.7108725,0 80.5816239,23.7108217,0 80.5815769,23.7107946,0 80.5815202,23.7107838,0 80.5814408,23.7107431,0 80.5813558,23.7106727,0 80.5812728,23.7106427,0 80.5812097,23.7106164,0 80.5811234,23.7105964,0 80.5810817,23.7105583,0 80.5810341,23.710525,0 80.5809837,23.7105167,0 80.580819,23.7106084,0 80.5807785,23.7106269,0 80.580703,23.7106367,0 80.5806552,23.7106073,0 80.5805868,23.71056,0 80.5805431,23.7105279,0 80.5804868,23.7105122,0 80.5804219,23.7105348,0 80.5803658,23.7105476,0 80.5802485,23.7105553,0 80.5802004,23.7105246,0 80.5801446,23.7104874,0 80.5800579,23.710421,0 80.5799766,23.7104019,0 80.5798938,23.7103842,0 80.5798412,23.7104006,0 80.5797237,23.710358,0 80.5796167,23.7103281,0 80.579536,23.7102619,0 80.5794966,23.7101508,0 80.5794583,23.7101053,0 80.57937,23.7100899,0 80.5793098,23.7100975,0 80.579221,23.7100974,0 80.5791829,23.7100604,0 80.579114,23.7100046,0 80.579,23.709985,0 80.5788717,23.7099638,0 80.5787939,23.7099197,0 80.5787407,23.7098865,0 80.5786541,23.7098572,0 80.5785849,23.7098508,0 80.5784808,23.7098592,0 80.5784153,23.7098678,0 80.578291,23.7098434,0 80.5782424,23.7098013,0 80.5781341,23.709727,0 80.5780681,23.7097025,0 80.5780104,23.7096959,0 80.5778633,23.7097142,0 80.5778325,23.7097118,0 80.5777604,23.7097086,0 80.5776967,23.7096882,0 80.5776103,23.7096318,0 80.5775854,23.7096109,0 80.5775605,23.7095947,0 80.5775515,23.7095964,0 80.5774963,23.7096599,0 80.5774712,23.7096603,0 80.5773942,23.7096445,0 80.5773098,23.7096915,0 80.5772247,23.7097572,0 80.5771823,23.7097639,0 80.5771273,23.7097637,0 80.5769867,23.7098487,0 80.576924,23.7098618,0 80.576849,23.7098837,0 80.5767971,23.7099041,0 80.5767455,23.7099653,0 80.5766989,23.7100408,0 80.5766705,23.7101349,0 80.5766927,23.710177,0 80.5767077,23.7102737,0 80.576708,23.7104386,0 80.5766876,23.7105774,0 80.5766038,23.7106383,0 80.5765522,23.7107422,0 80.5764949,23.7108015,0 80.5765358,23.7108485,0 80.5765401,23.7108967,0 80.5765324,23.7109463,0 80.5765171,23.7109819,0 80.5764731,23.7109955,0 80.5763857,23.7109852,0 80.5763007,23.710981,0 80.5762262,23.7110132,0 80.5761492,23.7110336,0 80.5760997,23.7110449,0 80.5760382,23.7110572,0 80.5759609,23.7110686,0 80.5758127,23.7110949,0 80.5756824,23.7112005,0 80.5756093,23.7113017,0 80.5756058,23.7112966,0 80.5755488,23.7112352,0</coordinates></LinearRing></outerBoundaryIs></Polygon>
  </Placemark>
  
    </Document>
</kml>