<?xml version="1.0" encoding="UTF-8"?>
<kml xmlns="http://www.opengis.net/kml/2.2">
    <Document>
        <Placemark xmlns:ns0="http://www.opengis.net/kml/2.2">
	<Style><LineStyle><color>ff0000ff</color></LineStyle><PolyStyle><fill>0</fill></PolyStyle></Style>
	<ExtendedData><SchemaData schemaUrl="#Wave24_v28MAR2025">
		<SimpleData name="area(ha)">0.672108307265281</SimpleData>
		<SimpleData name="site_id">240151_1.2</SimpleData>
		<SimpleData name="Land_parc">240151</SimpleData>
		<SimpleData name="district">Chhatarpur</SimpleData>
		<SimpleData name="block">bijawar</SimpleData>
		<SimpleData name="village">Gulat</SimpleData>
		<SimpleData name="Land Type">Farmer</SimpleData>
		<SimpleData name="Instance">Wave 2024</SimpleData>
	</SchemaData></ExtendedData>
      <Polygon><outerBoundaryIs><LinearRing><coordinates>79.4642266,24.5807078,0 79.4642709,24.5807844,0 79.4642751,24.5807784,0 79.4643306,24.58071,0 79.4643511,24.5805972,0 79.4643707,24.5805497,0 79.4643945,24.5805248,0 79.4644146,24.5804547,0 79.4643964,24.5804206,0 79.4644158,24.5803942,0 79.4644335,24.5803474,0 79.4644386,24.580322,0 79.4644693,24.5802447,0 79.4644719,24.5802329,0 79.464459,24.5801738,0 79.4644298,24.5800517,0 79.4644286,24.5799899,0 79.4644234,24.5799687,0 79.4644265,24.5799014,0 79.4644015,24.5798759,0 79.4643803,24.5798758,0 79.464343,24.5798673,0 79.4643086,24.5798591,0 79.4642059,24.5798398,0 79.46419,24.5798196,0 79.4641786,24.579807,0 79.4641698,24.5797918,0 79.4641173,24.5797483,0 79.4639673,24.5797755,0 79.4639314,24.5798187,0 79.4639187,24.5798309,0 79.4638764,24.5798931,0 79.4638523,24.5799372,0 79.463837,24.5799594,0 79.4638082,24.5800059,0 79.4637947,24.5800222,0 79.4637975,24.5800662,0 79.4637604,24.5800934,0 79.463767,24.5801214,0 79.4637736,24.5801903,0 79.463767,24.5802183,0 79.463763,24.5802738,0 79.4637454,24.5803248,0 79.4637138,24.580376,0 79.4637077,24.5804025,0 79.4636961,24.5804621,0 79.4636929,24.580521,0 79.4637123,24.5805786,0 79.4637361,24.5806014,0 79.463755,24.5806277,0 79.4638121,24.5806575,0 79.4638452,24.5806924,0 79.4638557,24.5807084,0 79.4638798,24.5807426,0 79.4638762,24.5807463,0 79.4638777,24.5807508,0 79.463887,24.5807792,0 79.4638809,24.5807803,0 79.4639009,24.5807916,0 79.4639205,24.5807875,0 79.4639426,24.5807843,0 79.4639741,24.5807834,0 79.4640118,24.5807932,0 79.4641064,24.5807609,0 79.4641714,24.5807718,0 79.4642266,24.5807078,0</coordinates></LinearRing></outerBoundaryIs></Polygon>
  </Placemark>
  
    </Document>
</kml>