<?xml version="1.0" encoding="UTF-8"?>
<kml xmlns="http://www.opengis.net/kml/2.2">
    <Document>
        <Placemark xmlns:ns0="http://www.opengis.net/kml/2.2">
	<Style><LineStyle><color>ff0000ff</color></LineStyle><PolyStyle><fill>0</fill></PolyStyle></Style>
	<ExtendedData><SchemaData schemaUrl="#Wave24_v28MAR2025">
		<SimpleData name="area(ha)">0.880859968446801</SimpleData>
		<SimpleData name="site_id">240104_1.1</SimpleData>
		<SimpleData name="Land_parc">240104</SimpleData>
		<SimpleData name="district">Chhatarpur</SimpleData>
		<SimpleData name="block">bijawar</SimpleData>
		<SimpleData name="village">Gulat</SimpleData>
		<SimpleData name="Land Type">Farmer</SimpleData>
		<SimpleData name="Instance">Wave 2024</SimpleData>
	</SchemaData></ExtendedData>
      <Polygon><outerBoundaryIs><LinearRing><coordinates>79.4723330685648,24.5742043994422,0 79.4722319,24.574193,0 79.4720105631252,24.5741752168154,0 79.471892336073,24.5742657577857,0 79.4717883261981,24.5743398367614,0 79.4714762965732,24.5744483362712,0 79.4713176628071,24.5744797637155,0 79.4712488217388,24.574541122059,0 79.4712694,24.5746526,0 79.4714645,24.5748361,0 79.4715709,24.5749618,0 79.4716663577836,24.5750136561312,0 79.4717486677566,24.5750390973956,0 79.4718788671684,24.5750645386599,0 79.4719432186018,24.5750645386599,0 79.4720210389399,24.5750780075646,0 79.4720958661881,24.5750480766653,0 79.4721736865262,24.5750106630413,0 79.4722350448697,24.5749672632373,0 79.4723248375675,24.5748954290791,0 79.4723772166412,24.5748370638255,0 79.4724191199002,24.5747592434874,0 79.4724610231592,24.5746455060702,0 79.4725238780477,24.5745257824731,0 79.4724819747887,24.5744434725001,0 79.4725478227671,24.5744165346907,0 79.4725732640315,24.5743836107015,0 79.4725852363912,24.5743491901674,0 79.4725642847617,24.5743031714098,0 79.4725785019388,24.5742979335024,0 79.47258037262,24.5742803490991,0 79.4725747605764,24.574263138832,0 79.4725478227671,24.5742743629192,0 79.4725365986798,24.5742141269844,0 79.4724550369793,24.5742201131643,0 79.4723330685648,24.5742043994422,0</coordinates></LinearRing></outerBoundaryIs></Polygon>
  </Placemark>
  
    </Document>
</kml>