<?xml version="1.0" encoding="UTF-8"?>
<kml xmlns="http://www.opengis.net/kml/2.2">
    <Document>
        <Placemark xmlns:ns0="http://www.opengis.net/kml/2.2">
	<Style><LineStyle><color>ff0000ff</color></LineStyle><PolyStyle><fill>0</fill></PolyStyle></Style>
	<ExtendedData><SchemaData schemaUrl="#Wave24_v28MAR2025">
		<SimpleData name="area(ha)">0.696893155393098</SimpleData>
		<SimpleData name="site_id">240154_1.1</SimpleData>
		<SimpleData name="Land_parc">240154</SimpleData>
		<SimpleData name="district">Chhatarpur</SimpleData>
		<SimpleData name="block">Bijawar</SimpleData>
		<SimpleData name="village">Gulat</SimpleData>
		<SimpleData name="Land Type">Farmer</SimpleData>
		<SimpleData name="Instance">Wave 2024</SimpleData>
	</SchemaData></ExtendedData>
      <Polygon><outerBoundaryIs><LinearRing><coordinates>79.4706210274171,24.5724237796112,0 79.4706881659812,24.5724777673225,0 79.4707380007916,24.5725123748298,0 79.4707726082989,24.5725345236344,0 79.47082521171,24.5725691311417,0 79.4708805837216,24.5726300403545,0 79.4709013482259,24.5727130983719,0 79.4709318028323,24.5727560116809,0 79.4709497987361,24.572775391885,0 79.4710217823512,24.5727366314769,0 79.4711269891733,24.5727172512728,0 79.4712031256893,24.5727435529783,0 79.4712751093044,24.5727698546838,0 79.4712993345594,24.5727193277232,0 79.4712854915565,24.5726390383064,0 79.4712578055507,24.5725545959886,0 79.4712356567461,24.5724687693706,0 79.471173363233,24.572327570741,0 79.4711166069211,24.572175297709,0 79.4710813072637,24.5720818574394,0 79.4708625878178,24.5718783652967,0 79.4707406,24.5718156,0 79.470639715471,24.5718091502822,0 79.4705455830512,24.5718077659819,0 79.4704666779347,24.57184652639,0 79.4704625250338,24.5719240472063,0 79.470272875894,24.5720624772353,0 79.4701282165137,24.5721496881537,0 79.470010550989,24.5721870642615,0 79.4698984226655,24.5722202874685,0 79.4698430506538,24.5722050601653,0 79.4697987530445,24.572193985763,0 79.4697503025362,24.5722258246719,0 79.4697004677239,24.5722230560691,0 79.4696603230155,24.572246589174,0 79.4696893933216,24.5724140895092,0 79.4698942697646,24.572289502483,0 79.4701579789699,24.5722175188679,0 79.4702368840864,24.5722410519728,0 79.4703144049027,24.5722756594801,0 79.4705400458501,24.5723697918999,0 79.4706210274171,24.5724237796112,0</coordinates></LinearRing></outerBoundaryIs></Polygon>
  </Placemark>
  
    </Document>
</kml>