<?xml version="1.0" encoding="UTF-8"?>
<kml xmlns="http://www.opengis.net/kml/2.2">
    <Document>
        <Placemark xmlns:ns0="http://www.opengis.net/kml/2.2">
	<Style><LineStyle><color>ff0000ff</color></LineStyle><PolyStyle><fill>0</fill></PolyStyle></Style>
	<ExtendedData><SchemaData schemaUrl="#Wave24_v28MAR2025">
		<SimpleData name="area(ha)">0.698516914564615</SimpleData>
		<SimpleData name="site_id">240163_1.1</SimpleData>
		<SimpleData name="Land_parc">240163</SimpleData>
		<SimpleData name="district">Chhatarpur</SimpleData>
		<SimpleData name="block">bijawar</SimpleData>
		<SimpleData name="village">Mednipura</SimpleData>
		<SimpleData name="Land Type">Farmer</SimpleData>
		<SimpleData name="Instance">Wave 2024</SimpleData>
	</SchemaData></ExtendedData>
      <Polygon><outerBoundaryIs><LinearRing><coordinates>79.4746824968571,24.5635895987258,0 79.4746703777619,24.5636595165827,0 79.4746902,24.5637172,0 79.4747626693329,24.563826387201,0 79.4747925009519,24.5638935083435,0 79.4748297904755,24.5639774097717,0 79.47487640238,24.564001647962,0 79.474988270951,24.5639736808193,0 79.4751020039981,24.5639550360575,0 79.4751672606644,24.5639475781528,0 79.4751672606644,24.563908424153,0 79.4753462503779,24.5639345268195,0 79.4754506610441,24.5639214754862,0 79.4755588006627,24.5638916438673,0 79.4755699875197,24.5638357095819,0 79.4756986363763,24.5638674056769,0 79.4758272852329,24.5638711346293,0 79.4758906774231,24.5638748635817,0 79.4759727143751,24.5639009662482,0 79.4760715316127,24.5638767280578,0 79.4761032277078,24.5638953728197,0 79.4761684843742,24.563899101772,0 79.4762374699929,24.5638562188199,0 79.4762617081833,24.563776046344,0 79.4762859463736,24.5636473974875,0 79.4763120490402,24.5635579026307,0 79.4762673016118,24.5634628143455,0 79.4761759422789,24.5634721367264,0 79.4760864474221,24.5634982393929,0 79.4759391538038,24.5635038328215,0 79.4757918601854,24.563529935488,0 79.4755960901863,24.5635392578689,0 79.4755476138055,24.5634982393929,0 79.4755354947104,24.5634702722502,0 79.4754478643298,24.5634590853931,0 79.4753695563302,24.5634721367264,0 79.4752660779021,24.5634870525358,0 79.4751197165217,24.5635215453452,0 79.4750069157128,24.5635392578689,0 79.4749174208561,24.5635467157736,0 79.4747738561901,24.5635579026307,0 79.4747384311426,24.5635690894878,0 79.4746824968571,24.5635895987258,0</coordinates></LinearRing></outerBoundaryIs></Polygon>
  </Placemark>
  
    </Document>
</kml>