<?xml version="1.0" encoding="UTF-8"?>
<kml xmlns="http://www.opengis.net/kml/2.2">
    <Document>
        <Placemark xmlns:ns0="http://www.opengis.net/kml/2.2">
	<Style><LineStyle><color>ff0000ff</color></LineStyle><PolyStyle><fill>0</fill></PolyStyle></Style>
	<ExtendedData><SchemaData schemaUrl="#Wave24_v28MAR2025">
		<SimpleData name="area(ha)">1.279426283867704</SimpleData>
		<SimpleData name="site_id">240173_1.1</SimpleData>
		<SimpleData name="Land_parc">240173</SimpleData>
		<SimpleData name="district">Chhatarpur</SimpleData>
		<SimpleData name="block">bijawar</SimpleData>
		<SimpleData name="village">Mednipura</SimpleData>
		<SimpleData name="Land Type">Farmer</SimpleData>
		<SimpleData name="Instance">Wave 2024</SimpleData>
	</SchemaData></ExtendedData>
      <Polygon><outerBoundaryIs><LinearRing><coordinates>79.4597833,24.5727467,0 79.4597706,24.5727197,0 79.4598236,24.5726702,0 79.45985,24.57259,0 79.4599327,24.5725089,0 79.4600422,24.5724351,0 79.4601171,24.5723852,0 79.4601666,24.5723053,0 79.4601422,24.5722769,0 79.4601082,24.5721949,0 79.4600998,24.5721002,0 79.4600137,24.5719474,0 79.4600552,24.5718203,0 79.4601274,24.57175,0 79.4602605,24.5716008,0 79.4602348,24.5714994,0 79.4601237,24.5715012,0 79.4599298,24.5714502,0 79.4598802,24.5714163,0 79.4597685,24.5714215,0 79.4596803,24.5714742,0 79.4595539,24.5715192,0 79.4593951,24.5715335,0 79.4593341,24.5715399,0 79.4591997,24.5715828,0 79.4590968,24.5716737,0 79.4589973,24.5717406,0 79.4589224,24.5718231,0 79.4588615,24.5718648,0 79.4588948,24.5719497,0 79.4589623,24.5719981,0 79.4591,24.5719324,0 79.4592198,24.571998,0 79.4593728,24.5721214,0 79.4593871,24.5723595,0 79.4592487,24.5725472,0 79.4592569467962,24.5727749976221,0 79.4593851541616,24.5729473083212,0 79.4595318233876,24.5729452570033,0 79.4596478,24.5728535,0 79.4597833,24.5727467,0</coordinates></LinearRing></outerBoundaryIs></Polygon>
  </Placemark>
  
    </Document>
</kml>