<?xml version="1.0" encoding="UTF-8"?>
<kml xmlns="http://www.opengis.net/kml/2.2">
    <Document>
        <Placemark xmlns:ns0="http://www.opengis.net/kml/2.2">
	<Style><LineStyle><color>ff0000ff</color></LineStyle><PolyStyle><fill>0</fill></PolyStyle></Style>
	<ExtendedData><SchemaData schemaUrl="#Wave24_v28MAR2025">
		<SimpleData name="area(ha)">1.250522375288246</SimpleData>
		<SimpleData name="site_id">240181_1.1</SimpleData>
		<SimpleData name="Land_parc">240181</SimpleData>
		<SimpleData name="district">Damoh</SimpleData>
		<SimpleData name="block">Batiyagrah</SimpleData>
		<SimpleData name="village">Kurtal</SimpleData>
		<SimpleData name="Land Type">Farmer</SimpleData>
		<SimpleData name="Instance">Wave 2024</SimpleData>
	</SchemaData></ExtendedData>
      <Polygon><outerBoundaryIs><LinearRing><coordinates>79.4023697694551,24.2733637606748,0 79.4023711461001,24.2733757508878,0 79.4023728293567,24.2733853801356,0 79.4023799011821,24.2734153647771,0 79.4023748257976,24.2734305506139,0 79.4023735724994,24.2734363066646,0 79.4023685674573,24.2734415819521,0 79.402357074695,24.2734638169851,0 79.4023487746797,24.2734879169792,0 79.4023476326722,24.2734914875866,0 79.4023416326587,24.2735117875822,0 79.402338653855,24.2735440108687,0 79.4023482525882,24.2735751295413,0 79.4023660525694,24.2736084295506,0 79.4023661785648,24.2736086643992,0 79.402373701066,24.2736226347775,0 79.402374991295,24.2736255436623,0 79.4023825415947,24.2736548518999,0 79.4023846245163,24.27366171463,0 79.4023887245083,24.2736734146321,0 79.4023913655917,24.2736800484488,0 79.4023964475681,24.2736914123318,0 79.4023995270266,24.2737013871236,0 79.4024007574824,24.273705070904,0 79.4024039266265,24.2737138826889,0 79.4024067677483,24.273723747721,0 79.4024089005647,24.2737301744059,0 79.4024103789543,24.273734098535,0 79.4024099719068,24.273739154445,0 79.4024115089056,24.2737630023518,0 79.4024198148059,24.273785646003,0 79.4024448147796,24.2738322460161,0 79.4024639005989,24.2738565616784,0 79.4025072005969,24.2738958616978,0 79.4025135934485,24.2739011762523,0 79.4025291249105,24.273912993675,0 79.4025624588613,24.2739506598673,0 79.40256736702,24.2739756184698,0 79.402573376729,24.2739943173344,0 79.4026203824037,24.2740977670042,0 79.4026427705568,24.2742016926204,0 79.4026582135434,24.2742353227953,0 79.4027389521575,24.2743430681569,0 79.4028026114357,24.2744772554307,0 79.4028025991762,24.2744796442217,0 79.4028100307698,24.2745038331424,0 79.4028244472476,24.2745252075501,0 79.4028347114853,24.274536529967,0 79.4028381724998,24.2745518789617,0 79.4028652724456,24.2746305789754,0 79.402874946297,24.2746501670804,0 79.4029035032523,24.2746933991829,0 79.4029394640358,24.2747490291834,0 79.402940940608,24.2747512403716,0 79.4029711405888,24.274795040387,0 79.4029897379157,24.2748149088021,0 79.4030144348485,24.2748346118792,0 79.4030302359565,24.274849042123,0 79.4030456093956,24.2748664708467,0 79.4030649834279,24.2748831939419,0 79.4030863834329,24.2748971939501,0 79.4031210815022,24.2749115989818,0 79.403151172667,24.2749180769437,0 79.4031804711285,24.2749328331052,0 79.4031890907711,24.2749366860948,0 79.4032453055669,24.2749587775282,0 79.4032582287637,24.2749641012372,0 79.4032843244951,24.2749885183088,0 79.4033497706088,24.2750586115293,0 79.4033752719411,24.275078051376,0 79.4034063665074,24.2750886297686,0 79.4034395285428,24.2750891472389,0 79.4034709978536,24.2750795451113,0 79.4034744788464,24.275077070281,0 79.4034765446473,24.275076891755,0 79.4034800925248,24.275076525568,0 79.403533392562,24.2750701255655,0 79.4035746884777,24.2750560582334,0 79.4035917884842,24.2750457582277,0 79.4036052882464,24.2750359782595,0 79.4036296882491,24.2750148782489,0 79.4036492029011,24.274991353637,0 79.4036602028925,24.2749722536303,0 79.4036711481881,24.2749387020366,0 79.403677548142,24.2748774020301,0 79.4036779625551,24.2748711583522,0 79.4036791625228,24.2748290583497,0 79.4036769448966,24.2748075062394,0 79.4036691947712,24.2747870574568,0 79.4036546947558,24.2747598574643,0 79.4036481985091,24.2747494776044,0 79.4036473013234,24.2747482417473,0 79.4036469971238,24.2747446707407,0 79.4036446052608,24.2747307395366,0 79.4036420768308,24.2747210280958,0 79.4036386482593,24.2746767999628,0 79.4036362685756,24.2746624844323,0 79.4036277315269,24.2746292848981,0 79.4036198896144,24.2745647971072,0 79.40361911502,24.2745597338835,0 79.4036160868633,24.2745433314368,0 79.4036145224647,24.2745287579336,0 79.4036102752107,24.2745099826223,0 79.403602775196,24.2744885826262,0 79.4035969698031,24.274475587872,0 79.4035550217898,24.2743992331631,0 79.4035463204734,24.2743774799122,0 79.4035429079372,24.2743575198832,0 79.4035414352523,24.2743506561855,0 79.4035410382909,24.2743491224755,0 79.4035404211193,24.2743415621953,0 79.4035393496823,24.2743334238186,0 79.4035313312832,24.2742894206009,0 79.4035374946504,24.2742589865917,0 79.4035304384657,24.27422583845,0 79.4035251422434,24.2742137129093,0 79.4035197065828,24.2741946104948,0 79.4035185717333,24.2741909414206,0 79.4035094172196,24.274163561165,0 79.4035004807826,24.2741157514215,0 79.4034947421322,24.2740972189443,0 79.403466616812,24.2740333125287,0 79.4034643938286,24.2740154181049,0 79.4034560746756,24.2739841309457,0 79.4034511143923,24.2739565837752,0 79.4034484474564,24.2739413724297,0 79.4034476712421,24.2739374890896,0 79.4034414712217,24.2739098890925,0 79.4034406048531,24.2739063865166,0 79.4034306048263,24.2738693865215,0 79.4034239177575,24.2738522622287,0 79.4034184879582,24.273841815782,0 79.4034123111753,24.2738217578906,0 79.4034059646445,24.273789143902,0 79.4034050861239,24.2737851521965,0 79.4034006861107,24.2737672521986,0 79.4033974669192,24.2737570153003,0 79.4033841668962,24.2737225153072,0 79.4033818818109,24.273717140827,0 79.4033767173977,24.2737060545711,0 79.4033676943076,24.2736776089645,0 79.4033610131493,24.273647677477,0 79.4033613548769,24.2736238117627,0 79.4033578548603,24.2736019117641,0 79.4033502176351,24.273577943504,0 79.403344630058,24.2735665626909,0 79.4033456312925,24.2735637819082,0 79.4033473565114,24.2735415115324,0 79.4033451228937,24.2735029578632,0 79.4033448600138,24.2734942392364,0 79.403350951162,24.2734657890152,0 79.4033526499655,24.2734435011207,0 79.4033493126939,24.273426527857,0 79.4033523452661,24.2734003262561,0 79.4033528945913,24.2733910618953,0 79.4033529879085,24.2733615664797,0 79.4033536848993,24.2733486719674,0 79.4033562692797,24.2733423147865,0 79.4033585895456,24.2733182239523,0 79.4033538508266,24.2732944327319,0 79.4033427618369,24.2732632288975,0 79.403339302447,24.273247285678,0 79.4033371014602,24.273239140722,0 79.4033258014359,24.2732043407277,0 79.403322110016,24.2731949181204,0 79.4033141851031,24.2731777475054,0 79.4033129497309,24.273161169909,0 79.4033094497174,24.2731432699105,0 79.4033080687583,24.2731373555333,0 79.403298501616,24.2731021823145,0 79.4032876988397,24.2730510366112,0 79.4032848593032,24.2730408268723,0 79.4032687294777,24.2729943497985,0 79.4032656973558,24.2729634981982,0 79.4032625490952,24.2729475923724,0 79.403242149047,24.2728797923826,0 79.4032412744232,24.2728770549986,0 79.4032344744093,24.272856955002,0 79.4032309218639,24.272848113743,0 79.4032200218496,24.2728248137487,0 79.4032182283999,24.2728212013734,0 79.4032010982671,24.2727886169267,0 79.4031897095279,24.2727631973017,0 79.4031741725441,24.2727398566338,0 79.4031674379514,24.2727212732452,0 79.403159617717,24.272696136838,0 79.4031462553795,24.2726700046264,0 79.4031245808419,24.2726490724772,0 79.4030791808504,24.2726173724953,0 79.4030564286893,24.2726054961207,0 79.4030310670655,24.2725995344556,0 79.4029858670963,24.2725946344606,0 79.402982381622,24.2725943141105,0 79.4029558816404,24.2725923141129,0 79.4029248769006,24.2725944890169,0 79.402889776924,24.2726021890129,0 79.4028639742202,24.2726115322437,0 79.4028420372694,24.2726271008714,0 79.4027973372706,24.2726693008509,0 79.402778856469,24.2726938012318,0 79.4027700778211,24.2727224808411,0 79.4027679489979,24.2727405047622,0 79.4027461120585,24.2727503649342,0 79.4026772590937,24.2727734499849,0 79.4026292550935,24.2727777346392,0 79.4026085022431,24.2727816875799,0 79.4025454022826,24.2728003875695,0 79.4025396400017,24.2728022784479,0 79.4025176922609,24.272810194027,0 79.4024280795472,24.2728375383788,0 79.4023781777909,24.27285137832,0 79.4023397864628,24.2728715447143,0 79.4022722408499,24.2729288702024,0 79.4022461202615,24.2729454105079,0 79.4022254880986,24.2729629545979,0 79.4022111101561,24.2729851311096,0 79.4022041601823,24.2730101296609,0 79.4022052055437,24.2730359094911,0 79.4022138055113,24.2730791094949,0 79.4022314672659,24.2731165359626,0 79.4022633672526,24.2731561359784,0 79.4022837888738,24.27317492796,0 79.4022922888756,24.2731807279633,0 79.402294137863,24.2731819593254,0 79.4023003608766,24.2731860033635,0 79.4023036639808,24.2731959631253,0 79.4023179216984,24.2732223979614,0 79.4023360479868,24.2732455155686,0 79.4023431045749,24.2732666853786,0 79.4023435419615,24.2732679635362,0 79.4023507670333,24.2732885413166,0 79.4023620078517,24.2733262622814,0 79.402362251025,24.2733335576524,0 79.4023659035059,24.2733553099706,0 79.4023697694551,24.2733637606748,0</coordinates></LinearRing></outerBoundaryIs><innerBoundaryIs><LinearRing><coordinates>79.4024247768083,24.2730455027471,0 79.4024569533991,24.2730181946789,0 79.4024864222771,24.2730100216679,0 79.402489007395,24.2730092689318,0 79.4025824074531,24.2729807689159,0 79.4025873600286,24.2729791215501,0 79.4026089109578,24.2729713490842,0 79.402658954704,24.2729565183727,0 79.4027088449587,24.2729520653583,0 79.4027331320957,24.2729469966722,0 79.4028187321473,24.272918296656,0 79.4028284217981,24.2729144975715,0 79.4029130218417,24.2728762975498,0 79.4029431126155,24.2728552888637,0 79.4029623474218,24.2728254333728,0 79.402967947413,24.272810933369,0 79.40297357536,24.2727790191936,0 79.4029726979948,24.2727750458268,0 79.4029796374229,24.2727757981107,0 79.4029798284856,24.2727763657632,0 79.4029931284607,24.2728130657701,0 79.4030116548336,24.2728431859055,0 79.4030134597472,24.2728451261891,0 79.4030199904085,24.2728597026475,0 79.4030223715681,24.2728645985621,0 79.4030398315104,24.2728978104545,0 79.4030478498694,24.2729149506434,0 79.4030526646439,24.2729291825816,0 79.4030702969892,24.2729877843496,0 79.4030735026043,24.2730204017388,0 79.4030777406982,24.2730396730576,0 79.4030953954255,24.2730905442647,0 79.4031056010981,24.2731388633309,0 79.4031067312396,24.2731435443999,0 79.4031161326287,24.2731781084277,0 79.4031171458632,24.2731832904189,0 79.4031167877133,24.2731913038832,0 79.4031244899585,24.2732301818142,0 79.4031385588528,24.2732606644678,0 79.4031469913604,24.2732866336662,0 79.4031506975142,24.2733037142612,0 79.4031536491604,24.2733140672015,0 79.4031573126699,24.2733243761707,0 79.4031575486773,24.2733325415698,0 79.4031573257402,24.273332531443,0 79.4031561257232,24.2733547314413,0 79.4031560054374,24.2733589380422,0 79.4031559201164,24.2733858929074,0 79.40315145472,24.2734244736766,0 79.4031539948461,24.2734480778243,0 79.4031494488407,24.273469310918,0 79.4031476425226,24.2734891945651,0 79.4031482425072,24.2735090945647,0 79.4031483435158,24.2735113884036,0 79.4031495128593,24.2735315725588,0 79.4031464740256,24.2735399358525,0 79.4031445924154,24.2735617060344,0 79.4031456923969,24.2735856060342,0 79.4031542823352,24.2736188564315,0 79.4031641212515,24.2736388964644,0 79.4031649584821,24.2736713206531,0 79.4031681741781,24.2736845617958,0 79.4031755041414,24.2737174001437,0 79.4031774220483,24.2737245104337,0 79.4031892220222,24.2737617104396,0 79.4031932181515,24.2737719591124,0 79.4031994819159,24.2737854053478,0 79.4032097934608,24.2738121533924,0 79.4032124254831,24.2738228609705,0 79.4032192353073,24.273857856038,0 79.4032214091721,24.2738665297255,0 79.4032307091507,24.2738967297301,0 79.4032309681305,24.2738966627121,0 79.4032368822011,24.2739122377114,0 79.403241793094,24.2739216858561,0 79.4032489239328,24.2739480700324,0 79.4032542943107,24.2739719769573,0 79.4032566525138,24.273985427508,0 79.4032567195355,24.2739858046851,0 79.4032623195121,24.2740169046875,0 79.403263806168,24.2740235818287,0 79.4032700588126,24.2740470972787,0 79.4032700119403,24.2740505890626,0 79.4032771578725,24.2740854809799,0 79.403308103948,24.27415579697,0 79.4033163191577,24.2741997485194,0 79.4033192282538,24.2742109585133,0 79.4033296185346,24.2742420349688,0 79.4033348520564,24.2742604271089,0 79.4033319272148,24.2742715085721,0 79.4033327503497,24.2742956761129,0 79.4033443128714,24.274359129245,0 79.4033451788629,24.2743697377408,0 79.4033475647261,24.2743838437514,0 79.4033488832518,24.27438893807,0 79.4033535920218,24.2744164800555,0 79.4033599175788,24.2744340507758,0 79.4033592249164,24.2744342835998,0 79.4033720248954,24.2744662836064,0 79.4033765301881,24.2744758120508,0 79.4034175746172,24.2745505222359,0 79.4034195075479,24.2745560375431,0 79.4034203775119,24.274564142003,0 79.4034212849755,24.2745703660516,0 79.4034244194446,24.274587344497,0 79.4034326103205,24.2746547028316,0 79.4034346314249,24.2746654155008,0 79.4034427133967,24.2746968454858,0 79.403446151695,24.2747411999737,0 79.4034485947236,24.2747557603992,0 79.4034512035455,24.2747657806767,0 79.4034529028485,24.2747857291957,0 79.4034580003916,24.274808176147,0 79.4034691014366,24.27482872234,0 79.4034805772978,24.2748445301641,0 79.4034816069664,24.2748464616833,0 79.4034811266261,24.2748633131621,0 79.4034778526745,24.2748946712582,0 79.4034581995209,24.2748970311105,0 79.4034318293075,24.274868788462,0 79.4034273573678,24.274864312702,0 79.4033948545899,24.2748339007637,0 79.403390364498,24.2748292634586,0 79.4033570736382,24.2748068434707,0 79.4033252736535,24.2747937434798,0 79.4033237091473,24.2747931138759,0 79.4032711214218,24.2747724478277,0 79.4032342288268,24.2747538668897,0 79.4032093184359,24.2747451010045,0 79.4031877992436,24.2747404684032,0 79.4031800905315,24.2747317291198,0 79.4031730158644,24.2747245349089,0 79.4031511158632,24.2747045349187,0 79.4031462620126,24.2747003911547,0 79.4031299485692,24.2746873763928,0 79.4031082149351,24.274655855455,0 79.4030727358784,24.2746009707845,0 79.4030722536633,24.2746002328546,0 79.4030495718678,24.2745658951749,0 79.403029060007,24.2745063276489,0 79.4030272848501,24.2744904147443,0 79.4030201109731,24.2744646357307,0 79.4030050526924,24.2744418923941,0 79.4029936553712,24.2744293201027,0 79.4029918241348,24.2744232916916,0 79.4029158240373,24.2742630917313,0 79.4029066864373,24.2742479771143,0 79.4028320924068,24.2741484318733,0 79.4028117293365,24.2740539073277,0 79.4028060232939,24.274036682582,0 79.4027593355422,24.2739339329387,0 79.4027518329236,24.2738957814711,0 79.4027444304354,24.2738741636392,0 79.4027313899433,24.2738549158865,0 79.4026759899271,24.2737923159132,0 79.4026624064795,24.2737797237079,0 79.402642730024,24.2737647524986,0 79.4026142732556,24.2737389245473,0 79.4026081344677,24.2737274818627,0 79.4026031994099,24.2736927255305,0 79.4025962962954,24.2736744024855,0 79.4025936322118,24.2736651522193,0 79.4025919424871,24.273659929034,0 79.4025885005862,24.2736503588907,0 79.4025844729297,24.2736373128176,0 79.4025808343723,24.2736276514901,0 79.4025750965151,24.2736148210249,0 79.402573364685,24.273609878984,0 79.4025649583514,24.2735772480424,0 79.4025603412835,24.2735639916411,0 79.4025548412757,24.2735515916439,0 79.4025519213918,24.2735456355416,0 79.4025460835798,24.2735347939056,0 79.4025552231302,24.2735228395871,0 79.4025641347114,24.2734931192552,0 79.4025660775826,24.273474762342,0 79.4025757742205,24.2734457493207,0 79.4025800073702,24.2734231077958,0 79.4025778706572,24.2734002197961,0 79.4025664963046,24.2733519926986,0 79.4025639538686,24.2733298490492,0 79.4025587127647,24.2733149562884,0 79.4025585489607,24.2733100422832,0 79.4025551134612,24.2732890065766,0 79.4025402134256,24.2732390065839,0 79.4025389580165,24.2732351363997,0 79.402531281867,24.2732132739951,0 79.4025196953649,24.2731785145669,0 79.4025054782493,24.273152201979,0 79.4024873937297,24.2731291376862,0 79.4024790359563,24.2731039368207,0 79.4024646968604,24.273077398395,0 79.4024417620619,24.2730565406362,0 79.4024247768083,24.2730455027471,0</coordinates></LinearRing></innerBoundaryIs></Polygon>
  </Placemark>
  
    </Document>
</kml>