<?xml version="1.0" encoding="UTF-8"?>
<kml xmlns="http://www.opengis.net/kml/2.2">
    <Document>
        <Placemark xmlns:ns0="http://www.opengis.net/kml/2.2">
	<Style><LineStyle><color>ff0000ff</color></LineStyle><PolyStyle><fill>0</fill></PolyStyle></Style>
	<ExtendedData><SchemaData schemaUrl="#Wave24_v28MAR2025">
		<SimpleData name="area(ha)">0.728562805132137</SimpleData>
		<SimpleData name="site_id">240123_1.1</SimpleData>
		<SimpleData name="Land_parc">240123</SimpleData>
		<SimpleData name="district">Damoh</SimpleData>
		<SimpleData name="block">Tendukheda</SimpleData>
		<SimpleData name="village">Daroli</SimpleData>
		<SimpleData name="Land Type">Farmer</SimpleData>
		<SimpleData name="Instance">Wave 2024</SimpleData>
	</SchemaData></ExtendedData>
      <Polygon><outerBoundaryIs><LinearRing><coordinates>79.4040852,23.3249347,0 79.4040946,23.3249306,0 79.4041718552838,23.3248838505319,0 79.404130827824,23.3247393219801,0 79.4041112465363,23.3245491037571,0 79.4040795434991,23.324545373988,0 79.4034790506775,23.3246423479841,0 79.4035126185992,23.3248605394752,0 79.4035704300199,23.3250022707001,0 79.4035573758281,23.3250712714281,0 79.4035349972137,23.3252689491893,0 79.4036543498242,23.3253006522264,0 79.4036879177459,23.3253565987626,0 79.4036506200551,23.3253659231853,0 79.403740134513,23.3255374925629,0 79.4037028368222,23.3255449521011,0 79.4036991070531,23.3257817924376,0 79.4036301063252,23.325921658778,0 79.4037904863956,23.3259887946214,0 79.4037774321116,23.3258489282418,0 79.403978839734,23.3255337627939,0 79.4040124076557,23.3254908704494,0 79.404169057957,23.3253603285317,0 79.4043539,23.3252874,0 79.4043928441018,23.3252503003439,0 79.4042767550392,23.3250983122539,0 79.4042133,23.3251185,0 79.4040852,23.3249347,0</coordinates></LinearRing></outerBoundaryIs></Polygon>
  </Placemark>
  
    </Document>
</kml>