<?xml version="1.0" encoding="UTF-8"?>
<kml xmlns="http://www.opengis.net/kml/2.2">
    <Document>
        <Placemark xmlns:ns0="http://www.opengis.net/kml/2.2">
	<Style><LineStyle><color>ff0000ff</color></LineStyle><PolyStyle><fill>0</fill></PolyStyle></Style>
	<ExtendedData><SchemaData schemaUrl="#Wave24_v28MAR2025">
		<SimpleData name="area(ha)">1.630356887818157</SimpleData>
		<SimpleData name="site_id">240183_1.1</SimpleData>
		<SimpleData name="Land_parc">240183</SimpleData>
		<SimpleData name="district">Chhatarpur</SimpleData>
		<SimpleData name="block">Bijawar</SimpleData>
		<SimpleData name="village">Tikri</SimpleData>
		<SimpleData name="Land Type">Farmer</SimpleData>
		<SimpleData name="Instance">Wave 2024</SimpleData>
	</SchemaData></ExtendedData>
      <Polygon><outerBoundaryIs><LinearRing><coordinates>79.4555789758528,24.5719647003706,0 79.4556569,24.5719556,0 79.4557947,24.5719274,0 79.4558774,24.5719757,0 79.4559327,24.5720099,0 79.4559671,24.57205,0 79.4560114,24.5721246,0 79.4561426,24.5721696,0 79.4561981,24.5721573,0 79.4562615,24.57211,0 79.4562926,24.5720623,0 79.4563505,24.5720162,0 79.4563956,24.5719838,0 79.4564698,24.5719449,0 79.4565288,24.571929,0 79.4565719808282,24.5719185140926,0 79.4566357178917,24.5718834125214,0 79.4567013024064,24.5718363025179,0 79.4567511835865,24.57179842977,0 79.4568315477101,24.5717402350598,0 79.4568823526159,24.5717171419209,0 79.4569414710516,24.5716469387784,0 79.4569931996829,24.571616455835,0 79.4569885810551,24.571545328967,0 79.4569546982372,24.571513291569,0 79.4569253058543,24.5714705071967,0 79.4568909685327,24.5714258441179,0 79.4568268,24.5713587,0 79.4567949,24.5713069,0 79.4567807428044,24.571277448555,0 79.456727166722,24.5712044742359,0 79.4566966837787,24.5711629065857,0 79.4566588110307,24.5710834661877,0 79.456631099264,24.5710418985376,0 79.4565886078883,24.5709541446095,0 79.456543345336,24.5708959498993,0 79.4565248708248,24.570850687347,0 79.4564906929791,24.5707758655767,0 79.4563642,24.5707768,0 79.4563209,24.570799,0 79.4562709,24.5708045,0 79.4561923,24.5708324,0 79.4561198,24.5708652,0 79.4560742,24.5708971,0 79.4560172,24.5709248,0 79.4559575,24.5709481,0 79.4558521,24.5709431,0 79.4557931,24.5709748,0 79.4557546,24.5710047,0 79.4557009,24.5710367,0 79.4556611874275,24.5710455934398,0 79.455637170563,24.5709328989217,0 79.4556131536985,24.5709624581396,0 79.4554986117292,24.571001254613,0 79.4555078489848,24.5710714577555,0 79.4554921456503,24.5710806950111,0 79.4554284085868,24.5711028644245,0 79.4554062391734,24.5710178816731,0 79.4553711376021,24.5710400510865,0 79.4552325787684,24.5711065593267,0 79.455337883482,24.5712007793337,0 79.4553828,24.5712797,0 79.4554193,24.571348,0 79.455456,24.5713911,0 79.4554544,24.5714562,0 79.4554686,24.5715226,0 79.4555093,24.5715557,0 79.4555075,24.5716503,0 79.4555228,24.5717095,0 79.4555273,24.5717631,0 79.4555456,24.5718256,0 79.4555528,24.5719092,0 79.4555789758528,24.5719647003706,0</coordinates></LinearRing></outerBoundaryIs></Polygon>
  </Placemark>
  
    </Document>
</kml>