<?xml version="1.0" encoding="UTF-8"?>
<kml xmlns="http://www.opengis.net/kml/2.2">
    <Document>
        <Placemark xmlns:ns0="http://www.opengis.net/kml/2.2">
	<Style><LineStyle><color>ff0000ff</color></LineStyle><PolyStyle><fill>0</fill></PolyStyle></Style>
	<ExtendedData><SchemaData schemaUrl="#Wave24_v28MAR2025">
		<SimpleData name="area(ha)">42.510165267622760</SimpleData>
		<SimpleData name="site_id">240112_1.2</SimpleData>
		<SimpleData name="Land_parc">240112</SimpleData>
		<SimpleData name="district">Katni</SimpleData>
		<SimpleData name="block">Barwara</SimpleData>
		<SimpleData name="village">Jharela</SimpleData>
		<SimpleData name="Land Type">Community</SimpleData>
		<SimpleData name="Instance">Wave 2024</SimpleData>
	</SchemaData></ExtendedData>
      <Polygon><outerBoundaryIs><LinearRing><coordinates>80.6654408123887,23.6661205619548,0 80.6654304289696,23.6661364174978,0 80.6653983,23.6661412,0 80.6654199263455,23.6661991127653,0 80.6654784559852,23.6662309950435,0 80.6654887060879,23.6662675364782,0 80.6655265699184,23.6662914351473,0 80.6655540261077,23.6663407160819,0 80.6656903950665,23.6662679717165,0 80.665775856206,23.6662165526881,0 80.6659053295715,23.6661437932579,0 80.6659640045377,23.6661185150079,0 80.6660399259002,23.6660900983111,0 80.6661244744689,23.6660585245719,0 80.6661486726668,23.666033171967,0 80.666228069826,23.6659936480919,0 80.666245574195,23.6658888912457,0 80.6661543642789,23.665828358525,0 80.6661096615918,23.6657822161269,0 80.6660828,23.6657208,0 80.6660916,23.6656745,0 80.6661196,23.6655739,0 80.6660736,23.6654338,0 80.6660976,23.6653485,0 80.6661144,23.6653006,0 80.6661806116115,23.6653354043391,0 80.666280561238,23.6653483219775,0 80.6663979828115,23.6652691849786,0 80.6663655,23.6651851,0 80.6663794,23.665063,0 80.6663013,23.664998,0 80.6663266,23.6648568,0 80.6663543,23.6647641,0 80.6663414,23.6646161,0 80.6662581,23.664617,0 80.6661257,23.6645306,0 80.666178,23.6644152,0 80.6662396,23.6642761,0 80.6662845,23.6642164,0 80.6664014,23.6640561,0 80.6664586,23.664005,0 80.6664791,23.6639804,0 80.6665403,23.6639238,0 80.6665985,23.6638057,0 80.6666578,23.6637153,0 80.6668836,23.6637269,0 80.6669273,23.6637021,0 80.6668644,23.6634993,0 80.6667976,23.6634826,0 80.6667194,23.6634756,0 80.6666827,23.6634669,0 80.6665427,23.6634029,0 80.6665277,23.6633273,0 80.6664564,23.6632469,0 80.6664048,23.6631584,0 80.6663447,23.6630703,0 80.6662691,23.6630411,0 80.6661388,23.6629736,0 80.6660921,23.6629462,0 80.6659861,23.6628173,0 80.6659094,23.6628125,0 80.665896,23.6627938,0 80.6658204,23.6627416,0 80.6657572,23.6626971,0 80.6657072,23.6626768,0 80.6656737,23.662675,0 80.6656177,23.6627227,0 80.6655583,23.6627419,0 80.6654981,23.6627047,0 80.6654522,23.6627141,0 80.6654496,23.6625893,0 80.6653583,23.66248,0 80.6653124,23.662429,0 80.6652807,23.6623739,0 80.6652585,23.6622782,0 80.6652389,23.6621875,0 80.6652028,23.6621131,0 80.6651084,23.6620661,0 80.6650779,23.6619895,0 80.6650698,23.6619555,0 80.665054,23.661846,0 80.6650072,23.6618121,0 80.6649619,23.6617784,0 80.6649373,23.6617672,0 80.6648396,23.661735,0 80.6648076,23.66172,0 80.6647662,23.6616653,0 80.6647013,23.6615804,0 80.6646565,23.6615509,0 80.6645752,23.6615226,0 80.6645185,23.6615183,0 80.6643869,23.6613872,0 80.6643146,23.6613295,0 80.6642804,23.6612748,0 80.6642899,23.6611329,0 80.6643532,23.6610753,0 80.6644208,23.6609421,0 80.6644341,23.6608891,0 80.6644149,23.6607952,0 80.6644328,23.6607053,0 80.6644577,23.6606532,0 80.664469,23.6606326,0 80.6644902,23.6606243,0 80.6645348,23.6605334,0 80.6645284,23.6605134,0 80.6645165,23.6604846,0 80.6644798,23.6604341,0 80.6643941,23.6603118,0 80.6643231,23.6602148,0 80.664282,23.6601645,0 80.664159,23.6600878,0 80.664149,23.6599854,0 80.6641369,23.6599467,0 80.664092,23.6599085,0 80.6641228,23.6598492,0 80.6641254,23.6598266,0 80.6641277,23.6597953,0 80.6640714,23.6596648,0 80.6640532,23.6596438,0 80.6640127,23.6595706,0 80.6639881,23.6594822,0 80.6639925,23.6594227,0 80.6639691,23.6593693,0 80.6639401,23.6593162,0 80.6639216,23.6592593,0 80.6638581,23.6591731,0 80.6639121,23.6591136,0 80.6639023,23.6590613,0 80.6638656,23.658993,0 80.6638245,23.6589607,0 80.6638283,23.6589122,0 80.6637969,23.6588899,0 80.6637433,23.6588121,0 80.6636847,23.6586564,0 80.6636679,23.6586146,0 80.6636652,23.6586073,0 80.6635911,23.6585362,0 80.6635551,23.6585033,0 80.6635278,23.6584775,0 80.6635061,23.6584277,0 80.6634525,23.6583729,0 80.6634337,23.6583481,0 80.6633931,23.6583281,0 80.6633684,23.6582857,0 80.6633147,23.6582194,0 80.6632674,23.6581636,0 80.6631981,23.6581307,0 80.663135,23.658087,0 80.6631108,23.658057,0 80.663026,23.6579947,0 80.6629399,23.6579297,0 80.662868,23.6578718,0 80.6628367,23.6578594,0 80.6627586,23.6578196,0 80.6626955,23.6577642,0 80.6626372,23.6577346,0 80.6625884,23.6576797,0 80.6625159,23.6576501,0 80.6624413,23.657622,0 80.6623644,23.6575744,0 80.662313,23.6575314,0 80.6622851,23.6575428,0 80.6621686,23.6574441,0 80.6620875,23.657368,0 80.6620557,23.6573244,0 80.6619743,23.6572885,0 80.6618474,23.6572526,0 80.6618086,23.6572467,0 80.661782,23.6572216,0 80.6617158,23.657218,0 80.6616847,23.657178,0 80.6616386,23.6571562,0 80.6615266,23.6571632,0 80.661501,23.6571467,0 80.6614523,23.6571044,0 80.6613716,23.6570836,0 80.6613091,23.6570459,0 80.6612575,23.6570159,0 80.6612345,23.6569562,0 80.6611171,23.6569482,0 80.6610915,23.6570049,0 80.6611093,23.6570932,0 80.6610142,23.6571239,0 80.6608823,23.6570689,0 80.6608327,23.6569601,0 80.6608312,23.6568393,0 80.6608712,23.656806,0 80.6607244,23.6568089,0 80.6605875,23.6567244,0 80.6605842,23.656653,0 80.6604767,23.6565667,0 80.6604009,23.6565774,0 80.6603254,23.6566061,0 80.6602745,23.6565604,0 80.6602285,23.6564989,0 80.6601119,23.6564328,0 80.6601117,23.6563643,0 80.6601138,23.6563371,0 80.660123,23.6562778,0 80.6601004,23.6561063,0 80.6601183,23.6560787,0 80.6600875,23.6559861,0 80.6600561,23.6559891,0 80.6599431,23.6559314,0 80.6597138,23.6559602,0 80.6596613,23.6559671,0 80.6595393,23.6559417,0 80.6594052,23.6559301,0 80.6592955,23.6558356,0 80.659385,23.6557565,0 80.6594353,23.6556853,0 80.6594467,23.655665,0 80.6593411,23.6555952,0 80.6592791,23.6555735,0 80.6591732,23.6555384,0 80.658931,23.6554824,0 80.6587818,23.6554123,0 80.658765,23.6553917,0 80.6587131,23.6553644,0 80.6585491,23.6553677,0 80.6583757,23.6553234,0 80.6579493,23.6553548,0 80.6578106,23.6553883,0 80.6576618,23.6554132,0 80.657546,23.6554088,0 80.6571553,23.6553603,0 80.657073,23.6553627,0 80.6569375,23.6553992,0 80.6568762,23.6554101,0 80.6567949,23.6552768,0 80.6567335,23.6551954,0 80.6565966,23.6552068,0 80.6565365,23.6551867,0 80.6565166,23.6552042,0 80.6563988,23.655261,0 80.6562717,23.6552244,0 80.6562191,23.6551883,0 80.6563338,23.6554285,0 80.656175,23.6555674,0 80.6559337,23.6554318,0 80.6558998,23.6551645,0 80.6558693,23.6551069,0 80.6558322,23.6550848,0 80.6558169,23.6550762,0 80.6558023,23.6549246,0 80.6557833,23.6547924,0 80.6556566,23.654646,0 80.6555522,23.6545674,0 80.6555033,23.6545422,0 80.65543,23.6545103,0 80.6553355,23.6544527,0 80.6551847,23.6544386,0 80.6550469,23.6544112,0 80.6549448,23.6543716,0 80.6548855,23.6543494,0 80.6547887,23.6543523,0 80.6547259,23.6544085,0 80.6546104,23.6544148,0 80.654435,23.6544335,0 80.6543329,23.6544434,0 80.6542257,23.6544371,0 80.6541347,23.6544463,0 80.6540721,23.6544551,0 80.6539412,23.6544659,0 80.6538155,23.6544235,0 80.6535773,23.654369,0 80.6534846,23.6543532,0 80.6532228,23.6543876,0 80.6530078,23.6543631,0 80.6528375,23.6543752,0 80.6527563,23.6543404,0 80.6525933,23.6544716,0 80.6524967,23.654455,0 80.6524645,23.6544201,0 80.6522033,23.6542916,0 80.6520809,23.6542755,0 80.65201488429,23.654307168878,0 80.6520136192203,23.6544595945423,0 80.6520091252023,23.6545294475177,0 80.6520192488739,23.6546120356803,0 80.6520391,23.654775,0 80.6520530421321,23.6548693346217,0 80.6520664788342,23.6550027397119,0 80.6522112433829,23.6550125913381,0 80.6523476,23.6549626,0 80.6524372,23.6549862,0 80.6525105,23.65502,0 80.652654,23.6550011,0 80.65276,23.6549818,0 80.6528141,23.6549485,0 80.6530241,23.6549574,0 80.6531169,23.6549712,0 80.6532023,23.6550343,0 80.653253,23.655113,0 80.6532135,23.6552211,0 80.6531729,23.6553378,0 80.6531556,23.6554177,0 80.6531546,23.6554694,0 80.6531987,23.6555227,0 80.653237,23.6555772,0 80.6532653,23.6555846,0 80.6533324,23.6556166,0 80.6533501,23.6556131,0 80.6534589,23.6556239,0 80.6535284,23.6555988,0 80.6535836,23.6556036,0 80.653666,23.6556051,0 80.6537195,23.6556274,0 80.6537818,23.6556361,0 80.6538409,23.6556644,0 80.6538912,23.6557017,0 80.6539807,23.6557014,0 80.6540638,23.6556854,0 80.6540928,23.6556786,0 80.6541719,23.6556668,0 80.6542432,23.6556759,0 80.6543086,23.655673,0 80.6544218,23.6556722,0 80.6544418,23.6556767,0 80.6544945,23.6556888,0 80.6545306,23.655757,0 80.6545544,23.6558381,0 80.6546598,23.6558897,0 80.6546949,23.6558826,0 80.6547911,23.6558946,0 80.6548466,23.6558884,0 80.6549062,23.6558648,0 80.6549721,23.6558681,0 80.6550612,23.6558783,0 80.6551556,23.6558773,0 80.6551874,23.6558809,0 80.6552525,23.6558781,0 80.6553109,23.65588,0 80.6553366,23.6558911,0 80.6553752,23.655933,0 80.6554069,23.6559422,0 80.6554312,23.6559869,0 80.6554332,23.6560101,0 80.6554953,23.6560188,0 80.6555934,23.6560226,0 80.6556548,23.6560229,0 80.655807,23.6560378,0 80.6558643,23.656045,0 80.6558926,23.6560492,0 80.6559516,23.656054,0 80.6560827,23.6560712,0 80.6561033,23.6561104,0 80.65613,23.6561145,0 80.6561955,23.6561248,0 80.6562228,23.6561929,0 80.656215,23.6562086,0 80.6562794,23.6562227,0 80.6563128,23.6562134,0 80.6564607,23.6562175,0 80.6566207,23.6562354,0 80.6568281,23.6562535,0 80.657083,23.6563113,0 80.6571652,23.6563809,0 80.6572638,23.6564682,0 80.6573855,23.6565463,0 80.65756,23.6564582,0 80.6576684,23.6564155,0 80.6578015,23.6564319,0 80.6578859,23.6564617,0 80.6579456,23.6564882,0 80.6580777,23.6565029,0 80.6582355,23.6565722,0 80.6583121,23.6566917,0 80.6583469,23.6567452,0 80.6584493,23.656764,0 80.6585084,23.6567442,0 80.6585763,23.6567442,0 80.6586626,23.6568062,0 80.6587204,23.6568405,0 80.6587666,23.6569175,0 80.658849,23.6569849,0 80.6590077,23.6569879,0 80.6591256,23.6570038,0 80.6592246,23.6571502,0 80.6592863,23.6572033,0 80.6593593,23.6572651,0 80.6594267,23.6573146,0 80.6595037,23.6573498,0 80.659556,23.6573667,0 80.6596513,23.657387,0 80.6597085,23.6573857,0 80.6598137,23.6573616,0 80.659727,23.6575238,0 80.6595823,23.6575682,0 80.6594861,23.6577021,0 80.6593895,23.6576954,0 80.6593168,23.6577098,0 80.6592076,23.6578115,0 80.6591224,23.6579434,0 80.6590226,23.6580272,0 80.6589285,23.6581137,0 80.6589162,23.6581752,0 80.6588525,23.6582548,0 80.6589505,23.6583642,0 80.6590618,23.6584467,0 80.6590245,23.6585225,0 80.6590068,23.6586232,0 80.6589684,23.6587158,0 80.6590404,23.6587454,0 80.6589574,23.6588817,0 80.6587859,23.6589809,0 80.6587512,23.6591469,0 80.6591317,23.6593517,0 80.6588178,23.6593691,0 80.6587992,23.6594642,0 80.6587455,23.6595771,0 80.6587601,23.659737,0 80.6587395,23.6598204,0 80.6586027,23.6598465,0 80.6586444,23.6599354,0 80.658711,23.6600711,0 80.6586859,23.66011,0 80.6587821,23.6602742,0 80.6587712,23.660319,0 80.6587489,23.660354,0 80.6587931,23.6603923,0 80.6587504,23.660397,0 80.6586273,23.6604393,0 80.6585839,23.6605216,0 80.6585807,23.660539,0 80.6585807,23.660591,0 80.6586073,23.6606703,0 80.6585893,23.6607381,0 80.6585225,23.6608807,0 80.6584241,23.660915,0 80.6580927,23.6607425,0 80.6580579,23.6608217,0 80.6580726,23.6609738,0 80.6583479,23.6610151,0 80.6588622,23.6608287,0 80.6590446,23.6608579,0 80.6591816,23.6608566,0 80.6593218,23.6608951,0 80.6594505,23.660889,0 80.6595686,23.6609113,0 80.6597452,23.6610038,0 80.6598421,23.6610442,0 80.6600015,23.66106,0 80.6602069,23.66107,0 80.6602917,23.6610245,0 80.6603779,23.6610116,0 80.6605864,23.6610382,0 80.6606253,23.66098,0 80.6607667,23.6608256,0 80.660669,23.660691,0 80.6606974,23.6606122,0 80.6607976,23.6605202,0 80.6608612,23.6604769,0 80.6611611,23.6604512,0 80.6613136,23.660415,0 80.661491,23.6603836,0 80.6615771,23.6604404,0 80.6617,23.6605679,0 80.6617964,23.6607762,0 80.661844,23.6608849,0 80.6619765,23.660964,0 80.6620728,23.6611168,0 80.662232,23.6611629,0 80.6623137,23.6613011,0 80.6623575,23.6613475,0 80.6624889,23.661495,0 80.6624833,23.6615043,0 80.6625918,23.6615291,0 80.6626433,23.6615545,0 80.6628476,23.6616152,0 80.6628598,23.6616666,0 80.6627865,23.6617545,0 80.6627449,23.6618205,0 80.6627245,23.6618592,0 80.6627342,23.6618946,0 80.6627467,23.6619416,0 80.6627463,23.6619671,0 80.6627494,23.6620744,0 80.6627568,23.6621346,0 80.6627587,23.662188,0 80.662742,23.6622353,0 80.6627106,23.6623194,0 80.6627108,23.6624071,0 80.6626893,23.6625203,0 80.6626628,23.6625976,0 80.6626481,23.6626773,0 80.6626384,23.6627328,0 80.6626205,23.6627665,0 80.6626032,23.6628208,0 80.6626148,23.662837,0 80.6625972,23.6629007,0 80.6626269,23.6631023,0 80.6627509,23.6633149,0 80.6627746,23.6633751,0 80.662911,23.66363,0 80.6630243,23.6636356,0 80.6631164,23.6636657,0 80.6633681,23.6636872,0 80.6634553,23.663715,0 80.6634997,23.6637304,0 80.6635967,23.663766,0 80.6637998,23.6638482,0 80.6640903,23.6639939,0 80.6645919,23.6641072,0 80.6648561,23.6643145,0 80.6650041,23.6644169,0 80.6651326,23.6645083,0 80.6652889,23.6646753,0 80.6653148,23.6647274,0 80.6653601,23.6648228,0 80.6654231,23.6650945,0 80.6654362746681,23.6651940731171,0 80.6654119956773,23.6652511813635,0 80.6654048983423,23.6653305558499,0 80.6653974858079,23.6655337777551,0 80.6653974858079,23.6655337777551,0 80.6653963592129,23.6656377759697,0 80.6653995967436,23.6657203483583,0 80.6653993542876,23.6658156156009,0 80.6654094386632,23.6659172563237,0 80.6653903,23.6659889,0 80.6653922,23.666022,0 80.665457467311,23.6660804175754,0 80.665456367311,23.6661047175754,0 80.6654408123887,23.6661205619548,0</coordinates></LinearRing></outerBoundaryIs></Polygon>
  </Placemark>
  
    </Document>
</kml>