<?xml version="1.0" encoding="UTF-8"?>
<kml xmlns="http://www.opengis.net/kml/2.2">
    <Document>
        <Placemark xmlns:ns0="http://www.opengis.net/kml/2.2">
	<Style><LineStyle><color>ff0000ff</color></LineStyle><PolyStyle><fill>0</fill></PolyStyle></Style>
	<ExtendedData><SchemaData schemaUrl="#Wave24_v28MAR2025">
		<SimpleData name="area(ha)">8.939550903926690</SimpleData>
		<SimpleData name="site_id">240112_2.2</SimpleData>
		<SimpleData name="Land_parc">240112</SimpleData>
		<SimpleData name="district">Katni</SimpleData>
		<SimpleData name="block">Barwara</SimpleData>
		<SimpleData name="village">Jharela</SimpleData>
		<SimpleData name="Land Type">Community</SimpleData>
		<SimpleData name="Instance">Wave 2024</SimpleData>
	</SchemaData></ExtendedData>
      <MultiGeometry><Polygon><outerBoundaryIs><LinearRing><coordinates>80.6725524,23.6683048,0 80.6725335,23.6682947,0 80.6725312,23.6682969,0 80.6725316352362,23.6683050280368,0 80.6725524,23.6683048,0</coordinates></LinearRing></outerBoundaryIs></Polygon><Polygon><outerBoundaryIs><LinearRing><coordinates>80.6723976,23.6683065,0 80.6723452,23.6683539,0 80.6722894,23.6683723,0 80.6722785408505,23.6683858926942,0 80.672220903805,23.6683317766806,0 80.6721929300047,23.6683066767609,0 80.6721642120125,23.6682393190063,0 80.6721039951023,23.6681977178631,0 80.6720726601129,23.6681577428674,0 80.6720183922934,23.6681153717574,0 80.6719487988467,23.6680862710795,0 80.6718979509053,23.6680352994118,0 80.6718623427203,23.668005488128,0 80.6718433052833,23.6679741468827,0 80.6718026543448,23.6679224142547,0 80.6717755381068,23.667894185983,0 80.6717246727201,23.667850256931,0 80.6716704911327,23.6677734548585,0 80.6716144853491,23.6677467303906,0 80.6715738189311,23.6677012578558,0 80.6715349181744,23.6676291832616,0 80.6714840647033,23.6675805590162,0 80.6714485232283,23.6675241419873,0 80.6713976580938,23.6674802128286,0 80.671362151894,23.6674097104353,0 80.6713367389223,23.6673799206525,0 80.6713213,23.6672917,0 80.6712562,23.6672337,0 80.6712664,23.6672114,0 80.6712218,23.6671353,0 80.6712334,23.6671047,0 80.6712394,23.6670239,0 80.6712345,23.6670179,0 80.6712211,23.6669691,0 80.6712228,23.6669685,0 80.6712746,23.6669421,0 80.6712434,23.666909,0 80.6712017,23.6668861,0 80.6711741,23.6668488,0 80.6711279,23.6668375,0 80.6710827,23.6668069,0 80.6710579,23.6667902,0 80.6709998,23.6667866,0 80.67092,23.6668024,0 80.6708758,23.6668061,0 80.6708755,23.6668045,0 80.6708420535164,23.6667927607088,0 80.6708064341504,23.666767644299,0 80.6707402536981,23.666733072669,0 80.6706943924558,23.6667267150315,0 80.6706298876732,23.6667015371955,0 80.6705739335408,23.6666544668572,0 80.6705347159503,23.6667091601147,0 80.6705057598823,23.6667372693882,0 80.6704801275612,23.6667951216096,0 80.670449468393,23.666824792297,0 80.6704087709208,23.66685598762,0 80.6703660885704,23.6668731313996,0 80.6703404718586,23.666924723443,0 80.6702996805388,23.6669293317998,0 80.6702536936362,23.6669730552539,0 80.6702026759998,23.6669901621962,0 80.6701703018688,23.667026089363,0 80.6702149013874,23.6671967743553,0 80.6702029504002,23.6672194420952,0 80.6701986220347,23.6672515163363,0 80.6701815676934,23.6672765207825,0 80.6701543361006,23.6672944608548,0 80.6701381725542,23.6673030342042,0 80.670111,23.6673099,0 80.6700986,23.6673122,0 80.6700338,23.6673324,0 80.6700076,23.6673245,0 80.6699564,23.6673417,0 80.6698912,23.6673385,0 80.669836,23.6673631,0 80.6697756,23.667388,0 80.6697538,23.6673717,0 80.6697319,23.6673534,0 80.6697153,23.6673329,0 80.6696954,23.6673054,0 80.6696928,23.6672832,0 80.6696751,23.6672579,0 80.6696483,23.6672185,0 80.6696345,23.6672086,0 80.6696288417274,23.6671368367633,0 80.6695949609878,23.6670960733195,0 80.6695067999509,23.66701841552,0 80.6694412115436,23.6670863551436,0 80.6694020464856,23.6671199200913,0 80.6693667104004,23.6671511456289,0 80.6693126993857,23.6671760711213,0 80.6692863340052,23.6671873614417,0 80.6692586824447,23.6672033441515,0 80.6692241998167,23.667233006431,0 80.6691850937336,23.6672430957525,0 80.669142155691,23.6672566982369,0 80.6691111008708,23.6672746299615,0 80.6690677439318,23.667285883961,0 80.6690346124348,23.667285030679,0 80.6689976637568,23.6672818216666,0 80.66893139584,23.6672820713629,0 80.6689020884227,23.6672808349609,0 80.6689214591914,23.667348173341,0 80.6689383305139,23.6673959432994,0 80.6689568517401,23.6674632798594,0 80.6689669560263,23.6674992975102,0 80.6689847557757,23.6675157685202,0 80.6690025535592,23.6675330220472,0 80.6690211910745,23.6675541899814,0 80.6690465917298,23.6675886752515,0 80.6691035961832,23.6675559310158,0 80.669122217962,23.6675833590896,0 80.6691732221809,23.6675717301412,0 80.6692607247714,23.6675734819748,0 80.6692977,23.6676462,0 80.6693127,23.6676789,0 80.6693323,23.6677526,0 80.6693671949471,23.6678029884692,0 80.6693933666031,23.6678687762533,0 80.6694297844096,23.6679142402895,0 80.6694551262137,23.6679722010611,0 80.669465222804,23.6680113487547,0 80.6694634606812,23.668036385736,0 80.6694845,23.6680588,0 80.669479,23.6680912,0 80.669496,23.6681458,0 80.6695378107143,23.668200874169,0 80.6695631801575,23.6682478796571,0 80.6695750113695,23.6682729456257,0 80.669585139487,23.6682995730081,0 80.6696003415046,23.6683356014858,0 80.6696175,23.6684537,0 80.6696983,23.6684297,0 80.6697299,23.6684188,0 80.6698432160934,23.6683783754073,0 80.6699094953733,23.6683738214732,0 80.669967137368,23.6684255907791,0 80.6699908392713,23.6684600722761,0 80.670028103103,23.6685071030196,0 80.6700280009633,23.6685477940037,0 80.6700499526686,23.6686026173651,0 80.6701075751807,23.6686622118081,0 80.670161685523,23.668767185093,0 80.6702277608314,23.6688440129918,0 80.6702563955127,23.6689442368844,0 80.670317487268,23.6689756678008,0 80.6703547906078,23.6690070480876,0 80.6703852815682,23.6690446740588,0 80.6704259283614,23.6690979720867,0 80.6704212,23.6691472,0 80.6704684,23.6692263,0 80.6705005,23.6692898,0 80.6705718,23.6693462,0 80.6705983,23.6693669,0 80.6707154,23.6694944,0 80.6707301,23.6695239,0 80.6707402,23.6695384,0 80.6707454,23.6695443,0 80.670843,23.669596,0 80.6708881,23.6696449,0 80.6709561,23.6697216,0 80.6710004,23.6697751,0 80.6710497,23.6698205,0 80.6710647,23.6698395,0 80.6711529,23.6699817,0 80.6711549,23.6699993,0 80.6712155,23.6700216,0 80.6712739,23.6700066,0 80.6713393,23.6699678,0 80.6713989,23.6700045,0 80.6714262,23.669996,0 80.6714763,23.6700015,0 80.6715276,23.6699836,0 80.6715479,23.6699443,0 80.6715742,23.6699163,0 80.6715843,23.6699018,0 80.6716179,23.6698901,0 80.6716471,23.6698728,0 80.6716954,23.6698536,0 80.6717308,23.6698297,0 80.6717727,23.6697878,0 80.6718027,23.669743,0 80.6719009927185,23.6697099054412,0 80.671924816449,23.6696958704699,0 80.6719486362687,23.6696834005327,0 80.6719785,23.6696668,0 80.6720438256952,23.6696695166192,0 80.6721169335269,23.6696524558299,0 80.6721908,23.6696831,0 80.6722905,23.6697355,0 80.6723766,23.6698284,0 80.6724147,23.6698733,0 80.6724179,23.6699237,0 80.6724262,23.6699412,0 80.6724729,23.6700054,0 80.6724695,23.6700399,0 80.6725018,23.6701212,0 80.6725062,23.6701781,0 80.6725076,23.6701782,0 80.6725068,23.6702345,0 80.6724523,23.6702775,0 80.6725677,23.670315,0 80.6725959,23.6703339,0 80.6726005,23.6703225,0 80.6726006,23.6703055,0 80.6726582,23.6703346,0 80.6727838,23.67034,0 80.67282,23.6702937,0 80.6728461,23.6702667,0 80.6728845,23.6702861,0 80.6729905684917,23.670234934201,0 80.6730029,23.6702059,0 80.6730348,23.6702236,0 80.6730911,23.6702148,0 80.673107,23.6702341,0 80.6731823,23.6702578,0 80.6732083,23.6702153,0 80.6732318,23.6702212,0 80.6732956,23.6702492,0 80.6733405,23.6702741,0 80.6734106,23.6702312,0 80.6734396,23.6702271,0 80.6734702,23.6702386,0 80.6735078,23.6702799,0 80.6735738,23.6703359,0 80.6735785,23.6703969,0 80.6736195,23.6704299,0 80.67366,23.6704668,0 80.6736795,23.6704972,0 80.6737275,23.6705422,0 80.673755,23.6705594,0 80.6737903,23.670619,0 80.6738167,23.6706487,0 80.6738464,23.6706707,0 80.6739085,23.6707155,0 80.6739716,23.6707367,0 80.674014,23.6707545,0 80.6740305,23.6707398,0 80.6741219,23.6707704,0 80.6741667,23.6707714,0 80.6741955,23.6708126,0 80.674207,23.6708905,0 80.6742231,23.6709131,0 80.6743806,23.6710475,0 80.6743916,23.6710725,0 80.6744118,23.6711049,0 80.6744297,23.6711262,0 80.6744455,23.6711424,0 80.6745287,23.6712329,0 80.6746388,23.6712873,0 80.6746844,23.6713007,0 80.674747,23.6713229,0 80.6748442,23.6713381,0 80.6748581,23.6713406,0 80.6748725,23.671341,0 80.6748745,23.6713425,0 80.6748815,23.6713617,0 80.6749941,23.6714139,0 80.6750438,23.6714953,0 80.6750431,23.6714972,0 80.6750396,23.671513,0 80.6749405,23.6715241,0 80.6749615,23.6715403,0 80.6749848,23.671543,0 80.6750349,23.6715191,0 80.6751006,23.6715142,0 80.6751093,23.6714824,0 80.6751057,23.6714555,0 80.6750797,23.6714278,0 80.6750552,23.6714147,0 80.6750218,23.6713736,0 80.6749511,23.6713059,0 80.6749072,23.6712604,0 80.6748725,23.6712166,0 80.6748483,23.6712023,0 80.6748015,23.6711611,0 80.6747488,23.6711374,0 80.6747031,23.6710897,0 80.6746813,23.6710642,0 80.674662,23.6710419,0 80.6746544,23.6710134,0 80.6746166,23.6709605,0 80.6746107,23.6709368,0 80.6746032,23.6709066,0 80.6746026,23.6708768,0 80.6746099,23.6708442,0 80.6746476,23.6707704,0 80.6746791,23.6707357,0 80.6746348,23.67068,0 80.6746164,23.670644,0 80.6745925,23.6706203,0 80.6745671,23.6706095,0 80.6745416,23.6705884,0 80.6744792,23.6705527,0 80.6744551,23.6705255,0 80.6743933,23.6704939,0 80.6743256,23.6704695,0 80.6742985,23.6704361,0 80.6742675,23.670414,0 80.674246,23.6703865,0 80.6741742,23.6703195,0 80.6741547,23.6702975,0 80.6741003,23.6702553,0 80.6740579,23.6701977,0 80.6740322,23.6701806,0 80.6739809,23.6701495,0 80.6739008,23.6700987,0 80.6738106,23.6700685,0 80.6737769,23.6700371,0 80.6737131,23.6700408,0 80.6736544,23.6700309,0 80.6736264,23.67001,0 80.6735553,23.6699905,0 80.6735144,23.6699798,0 80.6734308,23.6699582,0 80.6734013,23.6699107,0 80.6733728,23.6698972,0 80.6733055,23.6698387,0 80.67328,23.6697559,0 80.6731238,23.6697106,0 80.6731178,23.669683,0 80.673104,23.6696215,0 80.6730144,23.6695967,0 80.6730479,23.6695284,0 80.673015,23.669509,0 80.6729306,23.6694713,0 80.6729531,23.6694657,0 80.6729444,23.6693867,0 80.6729425,23.6693593,0 80.6729326,23.6692997,0 80.6729282,23.6692563,0 80.6729239,23.6691901,0 80.6729227,23.6691012,0 80.6728644,23.669036,0 80.6728624,23.6690149,0 80.6728278,23.6690001,0 80.6728461,23.6689277,0 80.6728415,23.6689091,0 80.6728515,23.6688516,0 80.6728741,23.6687787,0 80.6728261,23.6687469,0 80.6727849,23.6686889,0 80.6727553,23.6686484,0 80.6727284,23.6686589,0 80.6727216,23.6686069,0 80.6727391,23.6685801,0 80.6727767,23.668561,0 80.6727659,23.6685462,0 80.6724952,23.6685919,0 80.6725416,23.6684367,0 80.6725352,23.6683716,0 80.6725316352362,23.6683050280368,0 80.6723976,23.6683065,0</coordinates></LinearRing></outerBoundaryIs></Polygon></MultiGeometry>
  </Placemark>
  
    </Document>
</kml>