<?xml version="1.0" encoding="UTF-8"?>
<kml xmlns="http://www.opengis.net/kml/2.2">
    <Document>
        <Placemark xmlns:ns0="http://www.opengis.net/kml/2.2">
	<Style><LineStyle><color>ff0000ff</color></LineStyle><PolyStyle><fill>0</fill></PolyStyle></Style>
	<ExtendedData><SchemaData schemaUrl="#Wave24_v28MAR2025">
		<SimpleData name="area(ha)">3.831178890115040</SimpleData>
		<SimpleData name="site_id">240178_4.4</SimpleData>
		<SimpleData name="Land_parc">240178</SimpleData>
		<SimpleData name="district">Katni</SimpleData>
		<SimpleData name="block">Barwara</SimpleData>
		<SimpleData name="village">Sandhi , Guda Kalan</SimpleData>
		<SimpleData name="Land Type">Community</SimpleData>
		<SimpleData name="Instance">Wave 2024</SimpleData>
	</SchemaData></ExtendedData>
      <Polygon><outerBoundaryIs><LinearRing><coordinates>80.6578088170857,23.7669149622355,0 80.6578707,23.766911,0 80.6578944,23.7669043,0 80.6579471,23.76689,0 80.6579956,23.7668577,0 80.658049,23.7668397,0 80.658105,23.766824,0 80.6582326,23.766789,0 80.6582544,23.766778,0 80.6583156,23.7667555,0 80.6583869,23.7667512,0 80.6584424,23.7667241,0 80.6584718,23.7667081,0 80.6585294,23.766708,0 80.6586061,23.766677,0 80.6587074,23.7666472,0 80.6587648,23.7666329,0 80.6587929,23.7666278,0 80.6588669,23.7666099,0 80.6589194,23.7666016,0 80.6590144,23.7665801,0 80.6591024,23.766573,0 80.6591306,23.7665585,0 80.65919,23.7665372,0 80.6592772,23.7665162,0 80.6593359,23.7664974,0 80.6593627,23.7664884,0 80.659391,23.7664905,0 80.6594394,23.7665047,0 80.6594707,23.7665057,0 80.6595253,23.7665103,0 80.6595977,23.7664676,0 80.6596051,23.7664351,0 80.6596782,23.7663839,0 80.6596897,23.7663011,0 80.6597346,23.7662275,0 80.6597207,23.7661731,0 80.6597385,23.7661545,0 80.6597582,23.7660445,0 80.6597617,23.7660219,0 80.6597556,23.7659453,0 80.6597621,23.7659128,0 80.6597541,23.7658838,0 80.6597568,23.7658478,0 80.659764,23.7658247,0 80.659749,23.7657441,0 80.6597355,23.7656322,0 80.6597464,23.765553,0 80.6597387,23.7655205,0 80.6597239,23.7654897,0 80.6596237,23.7654043,0 80.6595631,23.765363,0 80.6594997,23.7653379,0 80.6594567,23.7653182,0 80.6594011,23.7652791,0 80.6593065,23.7652591,0 80.6592179,23.765196,0 80.6591088,23.7651295,0 80.6590165,23.765101,0 80.6588796,23.7650702,0 80.6588104,23.7650413,0 80.6587459,23.7650573,0 80.6586745,23.7650306,0 80.6586186,23.7650557,0 80.65855,23.7651044,0 80.6585046,23.7651218,0 80.6584523,23.7651441,0 80.6584068,23.7651032,0 80.6583139,23.7650519,0 80.6582795,23.7650492,0 80.6581528,23.7651405,0 80.6580591,23.7651394,0 80.6579567,23.7651965,0 80.657872,23.7652317,0 80.6578118,23.765217,0 80.6577894,23.7652328,0 80.6577305,23.7652322,0 80.6576011,23.7653234,0 80.6575796,23.7653817,0 80.6575829,23.7654454,0 80.6576019,23.7654945,0 80.6575499,23.7656881,0 80.6575394,23.7658624,0 80.6575797,23.7659396,0 80.6575674,23.7660428,0 80.6575455,23.7661373,0 80.6574229,23.7662739,0 80.6574081,23.7662953,0 80.6573583,23.7663625,0 80.6573241,23.7664857,0 80.6572939434495,23.7665064459466,0 80.6572789840866,23.7665363646724,0 80.6572627781101,23.7665712698525,0 80.6572328593843,23.7666136547141,0 80.657236599225,23.7666635192571,0 80.6573014231309,23.7667246033223,0 80.6573725,23.7667655,0 80.6574271,23.7667999,0 80.65745,23.7668376,0 80.6575443,23.7668725,0 80.6575711,23.7668779,0 80.657738,23.7669107,0 80.6578023,23.7669276,0 80.657828,23.766923,0 80.6578282,23.7669221,0 80.6578231,23.7669211,0 80.6578088170857,23.7669149622355,0</coordinates></LinearRing></outerBoundaryIs></Polygon>
  </Placemark>
  
    </Document>
</kml>