<?xml version="1.0" encoding="UTF-8"?>
<kml xmlns="http://www.opengis.net/kml/2.2">
    <Document>
        <Placemark xmlns:ns0="http://www.opengis.net/kml/2.2">
	<Style><LineStyle><color>ff0000ff</color></LineStyle><PolyStyle><fill>0</fill></PolyStyle></Style>
	<ExtendedData><SchemaData schemaUrl="#Wave24_v28MAR2025">
		<SimpleData name="area(ha)">25.352582285077304</SimpleData>
		<SimpleData name="site_id">240108_1.4</SimpleData>
		<SimpleData name="Land_parc">240108</SimpleData>
		<SimpleData name="district">Damoh</SimpleData>
		<SimpleData name="block">Pathariya</SimpleData>
		<SimpleData name="village">Seeta Nagar- Hawai Adde ke Pic</SimpleData>
		<SimpleData name="Land Type">Community</SimpleData>
		<SimpleData name="Instance">Wave 2024</SimpleData>
	</SchemaData></ExtendedData>
      <Polygon><outerBoundaryIs><LinearRing><coordinates>79.4345991,24.0389997,0 79.4344984,24.0389493,0 79.4343463,24.0388515,0 79.4342056,24.0387767,0 79.4340612,24.0387117,0 79.4339328,24.0386656,0 79.433792,24.0385898,0 79.4336438,24.0385066,0 79.4334614,24.0383742,0 79.4331845,24.0382072,0 79.4322547,24.0377828,0 79.4322145,24.0377672,0 79.4321718,24.0377552,0 79.4321521,24.037734,0 79.432111,24.0376976,0 79.4320646,24.0376677,0 79.4320076,24.0376376,0 79.4319379,24.0375995,0 79.4318637,24.037559,0 79.4317919,24.0375143,0 79.4316995,24.0374436,0 79.4312864,24.0371051,0 79.431007716189,24.0369052364289,0 79.4308979567627,24.0368356547294,0 79.4308439840848,24.0368251643312,0 79.4308033683771,24.0368037693516,0 79.4306496,24.0368757,0 79.4305925,24.0368089,0 79.4305205,24.0367484,0 79.4304367,24.0366837,0 79.4303441,24.0366103,0 79.4302327,24.0365299,0 79.430128,24.0364485,0 79.4299457,24.03627,0 79.4299225,24.0362437,0 79.4299064,24.0362276,0 79.4298832,24.0362102,0 79.4298662,24.0361951,0 79.4298292,24.0361909,0 79.4297819,24.0361481,0 79.4297587,24.0361288,0 79.4297338,24.0361098,0 79.4296859,24.0360725,0 79.4296568,24.0360476,0 79.4296438,24.036017,0 79.4295868,24.0359775,0 79.429554,24.0359651,0 79.4295288,24.0359445,0 79.4295003,24.0359174,0 79.4294826,24.0358888,0 79.4294243,24.0358505,0 79.429398,24.0358336,0 79.4293673,24.0358179,0 79.4293364,24.0358053,0 79.4293128,24.0357847,0 79.429288,24.0357655,0 79.4292562,24.0357555,0 79.4292309,24.035736,0 79.4292017,24.0357202,0 79.4291705,24.0357055,0 79.4291402,24.0356931,0 79.4290706,24.0356697,0 79.4290441,24.0356563,0 79.4290236,24.0356328,0 79.429002,24.0356094,0 79.4289836,24.0355851,0 79.4289652,24.0355612,0 79.428929,24.0355081,0 79.4289112,24.0354857,0 79.4288851,24.0354659,0 79.4288636,24.0354481,0 79.42884,24.0354269,0 79.4288366252918,24.0354122542894,0 79.4288129332367,24.0353833034452,0 79.4287795709897,24.0353586699499,0 79.4287512050154,24.0353186296964,0 79.4286722182455,24.0352891114396,0 79.4286536568245,24.0352337137609,0 79.4285811840565,24.0352616777998,0 79.4285379367795,24.0352590256953,0 79.4284462578861,24.0352845842774,0 79.4283375351874,24.0353276341751,0 79.4281788632817,24.0353260055215,0 79.4280411029217,24.0353842151492,0 79.4277618218015,24.0354144721874,0 79.4275495602871,24.0354697081083,0 79.4272409992847,24.0355349961019,0 79.4269586,24.035611,0 79.4269156,24.0356024,0 79.4267323,24.0355817,0 79.4267042,24.0355893,0 79.4266726,24.0355977,0 79.4265994,24.035616,0 79.426536,24.0356261,0 79.4265014,24.0356346,0 79.426433,24.0356331,0 79.4263688,24.0356212,0 79.4263086,24.0356338,0 79.4262774,24.035635,0 79.426244,24.0356384,0 79.4262111,24.035643,0 79.4261442,24.0356475,0 79.4260760792711,24.0356317848863,0 79.4259899,24.035615,0 79.4259321009847,24.0356082220546,0 79.4258329668604,24.0356535769768,0 79.4258120710927,24.0357160399782,0 79.4257714913128,24.0357655675756,0 79.4257132271533,24.0358113425778,0 79.4256888360287,24.035839799528,0 79.4256642834135,24.0358815045296,0 79.4256321,24.0359372,0 79.4257218,24.0359904,0 79.4257644,24.0360399,0 79.4256551,24.0363111,0 79.4257082,24.0364309,0 79.4261572,24.0367212,0 79.4263289,24.0368113,0 79.4265018,24.0369129,0 79.4266905,24.0369854,0 79.4268651,24.0370911,0 79.4270153,24.0371548,0 79.4271843,24.0372567,0 79.4273625,24.0373657,0 79.4275808,24.0374622,0 79.4277478,24.0375651,0 79.427996,24.0377065,0 79.4283495,24.0379237,0 79.4285086,24.0379215,0 79.4287403,24.0380461,0 79.4289128,24.0381483,0 79.4291163,24.0382967,0 79.429219,24.0383487,0 79.4293761,24.0384313,0 79.4296361934795,24.0385775497501,0 79.4302377,24.0388933,0 79.4305941,24.0391045,0 79.4307966,24.0392122,0 79.4310087,24.0393474,0 79.4312709,24.0394664,0 79.4314986,24.0395792,0 79.4317764,24.0397263,0 79.4319619,24.0398415,0 79.4321602,24.0399608,0 79.4323573,24.0400552,0 79.4325728,24.0401808,0 79.4327559,24.0402695,0 79.4331955,24.0400112,0 79.4334042,24.0397695,0 79.4335149,24.0397018,0 79.4335709,24.0398721,0 79.4337415,24.0399612,0 79.434093,24.0401276,0 79.4341733,24.0401529,0 79.4342559,24.040196,0 79.4343106,24.0402342,0 79.4343548,24.0402643,0 79.4343934,24.0403014,0 79.4343978,24.0403084,0 79.4344409,24.0403836,0 79.4345277,24.0404322,0 79.4346137,24.040469,0 79.4346741,24.0404943,0 79.4346855,24.0405032,0 79.4347633,24.0405394,0 79.4348343,24.0405624,0 79.4349196,24.0406046,0 79.4350375,24.0407065,0 79.4353372,24.0408337,0 79.4357565,24.0412146,0 79.4358032,24.0412369,0 79.435935,24.0412869,0 79.4361575,24.0413651,0 79.436298,24.0414118,0 79.4365295,24.0415523,0 79.436727,24.0416142,0 79.4369634,24.0416296,0 79.4370819,24.0416816,0 79.437510182075,24.0414578763551,0 79.4375688190322,24.0413811845248,0 79.437608034972,24.0413197525278,0 79.4376471707277,24.0412649445798,0 79.4376695836274,24.0412011327972,0 79.4376799753093,24.0411371983389,0 79.4377171074444,24.041049245524,0 79.437745076707,24.040923658213,0 79.4377940696218,24.0408490761603,0 79.4378118875951,24.0407675511154,0 79.4378803546484,24.0406732930933,0 79.4378254045989,24.0406440246074,0 79.4377535,24.0406246,0 79.4377287228283,24.0405953527531,0 79.4375115944557,24.0404562228235,0 79.437387483145,24.040379874193,0 79.437273202639,24.0402859594653,0 79.4372130432647,24.0402532518911,0 79.4369853432272,24.0401743520221,0 79.4368523180056,24.0400950621879,0 79.4366799211616,24.0400417793627,0 79.4366533211519,24.0400133793741,0 79.436603535688,24.0399887322477,0 79.4364232471628,24.0398853097117,0 79.4362674545241,24.0398439693521,0 79.4361361319429,24.0397675461037,0 79.4359686928886,24.0396951703967,0 79.4358423127828,24.0396077559356,0 79.4357897946315,24.0395763033046,0 79.4356969131706,24.0395024807171,0 79.4356156248771,24.0394641092053,0 79.4353241310346,24.039310966726,0 79.4347169,24.0390469,0 79.4347185818551,24.039043336069,0 79.4345991,24.0389997,0</coordinates></LinearRing></outerBoundaryIs></Polygon>
  </Placemark>
  
    </Document>
</kml>