<?xml version="1.0" encoding="UTF-8"?>
<kml xmlns="http://www.opengis.net/kml/2.2">
    <Document>
        <Placemark xmlns:ns0="http://www.opengis.net/kml/2.2">
	<Style><LineStyle><color>ff0000ff</color></LineStyle><PolyStyle><fill>0</fill></PolyStyle></Style>
	<ExtendedData><SchemaData schemaUrl="#Wave24_v28MAR2025">
		<SimpleData name="area(ha)">0.724305311147991</SimpleData>
		<SimpleData name="site_id">240152_1.1</SimpleData>
		<SimpleData name="Land_parc">240152</SimpleData>
		<SimpleData name="district">Chhatarpur</SimpleData>
		<SimpleData name="block">bijawar</SimpleData>
		<SimpleData name="village">Gulat</SimpleData>
		<SimpleData name="Land Type">Farmer</SimpleData>
		<SimpleData name="Instance">Wave 2024</SimpleData>
	</SchemaData></ExtendedData>
      <Polygon><outerBoundaryIs><LinearRing><coordinates>79.4715895,24.5738545,0 79.4715773133582,24.5738224063402,0 79.4715533686388,24.5737879858061,0 79.4715294239194,24.5737565583618,0 79.4715219411946,24.5737356067323,0 79.4715054792,24.5737026827431,0 79.4714905137504,24.5736547933043,0 79.4714755483007,24.5735679936964,0 79.4714605828511,24.5735141180777,0 79.4714560932162,24.5734737113637,0 79.4714336450417,24.5734258219249,0 79.4714336450417,24.5733988841156,0 79.4714201761371,24.5733644635814,0 79.4714186795921,24.573339022317,0 79.4714022175975,24.5732746708836,0 79.471382762513,24.5732357607145,0 79.4713782728781,24.5731893678207,0 79.4713677970634,24.5731414783818,0 79.4713648039734,24.5731100509376,0 79.4713468454339,24.5730651545887,0 79.4713098,24.573038,0 79.4712848,24.57304,0 79.4712566,24.5730469,0 79.4712323,24.5730718,0 79.4711262,24.573103,0 79.4710614,24.5731024,0 79.4709261,24.5730951,0 79.470856,24.5730734,0 79.4707957,24.573087,0 79.4707532,24.5731156,0 79.4707229,24.5731697,0 79.4707278,24.5731976,0 79.4707706,24.5732426,0 79.4708125788819,24.5732746708836,0 79.4708440063261,24.573297119058,0 79.4708859095851,24.5733659601264,0 79.4709218266642,24.5734078633853,0 79.4709158404844,24.5734482700993,0 79.4709457713836,24.573461739004,0 79.4710071297271,24.5734976560831,0 79.4710490329861,24.5735201042576,0 79.4710684880706,24.5735784695112,0 79.4710866,24.5735588,0 79.4711145068283,24.5735664971515,0 79.4711362067302,24.573587448781,0 79.4711601514497,24.5736181279527,0 79.4711751168993,24.5736443174896,0 79.4711825996241,24.5736914586559,0 79.4712080408885,24.5737453342746,0 79.4712162718858,24.5737760134464,0 79.4712327338804,24.5738089374356,0 79.4712327338804,24.5738336304275,0 79.4712469510575,24.5738762819589,0 79.4712506924199,24.5739062128582,0 79.4712551820548,24.5739301575776,0 79.4712985818588,24.5739511092071,0 79.4712851129541,24.5739780470164,0 79.4712851129541,24.5740019917359,0 79.4712836164091,24.5740244399103,0 79.4712836164091,24.5740438949948,0 79.4712806233192,24.5740753224391,0 79.4712851129541,24.5740977706135,0 79.4712843646816,24.5741224636054,0 79.4712776302293,24.5741479048698,0 79.4712813715917,24.5741740944067,0 79.4712873577715,24.5741890598563,0 79.4712881060338,24.5742017804879,0 79.4713000784037,24.574264635377,0 79.4713000784037,24.5742885800964,0 79.4712940922239,24.5743155179057,0 79.4712970853138,24.5743484418949,0 79.4712985818588,24.5743783727942,0 79.4713105542185,24.5744008209686,0 79.4713348730741,24.5744640499933,0 79.4713550764312,24.5744580638135,0 79.4713685453358,24.5744498328162,0 79.4713880004203,24.5744535741786,0 79.4714097003223,24.5744460914538,0 79.4714343933142,24.5744438466363,0 79.4714486104914,24.5744401052739,0 79.4714890172054,24.5744251398243,0 79.4715084722899,24.5744199019169,0 79.4715309204644,24.5744146640095,0 79.4715608513636,24.5744034399223,0 79.4715930270804,24.5743937123801,0 79.471628195887,24.5743847331103,0 79.4716663577836,24.5743600401184,0 79.4717456746666,24.5743368436714,0 79.471833222547,24.5743009265923,0 79.4718930843456,24.5742425613387,0 79.4719858701333,24.5741767133604,0 79.4719110428851,24.5741306946027,0 79.4718556707214,24.5740708328041,0 79.4718047881927,24.5740438949948,0 79.4717808434732,24.5740184537304,0 79.471726219585,24.5739855297418,0 79.4716734,24.5739537,0 79.4716319,24.5739127,0 79.471607,24.5738698,0 79.4715895,24.5738545,0</coordinates></LinearRing></outerBoundaryIs></Polygon>
  </Placemark>
  
    </Document>
</kml>