<?xml version="1.0" encoding="UTF-8"?>
<kml xmlns="http://www.opengis.net/kml/2.2">
    <Document>
        <Placemark xmlns:ns0="http://www.opengis.net/kml/2.2">
	<Style><LineStyle><color>ff0000ff</color></LineStyle><PolyStyle><fill>0</fill></PolyStyle></Style>
	<ExtendedData><SchemaData schemaUrl="#Wave24_v28MAR2025">
		<SimpleData name="area(ha)">2.332850295934006</SimpleData>
		<SimpleData name="site_id">240178_3.4</SimpleData>
		<SimpleData name="Land_parc">240178</SimpleData>
		<SimpleData name="district">Katni</SimpleData>
		<SimpleData name="block">Barwara</SimpleData>
		<SimpleData name="village">Sandhi , Guda Kalan</SimpleData>
		<SimpleData name="Land Type">Community</SimpleData>
		<SimpleData name="Instance">Wave 2024</SimpleData>
	</SchemaData></ExtendedData>
      <Polygon><outerBoundaryIs><LinearRing><coordinates>80.6578728898359,23.7724033054417,0 80.6579022,23.7723943,0 80.6579818694153,23.7723815042154,0 80.6581303028186,23.7723441434268,0 80.6582464241885,23.7723279874102,0 80.6583958673428,23.772299714381,0 80.6584806864305,23.7722754803559,0 80.6585493495014,23.7722754803559,0 80.6586483051036,23.7722451878246,0 80.6587422119506,23.7722260025548,0 80.6588664113288,23.7722007587788,0 80.6588936,23.7723447,0 80.658961,23.7723236,0 80.659111,23.7722606,0 80.6591615,23.7722498,0 80.6592561,23.7722248,0 80.6593314,23.7721013,0 80.6593836005325,23.7719956976858,0 80.6593290780248,23.7718179946975,0 80.6592834385095,23.7717180977803,0 80.6592118,23.7716396,0 80.6589252,23.7716474,0 80.6587715,23.7716704,0 80.6586737,23.771662,0 80.6586404,23.7716281,0 80.6585799,23.7714994,0 80.6585125,23.7713495,0 80.6584769,23.771272,0 80.6584554,23.7712121,0 80.6584204,23.7711174,0 80.6583714,23.7710129,0 80.6583221555167,23.7709527064897,0 80.658269858303,23.7709653705365,0 80.6582221901634,23.7709840087721,0 80.6580626494986,23.7710274280669,0 80.6579838889173,23.7710516620919,0 80.6579167,23.7710744,0 80.657883923564,23.7710920521336,0 80.6578182897463,23.7711031593951,0 80.6577192,23.7711388,0 80.6577067,23.7711442,0 80.6576335053054,23.771171822466,0 80.6575820080022,23.7711899979848,0 80.6575375789563,23.7711970662421,0 80.6574729548896,23.7712303880265,0 80.6574244868395,23.7712485635453,0 80.6573396677519,23.7712738073214,0 80.6572447511539,23.7713101583589,0 80.6571417565476,23.7713424703923,0 80.6570781422319,23.7713545874048,0 80.6570306839328,23.771382860434,0 80.6569519233515,23.7713949774465,0 80.6569377868369,23.7714161822184,0 80.6568883090358,23.7714343577372,0 80.6569175,23.7714765,0 80.6569009,23.7715176,0 80.6568906,23.771554,0 80.6568907,23.7715548,0 80.6568935,23.7715834,0 80.6570037,23.7716449,0 80.6571181,23.7716972,0 80.6571389,23.7717374,0 80.6571523,23.7718023,0 80.6571824,23.7718323,0 80.6572155,23.7718631,0 80.6572578,23.7719298,0 80.6573188,23.7719816,0 80.6573881,23.7720331,0 80.6574147,23.7720827,0 80.657453,23.7721241,0 80.6576381,23.7722393,0 80.6577279,23.7722834,0 80.6577741,23.7723215,0 80.6578354,23.7723847,0 80.6578546407839,23.7724067479915,0 80.6578728898359,23.7724033054417,0</coordinates></LinearRing></outerBoundaryIs></Polygon>
  </Placemark>
  
    </Document>
</kml>