<?xml version="1.0" encoding="UTF-8"?>
<kml xmlns="http://www.opengis.net/kml/2.2">
    <Document>
        <Placemark xmlns:ns0="http://www.opengis.net/kml/2.2">
	<Style><LineStyle><color>ff0000ff</color></LineStyle><PolyStyle><fill>0</fill></PolyStyle></Style>
	<ExtendedData><SchemaData schemaUrl="#Wave24_v28MAR2025">
		<SimpleData name="area(ha)">7.640692433202200</SimpleData>
		<SimpleData name="site_id">240145_1.1</SimpleData>
		<SimpleData name="Land_parc">240145</SimpleData>
		<SimpleData name="district">Damoh</SimpleData>
		<SimpleData name="block">Damoh</SimpleData>
		<SimpleData name="village">Maili Pipariya</SimpleData>
		<SimpleData name="Land Type">Community</SimpleData>
		<SimpleData name="Instance">Wave 2024</SimpleData>
	</SchemaData></ExtendedData>
      <MultiGeometry><Polygon><outerBoundaryIs><LinearRing><coordinates>79.5731801,23.7767615,0 79.5731804,23.7767487,0 79.5731799340207,23.7767615639259,0 79.5731801,23.7767615,0</coordinates></LinearRing></outerBoundaryIs></Polygon><Polygon><outerBoundaryIs><LinearRing><coordinates>79.5725779,23.7772707,0 79.5725911383793,23.7772338401987,0 79.5725889,23.7771822,0 79.5725779,23.7772707,0</coordinates></LinearRing></outerBoundaryIs></Polygon><Polygon><outerBoundaryIs><LinearRing><coordinates>79.5726654,23.7781679,0 79.5726755,23.7784043,0 79.5726989,23.7786574,0 79.5727152,23.7788922,0 79.572659,23.7790973,0 79.5724463,23.7793071,0 79.5723411,23.7793979,0 79.5723344,23.7793975,0 79.5723313,23.7793939,0 79.5722479,23.7794755,0 79.5715905,23.7798299,0 79.5715838,23.7798313,0 79.5715498,23.7798214,0 79.5715421,23.7798113,0 79.5715361,23.7795475,0 79.571389,23.7794133,0 79.5710971,23.7791798,0 79.5709464,23.7791345,0 79.5709416,23.7792055,0 79.570883,23.7792306,0 79.5708627,23.7793066,0 79.5708742,23.7794089,0 79.5708838,23.7795288,0 79.570891,23.7796647,0 79.5708523,23.7800272,0 79.5708222,23.7800979,0 79.5707608,23.7804173,0 79.5707338,23.7808086,0 79.5707336,23.780956,0 79.5707087,23.781009,0 79.5707243,23.7811386,0 79.5707276,23.7811467,0 79.5708018,23.7813067,0 79.5710288,23.7815258,0 79.5710791,23.7816902,0 79.5710922,23.7817486,0 79.5711199,23.7818312,0 79.5711225,23.7818711,0 79.57112,23.7819097,0 79.5711519239167,23.7819518320362,0 79.5711357073234,23.7819977790503,0 79.5711259,23.7820427,0 79.571095,23.7821237,0 79.5712437,23.7822099,0 79.5712969723339,23.7822482353235,0 79.5718285162231,23.7817527283081,0 79.5720735669653,23.7815220923155,0 79.5721996960237,23.7813923595697,0 79.5723654656434,23.7812337973248,0 79.572614120073,23.7810175760817,0 79.5728339450034,23.7807905437765,0 79.5731871063671,23.7804806266614,0 79.5734177423597,23.7802391796066,0 79.5734717976705,23.7801707095463,0 79.5735006271696,23.7801238616103,0 79.5735294566686,23.7800770136743,0 79.5735851,23.7800326,0 79.5735571,23.7796488,0 79.5735326,23.7792896,0 79.5735469,23.7789162,0 79.5735561,23.778579,0 79.5733168391129,23.7783472437297,0 79.5731871063671,23.7782121054528,0 79.5731150326194,23.7781148058934,0 79.5731184,23.7777309,0 79.5731611,23.7772815,0 79.5731799340207,23.7767615639259,0 79.5728018,23.7769072,0 79.572634,23.7771145,0 79.5725911383793,23.7772338401987,0 79.5726088,23.7776413,0 79.5726654,23.7781679,0</coordinates></LinearRing></outerBoundaryIs></Polygon></MultiGeometry>
  </Placemark>
  
    </Document>
</kml>