<?xml version="1.0" encoding="UTF-8"?>
<kml xmlns="http://www.opengis.net/kml/2.2">
    <Document>
        <Placemark xmlns:ns0="http://www.opengis.net/kml/2.2">
	<Style><LineStyle><color>ff0000ff</color></LineStyle><PolyStyle><fill>0</fill></PolyStyle></Style>
	<ExtendedData><SchemaData schemaUrl="#Wave24_v28MAR2025">
		<SimpleData name="area(ha)">0.775658836780128</SimpleData>
		<SimpleData name="site_id">240161_1.1</SimpleData>
		<SimpleData name="Land_parc">240161</SimpleData>
		<SimpleData name="district">Chhatarpur</SimpleData>
		<SimpleData name="block">bijawar</SimpleData>
		<SimpleData name="village">Mednipura</SimpleData>
		<SimpleData name="Land Type">Farmer</SimpleData>
		<SimpleData name="Instance">Wave 2024</SimpleData>
	</SchemaData></ExtendedData>
      <Polygon><outerBoundaryIs><LinearRing><coordinates>79.4691792993757,24.562974261092,0 79.4691808525143,24.563089193345,0 79.4691855119299,24.5632134444293,0 79.469194054192,24.5633493440528,0 79.4691878416377,24.5634658294444,0 79.4692049261619,24.5635978462215,0 79.4692173512703,24.5637500537999,0 79.4693074333064,24.563725203583,0 79.4694112414559,24.5636991502495,0 79.4695939873697,24.5636514295016,0 79.4696871756829,24.5635970696522,0 79.4698455958155,24.5635535817727,0 79.4699846017161,24.5635062110468,0 79.470051386674,24.5634860202456,0 79.4702067005294,24.5634145758721,0 79.4698642334782,24.5631637439956,0 79.4698207455986,24.5630441523269,0 79.4697197915926,24.5629509640136,0 79.4697788108577,24.562789437604,0 79.4698191924601,24.5626900367365,0 79.4698735523095,24.5626092735317,0 79.4698782117251,24.5625487011281,0 79.4698533615083,24.5625254040497,0 79.4697544,24.5625446,0 79.4695438,24.562635,0 79.4694945865022,24.5626838241823,0 79.4694448860685,24.5627071212606,0 79.4694169295745,24.562733524616,0 79.4693796542492,24.5627770124955,0 79.4693346132311,24.5627956501582,0 79.4692616157191,24.5628469037305,0 79.4692057027311,24.5628857321944,0 79.4691730868215,24.5629136886883,0 79.4691792993757,24.562974261092,0</coordinates></LinearRing></outerBoundaryIs></Polygon>
  </Placemark>
  
    </Document>
</kml>