<?xml version="1.0" encoding="UTF-8"?>
<kml xmlns="http://www.opengis.net/kml/2.2">
    <Document>
        <Placemark xmlns:ns0="http://www.opengis.net/kml/2.2">
	<Style><LineStyle><color>ff0000ff</color></LineStyle><PolyStyle><fill>0</fill></PolyStyle></Style>
	<ExtendedData><SchemaData schemaUrl="#Wave24_v28MAR2025">
		<SimpleData name="area(ha)">11.460561349375633</SimpleData>
		<SimpleData name="site_id">240108_2.4</SimpleData>
		<SimpleData name="Land_parc">240108</SimpleData>
		<SimpleData name="district">Damoh</SimpleData>
		<SimpleData name="block">Pathariya</SimpleData>
		<SimpleData name="village">Seeta Nagar- Hawai Adde ke Pic</SimpleData>
		<SimpleData name="Land Type">Community</SimpleData>
		<SimpleData name="Instance">Wave 2024</SimpleData>
	</SchemaData></ExtendedData>
      <MultiGeometry><Polygon><outerBoundaryIs><LinearRing><coordinates>79.4263832462699,24.0373676875519,0 79.4262836804227,24.037448370847,0 79.42625215733,24.037470129714,0 79.4262134486597,24.0374896064323,0 79.4262009166544,24.0375314350574,0 79.4261427056161,24.0375727941607,0 79.4261088590338,24.0375879042551,0 79.4260483245083,24.0376226145791,0 79.4260116162797,24.0376752360935,0 79.42599862672,24.0377546008523,0 79.4259662961886,24.0378425999263,0 79.4259153512512,24.0378796170572,0 79.425897903127,24.0379302282526,0 79.4258708921471,24.037976324561,0 79.4258458008822,24.0380621897407,0 79.4258214093297,24.0380906466834,0 79.4257774345309,24.0381476099916,0 79.425773684645,24.0382579857124,0 79.425724,24.0383442,0 79.4256554942599,24.0383870593347,0 79.4256486763233,24.0384532377912,0 79.4256175270167,24.0384967391335,0 79.4256119138458,24.0385102752006,0 79.4255948423539,24.0385299742279,0 79.4255895629377,24.0385685649334,0 79.4255639287623,24.0386003214772,0 79.425558568577,24.0386455362059,0 79.4255312073658,24.0387203365451,0 79.4255112471009,24.0387797549881,0 79.4254814816473,24.0388545305911,0 79.4254521468887,24.0388939780542,0 79.4254465847394,24.0389557528363,0 79.4254313789211,24.0390196367279,0 79.4253797333792,24.0391140618539,0 79.4253872326809,24.0391892206679,0 79.4253752023233,24.039288469766,0 79.4254114376458,24.039375374055,0 79.4254148375753,24.039446974054,0 79.4254208631612,24.0394876849971,0 79.4254738672196,24.0395776656299,0 79.4255272213142,24.0396389421418,0 79.4255874,24.0397023,0 79.4256042,24.039717,0 79.4256224,24.0397348,0 79.4256921,24.0397386,0 79.425773,24.0397576,0 79.425798,24.0397779,0 79.4258353,24.039778,0 79.4258656,24.0397913,0 79.4259173,24.0398289,0 79.425935,24.0398346,0 79.4259847,24.0398691,0 79.4260601,24.0399212,0 79.4261115,24.0399594,0 79.4261779,24.0400263,0 79.4261873,24.0400613,0 79.4262283,24.0401004,0 79.4263074,24.0401629,0 79.4263754,24.040204,0 79.4264223,24.0402388,0 79.4264511,24.0402564,0 79.4264684,24.0402773,0 79.4265029,24.0402669,0 79.4265403,24.0402711,0 79.4266251,24.0402924,0 79.426711,24.0402715,0 79.4267127,24.0402708,0 79.4267137,24.0402705,0 79.4267088,24.0402779,0 79.4267399,24.0402732,0 79.4267449,24.0402671,0 79.4267561,24.0402786,0 79.4268067,24.0403012,0 79.4268865,24.0403089,0 79.4268893,24.0403137,0 79.4268925,24.0403124,0 79.4268982,24.0403154,0 79.4270044,24.0404036,0 79.4270262,24.0404243,0 79.4270992,24.0404623,0 79.42713,24.040475,0 79.4271506,24.0404962,0 79.427165,24.0405238,0 79.4271868,24.0405485,0 79.4272669,24.0405667,0 79.4272945,24.0405777,0 79.4273202,24.0405979,0 79.4273323,24.0406259,0 79.4273476,24.0406535,0 79.4273559,24.0406797,0 79.4273913,24.0407289,0 79.4274099,24.0407566,0 79.4274665,24.0408241,0 79.4275436,24.0408651,0 79.4275934,24.0408978,0 79.427621,24.0409469,0 79.4276812,24.0409791,0 79.4277688,24.0410013,0 79.4278302,24.0410132,0 79.4278285,24.0410111,0 79.427859,24.0409976,0 79.4278901,24.0409773,0 79.4279136,24.0409523,0 79.4280028,24.0409217,0 79.4280487,24.0408858,0 79.4280729,24.0407943,0 79.4280869,24.0407365,0 79.4280916,24.0407039,0 79.4280862,24.0405811,0 79.4281528,24.0405133,0 79.4281862,24.0404852,0 79.4281618,24.0404389,0 79.4282167,24.0403891,0 79.4282264,24.0403048,0 79.4282363,24.0402524,0 79.4282585,24.0402353,0 79.4283026,24.0402149,0 79.4283658,24.0402099,0 79.4284252,24.0402346,0 79.4284898,24.0402398,0 79.4286221,24.0401979,0 79.4286379,24.0401772,0 79.4286671,24.040162,0 79.4286948,24.0401485,0 79.4287326,24.0401148,0 79.4287552,24.0400952,0 79.4287956,24.0400473,0 79.4288138,24.0400093,0 79.4288371,24.0400077,0 79.4288878,24.0399894,0 79.4289224,24.0399802,0 79.4289688,24.0400049,0 79.4290112,24.0400106,0 79.4290457,24.0399771,0 79.4291203,24.0399461,0 79.4292867,24.0398967,0 79.4294129,24.0399293,0 79.429506,24.0398927,0 79.4294403348974,24.0400173026118,0 79.4295518,24.0401609,0 79.4296787,24.0402223,0 79.4298926,24.0401303,0 79.4298211,24.0399656,0 79.429729,24.039896,0 79.4296271,24.0398009,0 79.4294374,24.0397097,0 79.4293823,24.039647,0 79.4293541,24.0396334,0 79.4293428,24.0395817,0 79.4293544,24.0395321,0 79.4293665,24.039504,0 79.429376,24.0394839,0 79.4294253,24.0394376,0 79.4294389,24.0394115,0 79.4294518,24.0393864,0 79.4294697,24.0393295,0 79.4295245,24.0393189,0 79.429589,24.0393031,0 79.4296083,24.0393113,0 79.4296405,24.0393075,0 79.4296839,24.0392707,0 79.4297419874364,24.0392390393441,0 79.4297062,24.0391946,0 79.4297507,24.0391133,0 79.4297711,24.0390703,0 79.4297513,24.0390548,0 79.4297456,24.0389707,0 79.4297496,24.0389136,0 79.4297365,24.0388308,0 79.4297305,24.0388048,0 79.4297254,24.0387787,0 79.4297242,24.0387281,0 79.4297131,24.0386688,0 79.4297033,24.0386457,0 79.4296737,24.038633,0 79.4296396,24.0385987,0 79.4296119,24.0385846,0 79.4296036,24.0385726,0 79.429581,24.0385632,0 79.4295541,24.0385517,0 79.4295134,24.0385439,0 79.4294897,24.0385402,0 79.4294643,24.0385363,0 79.4294422,24.0385307,0 79.4294094,24.0385231,0 79.429382,24.0385123,0 79.4293516,24.0385038,0 79.4292977,24.038476,0 79.4292724,24.0384673,0 79.4292219,24.0384349,0 79.4291917,24.038429,0 79.4291701,24.0384076,0 79.4291191,24.0383775,0 79.4290891,24.038369,0 79.4290392,24.038336,0 79.4289826,24.0383028,0 79.4289599,24.0382918,0 79.4289295,24.0382824,0 79.4288582,24.0382207,0 79.4288064,24.0381878,0 79.428777,24.0381751,0 79.4287197,24.0381625,0 79.4286935,24.0381547,0 79.4286655,24.0381466,0 79.4286232,24.0380767,0 79.4285956,24.038033,0 79.4285314,24.0380021,0 79.4284998,24.0379882,0 79.4284386,24.0379725,0 79.4283853,24.0379513,0 79.4283331,24.0379611,0 79.4283104,24.03794,0 79.4282798,24.0379288,0 79.4282544,24.0379138,0 79.4282251,24.0379025,0 79.4282048,24.0378806,0 79.4281784,24.0378649,0 79.4281525,24.0378534,0 79.4280615,24.0378045,0 79.4280402,24.0377907,0 79.4280083,24.0377798,0 79.4279543,24.0377495,0 79.4279386,24.0377346,0 79.4278901,24.0377066,0 79.4278619,24.0376948,0 79.4278152,24.0376648,0 79.4277645,24.0376424,0 79.4277136,24.0376204,0 79.4276408,24.0375654,0 79.4276135,24.0375525,0 79.4275911,24.0375394,0 79.427563,24.0375276,0 79.4275433,24.0375149,0 79.4275135,24.0375032,0 79.4274899,24.0374913,0 79.4274604,24.0374806,0 79.4274145,24.0374558,0 79.4273375,24.0374118,0 79.427239,24.0373595,0 79.4272114,24.0373487,0 79.427182,24.0373333,0 79.4271241,24.0373134,0 79.427014,24.0372701,0 79.4269274,24.037228,0 79.4268887,24.0372172,0 79.4268271,24.0372058,0 79.4266836,24.0371653,0 79.426597,24.0371364,0 79.4265449064436,24.0371242290994,0 79.4265006094989,24.0372076887742,0 79.4264369178493,24.0373041988357,0 79.4263832462699,24.0373676875519,0</coordinates></LinearRing></outerBoundaryIs></Polygon><Polygon><outerBoundaryIs><LinearRing><coordinates>79.4297516,24.0392338,0 79.4297419874364,24.0392390393441,0 79.4297426,24.0392398,0 79.4297516,24.0392338,0</coordinates></LinearRing></outerBoundaryIs></Polygon><Polygon><outerBoundaryIs><LinearRing><coordinates>79.4294367,24.0400242,0 79.4294403348974,24.0400173026118,0 79.4294401,24.040017,0 79.4294367,24.0400242,0</coordinates></LinearRing></outerBoundaryIs></Polygon></MultiGeometry>
  </Placemark>
  
    </Document>
</kml>