<?xml version="1.0" encoding="UTF-8"?>
<kml xmlns="http://www.opengis.net/kml/2.2">
    <Document>
        <Placemark xmlns:ns0="http://www.opengis.net/kml/2.2">
	<Style><LineStyle><color>ff0000ff</color></LineStyle><PolyStyle><fill>0</fill></PolyStyle></Style>
	<ExtendedData><SchemaData schemaUrl="#Wave24_v28MAR2025">
		<SimpleData name="area(ha)">14.338309307535779</SimpleData>
		<SimpleData name="site_id">240115_4.4</SimpleData>
		<SimpleData name="Land_parc">240115</SimpleData>
		<SimpleData name="district">Damoh</SimpleData>
		<SimpleData name="block">Batyagarh</SimpleData>
		<SimpleData name="village">Furtal</SimpleData>
		<SimpleData name="Land Type">Community land</SimpleData>
		<SimpleData name="Instance">Wave 2024</SimpleData>
	</SchemaData></ExtendedData>
      <Polygon><outerBoundaryIs><LinearRing><coordinates>79.4315021,24.2781295,0 79.4313447,24.2781709,0 79.4313252,24.2781772,0 79.4312544,24.2782246,0 79.4311768,24.2782617,0 79.4310782,24.2783166,0 79.4310552,24.2783269,0 79.4309503,24.278383,0 79.4308968,24.2784176,0 79.4308705,24.2784343,0 79.4308153,24.2784576,0 79.430788,24.2784732,0 79.4307606,24.2784874,0 79.4307326,24.2785011,0 79.4307043,24.2785138,0 79.4305935,24.2785747,0 79.4305692,24.2785914,0 79.4305086,24.2786201,0 79.4304831,24.278635,0 79.4304575,24.2786512,0 79.4304327,24.2786679,0 79.4304002,24.2786781,0 79.4303748,24.2786941,0 79.4303462,24.2787078,0 79.430321,24.2787272,0 79.4302966,24.2787414,0 79.4302702,24.2787568,0 79.4302455,24.2787714,0 79.4302182,24.2787858,0 79.4301945,24.2787975,0 79.430173,24.2788115,0 79.4301506,24.278826,0 79.4301237,24.2788398,0 79.4300994,24.278855,0 79.4300741,24.2788701,0 79.4300459,24.278891,0 79.4300174,24.2789063,0 79.4299905,24.2789324,0 79.4299828,24.2789362,0 79.429978,24.2789321,0 79.4299012,24.2789962,0 79.4298471,24.2790176,0 79.4298461,24.2790206,0 79.4298383,24.2790354,0 79.4298329,24.2789898,0 79.4298142,24.2790106,0 79.4295709,24.2790451,0 79.4294591,24.2790698,0 79.429442,24.2791114,0 79.4294473,24.279138,0 79.4294525,24.2791888,0 79.4294451,24.2793039,0 79.4296101,24.279207,0 79.4296447,24.2792169,0 79.42963,24.2792716,0 79.4296414,24.2792808,0 79.4296695,24.2792738,0 79.4294999,24.2793372,0 79.4295133,24.2794075,0 79.4295201,24.2794451,0 79.4295161,24.2794676,0 79.4295652,24.2794931,0 79.4295322,24.2795347,0 79.4294874,24.2795888,0 79.4294798,24.2796144,0 79.4294766,24.279634,0 79.4294894,24.2796486,0 79.4294904,24.2796626,0 79.4295515,24.2796659,0 79.4295795,24.2796747,0 79.4296327,24.2797722,0 79.4297312,24.2797613,0 79.4298178,24.2797385,0 79.4298149,24.2797818,0 79.4298466,24.2797935,0 79.429906,24.2797772,0 79.4299053,24.2798017,0 79.4299057,24.2798342,0 79.4300156,24.2797821,0 79.4300256,24.2798013,0 79.4299165,24.2798823,0 79.4299959,24.2798612,0 79.430054,24.2797992,0 79.4300271,24.2799129,0 79.4300438,24.279924,0 79.4300673,24.2799372,0 79.4300806,24.2799581,0 79.4301122,24.2799727,0 79.4301403,24.2799988,0 79.4301682,24.279992,0 79.4302054,24.2800203,0 79.4302344,24.2800211,0 79.4302851,24.2800217,0 79.4303146,24.2800209,0 79.43034,24.2800238,0 79.4303683,24.2800247,0 79.4304019,24.2800335,0 79.4304342,24.2800283,0 79.4304702,24.280032,0 79.4304953,24.2800166,0 79.4305496,24.2800029,0 79.4305666,24.279983,0 79.4305941,24.2799739,0 79.4306234,24.2799717,0 79.430655,24.2799692,0 79.4306899,24.2799721,0 79.430724,24.2799673,0 79.4307544,24.2799606,0 79.4307841,24.2799634,0 79.4308435,24.2799892,0 79.4308936,24.2800198,0 79.4309065,24.2800532,0 79.4309177,24.2800833,0 79.4309393,24.2800967,0 79.4309533,24.2801178,0 79.4309821,24.2801432,0 79.4310153,24.280179,0 79.430985,24.2802297,0 79.4309893,24.2802548,0 79.4310041,24.2803015,0 79.4309961,24.2803767,0 79.4310089,24.280464,0 79.4309861,24.2804765,0 79.4309637,24.2805561,0 79.4310077,24.2806159,0 79.4310219,24.2806412,0 79.4310164,24.2806684,0 79.4309977,24.280711,0 79.4310068,24.2807322,0 79.4310735,24.2807671,0 79.4311393,24.2807601,0 79.4312556,24.2807875,0 79.4312876,24.280784,0 79.4313145,24.2807774,0 79.4313421,24.2807721,0 79.4313711,24.2807623,0 79.4313988,24.2807509,0 79.4314306,24.2807422,0 79.4314624,24.2807332,0 79.4314895,24.2807228,0 79.4315215,24.2807144,0 79.4315819,24.2807138,0 79.4316463,24.2807205,0 79.4316737,24.2807119,0 79.4317666,24.2807054,0 79.4318552,24.2806853,0 79.4318784,24.2806724,0 79.4319376,24.2806487,0 79.4319879,24.2806343,0 79.4320197,24.2806319,0 79.4320385,24.2806207,0 79.4320764,24.2806211,0 79.4321057,24.2806124,0 79.4321404,24.2805998,0 79.432165,24.280586,0 79.4321943,24.2805621,0 79.4322237,24.2805579,0 79.4322766,24.2805542,0 79.4323324,24.2805375,0 79.4323691,24.2805478,0 79.4323982,24.2805276,0 79.4324483,24.280509,0 79.4324786,24.2804997,0 79.4325047,24.280491,0 79.4325661,24.2804831,0 79.4326232,24.280461,0 79.432676,24.2804375,0 79.4327254,24.2804194,0 79.4327566,24.2804012,0 79.4327956,24.2803915,0 79.4328527,24.28036,0 79.4328788,24.2803562,0 79.4329092,24.2803669,0 79.4329382,24.2803801,0 79.4330046,24.2803985,0 79.4330289,24.2804085,0 79.4330862,24.2804084,0 79.4331506,24.2804176,0 79.4331808,24.2804127,0 79.4332081,24.2804021,0 79.4332646,24.2804181,0 79.4333245,24.2804365,0 79.4333643,24.2804359,0 79.4333956,24.2804382,0 79.4334243,24.2804424,0 79.4334997,24.2804587,0 79.4335628,24.2804764,0 79.4336129,24.2804965,0 79.433646,24.2804962,0 79.4336893,24.2805069,0 79.4337426,24.2805106,0 79.4337726,24.2805021,0 79.4338032,24.2804856,0 79.4338232,24.2804753,0 79.4338568,24.2804688,0 79.4338834,24.280469,0 79.4339511,24.2804776,0 79.4339803,24.2804877,0 79.4340386,24.2805123,0 79.4340684,24.2805213,0 79.4340965,24.2805365,0 79.4341237,24.2805451,0 79.4341553,24.2805465,0 79.434212,24.280564,0 79.4342662,24.2805956,0 79.4343196,24.2806199,0 79.4343774,24.280637,0 79.4344283,24.2806534,0 79.4344885,24.2806741,0 79.4345711,24.2806947,0 79.4346289,24.2807035,0 79.4346808,24.2807425,0 79.4347049,24.2807606,0 79.4347223,24.2807892,0 79.434754,24.2807879,0 79.4347748,24.2807706,0 79.4348076,24.2807686,0 79.4348326,24.2807895,0 79.4348588,24.2808032,0 79.4349401,24.2808673,0 79.4350016,24.2808715,0 79.4350611,24.2808594,0 79.4351231,24.2808622,0 79.4351552,24.2808667,0 79.4351789,24.2808816,0 79.43521,24.2808892,0 79.4352664,24.2809091,0 79.4352948,24.2809143,0 79.4353278,24.2809142,0 79.4353534,24.2809096,0 79.4354039,24.2808879,0 79.4354405,24.2808889,0 79.4354647,24.2809023,0 79.4354904,24.2809202,0 79.4355097,24.2809416,0 79.4355422,24.2809521,0 79.4355839,24.2809958,0 79.4356059,24.2810164,0 79.4356573,24.2810386,0 79.435689,24.2810449,0 79.4357536,24.2810581,0 79.4357822,24.2810627,0 79.435837,24.2810702,0 79.4358933,24.2810923,0 79.435928,24.2811021,0 79.4360158,24.2811106,0 79.4360472,24.2811007,0 79.4360653,24.2810818,0 79.4360993,24.2810655,0 79.4361362,24.2810432,0 79.4361529,24.2810218,0 79.4361881,24.28102,0 79.4362144,24.281018,0 79.4362407,24.2810209,0 79.4362961,24.2810153,0 79.436327,24.2810101,0 79.4363592,24.2810163,0 79.4363812,24.2810467,0 79.4364141,24.2810505,0 79.4364439,24.2810826,0 79.4364707,24.2810908,0 79.4364977,24.2810901,0 79.4365556,24.2810991,0 79.436578,24.2810898,0 79.4366187,24.2810779,0 79.4366381,24.2810738,0 79.4366533,24.2810528,0 79.4366603,24.2810277,0 79.4366779,24.2809817,0 79.4366745,24.2809435,0 79.4366677,24.2809273,0 79.4366738,24.2809018,0 79.4366907,24.2808345,0 79.4366363,24.2807729,0 79.4366071,24.2807367,0 79.4366034,24.2806805,0 79.4366,24.2806617,0 79.4365903,24.280643,0 79.4365631,24.2806111,0 79.4365618,24.2805883,0 79.4365708,24.280561,0 79.4366442,24.2805027,0 79.4366147,24.2804492,0 79.4365425,24.280391,0 79.4365027,24.2803042,0 79.4364756,24.2802452,0 79.4364628,24.2802157,0 79.4364501,24.2801875,0 79.4364536,24.2801843,0 79.436532,24.2802153,0 79.4364908,24.2802172,0 79.4363756,24.2801773,0 79.4363561,24.2801524,0 79.4363499,24.2801541,0 79.4363539,24.2801568,0 79.43631,24.2801621,0 79.4362067,24.2801563,0 79.4361783,24.2801645,0 79.4361216,24.2801712,0 79.4361058,24.2801742,0 79.4360443,24.2801787,0 79.4360146,24.2801798,0 79.4359691,24.280195,0 79.4359117,24.2801932,0 79.4358928,24.2802003,0 79.4358555,24.2802048,0 79.4358322,24.2802019,0 79.4357797,24.2802035,0 79.4357483,24.2802029,0 79.4357273,24.2801963,0 79.4356971,24.2801947,0 79.4356462,24.2801939,0 79.4356148,24.2802017,0 79.4355889,24.2801892,0 79.4355593,24.280187,0 79.4355049,24.2801444,0 79.4354786,24.2800942,0 79.4354567,24.2800719,0 79.435445,24.2800432,0 79.4354309,24.2800185,0 79.4354142,24.279992,0 79.4354009,24.2799709,0 79.4353542,24.2799261,0 79.4353413,24.2798703,0 79.435334,24.2798461,0 79.4353198,24.2798168,0 79.4353093,24.2797902,0 79.4353072,24.2797656,0 79.4353013,24.2797393,0 79.4352842,24.2797192,0 79.4352495,24.2796834,0 79.4352183,24.279644,0 79.4352227,24.2795907,0 79.4352168,24.2795619,0 79.435188,24.2795272,0 79.435175,24.2794999,0 79.4351384,24.2794566,0 79.4351069,24.2794024,0 79.4350982,24.2793771,0 79.4350802,24.2793599,0 79.4350395,24.279312,0 79.4350112,24.2792492,0 79.435005,24.2792279,0 79.4349465,24.2791848,0 79.4349239,24.2791624,0 79.434905,24.2791441,0 79.4348817,24.2791291,0 79.4347953,24.2791227,0 79.4347775,24.279081,0 79.434752,24.2790638,0 79.4347248,24.279054,0 79.4347057,24.2790385,0 79.4346931,24.2790186,0 79.4346672,24.2790153,0 79.4346352,24.2790265,0 79.4345817,24.279031,0 79.4345568,24.2790131,0 79.4345382,24.2789934,0 79.4345203,24.2789731,0 79.4344972,24.2789607,0 79.4344749,24.2789386,0 79.4344564,24.2789222,0 79.4344341,24.2789085,0 79.4344241,24.2788892,0 79.4344316,24.2788506,0 79.4344164,24.2788265,0 79.4343781,24.2788,0 79.4343318,24.2787543,0 79.4343182,24.2787372,0 79.434291,24.2787209,0 79.4342571,24.2787164,0 79.4342374,24.2786916,0 79.4342142,24.2786783,0 79.4341758,24.2786775,0 79.4341572,24.278684,0 79.4341029,24.2787549,0 79.4340718,24.2787545,0 79.4339889,24.2787837,0 79.4339618,24.2787911,0 79.433962,24.2788498,0 79.4339236,24.2788476,0 79.4338382,24.2789323,0 79.4338028,24.2789027,0 79.4337743,24.2789141,0 79.4337465,24.2788804,0 79.433724,24.2788972,0 79.4336942,24.2789007,0 79.4336682,24.2788948,0 79.4336386,24.278888,0 79.4336175,24.2788744,0 79.4336018,24.2788248,0 79.433596,24.2787971,0 79.4335849,24.2787706,0 79.4335704,24.2787503,0 79.4335578,24.2786918,0 79.4335479,24.278664,0 79.4335329,24.2786392,0 79.4335105,24.2786216,0 79.433505,24.278595,0 79.4335039,24.2785658,0 79.4334954,24.2785392,0 79.4334561,24.2785176,0 79.4334435,24.2784927,0 79.4334394,24.2784352,0 79.433406,24.2783995,0 79.4334016,24.2783722,0 79.4334056,24.2783441,0 79.4334143,24.2783146,0 79.4334152,24.2782577,0 79.43344,24.2782308,0 79.4334378,24.2782043,0 79.4334368,24.2781958,0 79.4334399,24.2781925,0 79.4334357,24.2781222,0 79.4334198,24.2781042,0 79.4334162,24.2781042,0 79.4333882,24.2780785,0 79.4333575,24.2780374,0 79.4333587,24.2779986,0 79.43335,24.2779439,0 79.4333514,24.2779233,0 79.4333481,24.2778939,0 79.4333418,24.2778446,0 79.4333365,24.2778137,0 79.4333404,24.2778108,0 79.4333368,24.2777937,0 79.4333064,24.2777466,0 79.4332837,24.2777184,0 79.4332679,24.2776759,0 79.4332689,24.2776461,0 79.4332657,24.2775986,0 79.4332564,24.2775198,0 79.4332376,24.2774333,0 79.4332351,24.2774079,0 79.4332291,24.2773976,0 79.4331965,24.2773815,0 79.4331211,24.2773625,0 79.4330866,24.2773522,0 79.4330634,24.277368,0 79.4330297,24.2773831,0 79.4329412,24.2773997,0 79.4328562,24.2773892,0 79.4328013,24.2774065,0 79.4327496,24.2774579,0 79.4327536,24.2774539,0 79.4326977,24.2774563,0 79.4326686,24.2774788,0 79.4326296,24.27752,0 79.4325845,24.2775375,0 79.432559,24.2775493,0 79.4325174,24.2775916,0 79.4324927,24.2776022,0 79.4324758,24.2776079,0 79.4324551,24.2776204,0 79.4324404,24.2776277,0 79.4324137,24.2776376,0 79.4323925,24.2776452,0 79.4323684,24.277655,0 79.4323136,24.2776904,0 79.4322637,24.2777092,0 79.43224,24.2777079,0 79.4322128,24.2777242,0 79.4321235,24.2777884,0 79.4321126,24.2778004,0 79.4320835,24.2778166,0 79.4320309,24.2778477,0 79.4319851,24.2778669,0 79.4319617,24.2778691,0 79.4318457,24.2779147,0 79.4317705,24.2779654,0 79.4317236,24.2780024,0 79.4316718,24.2780347,0 79.4316193,24.278065,0 79.431569,24.2780864,0 79.4315187,24.2781099,0 79.4315021,24.2781295,0</coordinates></LinearRing></outerBoundaryIs></Polygon>
  </Placemark>
  
    </Document>
</kml>