<?xml version="1.0" encoding="UTF-8"?>
<kml xmlns="http://www.opengis.net/kml/2.2">
    <Document>
        <Placemark xmlns:ns0="http://www.opengis.net/kml/2.2">
	<Style><LineStyle><color>ff0000ff</color></LineStyle><PolyStyle><fill>0</fill></PolyStyle></Style>
	<ExtendedData><SchemaData schemaUrl="#Wave24_v28MAR2025">
		<SimpleData name="area(ha)">0.525161979443394</SimpleData>
		<SimpleData name="site_id">240159_1.1</SimpleData>
		<SimpleData name="Land_parc">240159</SimpleData>
		<SimpleData name="district">Chhatarpur</SimpleData>
		<SimpleData name="block">bijawar</SimpleData>
		<SimpleData name="village">Gulat</SimpleData>
		<SimpleData name="Land Type">Farmer</SimpleData>
		<SimpleData name="Instance">Wave 2024</SimpleData>
	</SchemaData></ExtendedData>
      <Polygon><outerBoundaryIs><LinearRing><coordinates>79.4707525359448,24.5725317550339,0 79.470663248576,24.5724666929202,0 79.4706334861198,24.5724459284159,0 79.4705375,24.5723827,0 79.4703682,24.5723103,0 79.470210582381,24.5722535106755,0 79.4701164499612,24.5722562792761,0 79.4698645073083,24.5723393372935,0 79.4697482260839,24.5723877878037,0 79.4696859325708,24.5724376226141,0 79.4697080813755,24.5725109905295,0 79.4697240008288,24.5725788212438,0 79.4697849100416,24.5725788212438,0 79.4698672759089,24.5726148130513,0 79.4699496417762,24.5726854123662,0 79.4700451584963,24.5727006396693,0 79.4701406752163,24.5727712389842,0 79.4702403448372,24.5728155365935,0 79.4703234028547,24.5728487598004,0 79.470425148926,24.5728349167975,0 79.4705234342467,24.5728293795964,0 79.4706092608647,24.572851528401,0 79.4706722465279,24.5728605263529,0 79.4708355939622,24.5728397618485,0 79.4708660485686,24.5727885427378,0 79.4709200362799,24.5727746997349,0 79.4708591270671,24.5726390383064,0 79.4708092922567,24.5725822819945,0 79.4707525359448,24.5725317550339,0</coordinates></LinearRing></outerBoundaryIs></Polygon>
  </Placemark>
  
    </Document>
</kml>