<?xml version="1.0" encoding="UTF-8"?>
<kml xmlns="http://www.opengis.net/kml/2.2">
    <Document>
        <Placemark xmlns:ns0="http://www.opengis.net/kml/2.2">
	<Style><LineStyle><color>ff0000ff</color></LineStyle><PolyStyle><fill>0</fill></PolyStyle></Style>
	<ExtendedData><SchemaData schemaUrl="#Wave24_v28MAR2025">
		<SimpleData name="area(ha)">9.347949248309137</SimpleData>
		<SimpleData name="site_id">240115_3.4</SimpleData>
		<SimpleData name="Land_parc">240115</SimpleData>
		<SimpleData name="district">Damoh</SimpleData>
		<SimpleData name="block">Batyagarh</SimpleData>
		<SimpleData name="village">Singhpur (Sakri, Neemkheda, Kh</SimpleData>
		<SimpleData name="Land Type">Community</SimpleData>
		<SimpleData name="Instance">Wave 2024</SimpleData>
	</SchemaData></ExtendedData>
      <Polygon><outerBoundaryIs><LinearRing><coordinates>79.3868911,24.1977572,0 79.3869206833517,24.1980098085835,0 79.3867888009035,24.1980271264808,0 79.3867728151522,24.1979272155352,0 79.3866888899579,24.1978259724436,0 79.3867075400011,24.1980664247861,0 79.3867075400011,24.1981943107965,0 79.3867155328767,24.198364825477,0 79.3867395115037,24.1984314327741,0 79.3867355150658,24.1985333419385,0 79.3867861366116,24.1986852065759,0 79.3867701508603,24.1988290783376,0 79.3868101152386,24.1991940863255,0 79.3867674865684,24.1993912439249,0 79.386778143736,24.1996350266322,0 79.3867794758819,24.1996736588645,0 79.3868194402602,24.19995740595,0 79.3868394224493,24.200025345393,0 79.3868634010762,24.2000759669388,0 79.3868221045521,24.2002051850952,0 79.3869048,24.2002262,0 79.3870089,24.2003439,0 79.387142,24.2003538,0 79.3871409,24.2005361,0 79.3871444838699,24.2006314717964,0 79.3871591374753,24.2007247220124,0 79.3871737910806,24.2008046507689,0 79.3872070947292,24.2008792509416,0 79.387256384129,24.2009591796981,0 79.3872883556316,24.2010391084546,0 79.387348302199,24.2011030514598,0 79.3874122452042,24.2011483444218,0 79.3874215702258,24.2012189481567,0 79.3874308952473,24.2012975447672,0 79.3874189059339,24.2013694806481,0 79.3873832,24.2014227,0 79.3874951,24.201496,0 79.3875224,24.201512,0 79.3875675,24.2015427,0 79.3875976,24.2015478,0 79.3876339,24.2015391,0 79.3877454,24.2015321,0 79.3877833,24.2015214,0 79.3878855,24.2015239,0 79.3879691,24.2015501,0 79.3880962,24.201584,0 79.3881992,24.2015257,0 79.3882652,24.2014824,0 79.3883675,24.2014319,0 79.3884389,24.2013846,0 79.3884864,24.2013521,0 79.3885175,24.2013125,0 79.3885378,24.2012914,0 79.3886516,24.2012539,0 79.3887232,24.2011615,0 79.3887909,24.2010792,0 79.3888103,24.2009849,0 79.3888245,24.2008712,0 79.3888362,24.2008455,0 79.3888699,24.2007707,0 79.3889436,24.2005799,0 79.3889497,24.2005418,0 79.3889599,24.2005138,0 79.389038129326,24.200460957116,0 79.3890780937042,24.2003663747541,0 79.3891207223743,24.2002917745814,0 79.3892392833631,24.2002344923059,0 79.3892512726766,24.2001359135063,0 79.3892925692007,24.2000693062092,0 79.389332533579,24.2000253453931,0 79.3893538479141,24.1999693952636,0 79.3893818229788,24.19991477728,0 79.3894324445246,24.1998481699829,0 79.3894724089028,24.1997735698102,0 79.3895203661567,24.1996763231564,0 79.3894709823668,24.1995915106943,0 79.3894524267137,24.1995098049137,0 79.3893738301032,24.1993819189034,0 79.3893605086438,24.1992886686875,0 79.3893298692871,24.199207407785,0 79.3893005620764,24.1991314754664,0 79.3892692566467,24.1990781896287,0 79.3892725870116,24.1989636250777,0 79.3892905709818,24.1987951086161,0 79.3893005620764,24.1987591406757,0 79.3893058906601,24.1986991941083,0 79.3893212103384,24.1986139367681,0 79.3893038924412,24.1985206865522,0 79.3893065567331,24.1984660685686,0 79.3892652602089,24.1983714862067,0 79.3892506066035,24.198296886034,0 79.3892212993928,24.1982209537153,0 79.3892106422253,24.198183653629,0 79.3892106422253,24.1981330320832,0 79.3892466101657,24.1980531033267,0 79.389276,24.1980153,0 79.3892842,24.1979852,0 79.3893598425707,24.1978772600624,0 79.3894091319705,24.1978173134951,0 79.3894185412291,24.1977676767594,0 79.3894273412138,24.1977392767548,0 79.3894637499541,24.1976681131496,0 79.3894797357054,24.1975948451228,0 79.3894717428297,24.1975522164527,0 79.3894877285811,24.1975109199285,0 79.3894051355327,24.1975282378257,0 79.389351849695,24.1974936020312,0 79.3892894821985,24.1974769033919,0 79.3892133065171,24.197498930615,0 79.3891906600361,24.197522909242,0 79.3891626849713,24.1975282378257,0 79.3891227205931,24.1975388949933,0 79.3890897,24.1975556,0 79.3890512,24.1975613,0 79.388951,24.1975863,0 79.3888354,24.1976147,0 79.3888289,24.1976042,0 79.3887994,24.1976126,0 79.3887633,24.1976189,0 79.3887371,24.1976299,0 79.3885985,24.1976298,0 79.3884832,24.1976681,0 79.388454,24.1976769,0 79.3883854,24.1976928,0 79.3883532,24.1976997,0 79.388297,24.1977304,0 79.388158,24.1977032,0 79.3881252,24.1977016,0 79.3880361,24.1976687,0 79.387906,24.1976553,0 79.387787,24.1976552,0 79.387649,24.1976261,0 79.3874426,24.1976547,0 79.3874117,24.1976581,0 79.3872385,24.19766,0 79.3870472,24.197661,0 79.3869479,24.1976706,0 79.3868967,24.1976818,0 79.3868943,24.1976863,0 79.3868911,24.1977572,0</coordinates></LinearRing></outerBoundaryIs><innerBoundaryIs><LinearRing><coordinates>79.3872350697939,24.2002264994302,0 79.3871791196643,24.2001652207169,0 79.3871145105862,24.2000066953498,0 79.3874275648824,24.1999214380096,0 79.3874009219636,24.1998614914422,0 79.3873196610611,24.1995537657297,0 79.387596747417,24.1994325404491,0 79.3876833369032,24.1998781432665,0 79.3876593582763,24.1998941290178,0 79.387620059971,24.1999394219798,0 79.3876107349494,24.1999833827959,0 79.3876173956791,24.2000106917877,0 79.3875987456359,24.2000413311443,0 79.3874295631013,24.2000799633766,0 79.3873975915987,24.2001492349656,0 79.3873443057611,24.2002105136789,0 79.3872350697939,24.2002264994302,0</coordinates></LinearRing></innerBoundaryIs><innerBoundaryIs><LinearRing><coordinates>79.3882015416744,24.1987824532296,0 79.3882201917176,24.1989662893695,0 79.3879937269075,24.1989849394127,0 79.3879883983238,24.1986971958893,0 79.3881136200423,24.1984760596631,0 79.3883054490579,24.1984733953712,0 79.3883400848523,24.1986652243868,0 79.3882015416744,24.1987824532296,0</coordinates></LinearRing></innerBoundaryIs></Polygon>
  </Placemark>
  
    </Document>
</kml>