<?xml version="1.0" encoding="UTF-8"?>
<kml xmlns="http://www.opengis.net/kml/2.2">
    <Document>
        <Placemark xmlns:ns0="http://www.opengis.net/kml/2.2">
	<Style><LineStyle><color>ff0000ff</color></LineStyle><PolyStyle><fill>0</fill></PolyStyle></Style>
	<ExtendedData><SchemaData schemaUrl="#Wave24_v28MAR2025">
		<SimpleData name="area(ha)">36.393206907561662</SimpleData>
		<SimpleData name="site_id">240111_1.1</SimpleData>
		<SimpleData name="Land_parc">240111</SimpleData>
		<SimpleData name="district">Katni</SimpleData>
		<SimpleData name="block">Barwara</SimpleData>
		<SimpleData name="village">Bhajiya</SimpleData>
		<SimpleData name="Land Type">Community</SimpleData>
		<SimpleData name="Instance">Wave 2024</SimpleData>
	</SchemaData></ExtendedData>
      <MultiGeometry><Polygon><outerBoundaryIs><LinearRing><coordinates>80.5509217,23.6330543,0 80.5509087,23.6330763,0 80.5509234398721,23.6330563298507,0 80.5509217,23.6330543,0</coordinates></LinearRing></outerBoundaryIs></Polygon><Polygon><outerBoundaryIs><LinearRing><coordinates>80.5508705,23.6331416,0 80.5508724900399,23.6331408039841,0 80.5508726,23.6331403,0 80.5508705,23.6331416,0</coordinates></LinearRing></outerBoundaryIs></Polygon><Polygon><outerBoundaryIs><LinearRing><coordinates>80.5508712,23.6331498,0 80.5508548,23.633182,0 80.5508081,23.6332423,0 80.5507771,23.6332849,0 80.55078,23.6332829,0 80.5508117,23.6333055,0 80.5508209,23.6332985,0 80.5508246,23.6333145,0 80.5508608,23.6333749,0 80.550875,23.6333937,0 80.5508889,23.6334262,0 80.5508817,23.6335149,0 80.5508521,23.6335401,0 80.5508041,23.6335811,0 80.5508001,23.6336033,0 80.5507761,23.6336758,0 80.5507455,23.6337152,0 80.5507388,23.6337298,0 80.5507305,23.6337838,0 80.5507404,23.6338408,0 80.5507642,23.633858,0 80.5507694,23.6338683,0 80.5508253,23.6338948,0 80.5508382,23.6339249,0 80.5508469,23.6339342,0 80.5508481,23.6339574,0 80.5508651,23.6340266,0 80.5508956,23.634037,0 80.550908,23.6340702,0 80.5509346,23.634088,0 80.5509542,23.6341153,0 80.5509543,23.6341445,0 80.5509563,23.6341683,0 80.5509695,23.6342194,0 80.5509893,23.6342461,0 80.5510307,23.6342639,0 80.5510518,23.6342982,0 80.5510706,23.6343215,0 80.5511077,23.6343688,0 80.5511542,23.6344068,0 80.5511756,23.6344241,0 80.5512047,23.6344378,0 80.5512563,23.6344645,0 80.5513204,23.6344771,0 80.5513866,23.6344969,0 80.5514295,23.6345193,0 80.5515363,23.6345874,0 80.5515628,23.6346083,0 80.5516306,23.6346303,0 80.5517012,23.6346302,0 80.5517511,23.6346405,0 80.55174,23.6346732,0 80.5517058,23.6347262,0 80.5516777,23.634771,0 80.5516511,23.6347873,0 80.5516095,23.6348294,0 80.5515936,23.6348482,0 80.5515777,23.6349054,0 80.5515322,23.6349767,0 80.5515393,23.635005,0 80.5515922,23.6350435,0 80.5516098,23.6351017,0 80.5515776,23.6351197,0 80.5515419,23.635151,0 80.5515351,23.6351755,0 80.5516419,23.635226,0 80.5516728,23.6352329,0 80.5517271,23.6352498,0 80.5517735,23.6352754,0 80.5518042,23.6353047,0 80.5517783,23.6353652,0 80.5517976,23.6354078,0 80.5517952,23.63546,0 80.5518142,23.63546,0 80.5518434,23.6355796,0 80.5519513,23.6355997,0 80.5520761,23.6355794,0 80.552152,23.6355318,0 80.5522373,23.6355959,0 80.55226,23.6356068,0 80.5523156,23.6356322,0 80.5523463,23.6356469,0 80.5523751,23.635666,0 80.552421,23.6357155,0 80.5524398,23.6357346,0 80.5524776,23.6357715,0 80.5525167,23.6358077,0 80.5525669650382,23.6358667952025,0 80.552625533034,23.6359398703938,0 80.5527183412747,23.636007132982,0 80.5528325,23.6358827,0 80.5528499,23.6358505,0 80.5529142,23.6357353,0 80.552968,23.6355293,0 80.5530266,23.6355069,0 80.5531037,23.6355202,0 80.5532337,23.6356775,0 80.5532906,23.6357468,0 80.5535223,23.6357703,0 80.5535603,23.6357581,0 80.5536081,23.6357407,0 80.5536929,23.6357231,0 80.5537433,23.6356971,0 80.5537719,23.6356855,0 80.5539137,23.6355874,0 80.553939,23.63556,0 80.553966,23.6355804,0 80.5539998,23.6355877,0 80.5541438,23.6356083,0 80.5541047,23.6355871,0 80.5541259,23.6354985,0 80.5541579,23.6354134,0 80.5541975,23.6353554,0 80.5542327,23.6352938,0 80.5543815,23.6352273,0 80.5544327,23.6352161,0 80.5544627,23.6352121,0 80.5545142,23.6351507,0 80.5545722,23.6351181,0 80.5546212,23.6350951,0 80.5546468,23.6351048,0 80.5546937,23.6350533,0 80.5547563,23.6350766,0 80.554792,23.6351125,0 80.5548538,23.6351385,0 80.5549716,23.6352021,0 80.555009,23.6352245,0 80.5550168,23.6352649,0 80.555102,23.6353201,0 80.555136,23.6353613,0 80.5551676,23.6353722,0 80.5552672,23.6353832,0 80.5552989,23.6353885,0 80.5553747,23.6354255,0 80.5554724,23.6354821,0 80.5554825,23.635404,0 80.5556124,23.635334,0 80.5556144,23.6353289,0 80.5555918,23.6352594,0 80.5555613,23.6352171,0 80.5555544,23.6351316,0 80.555553,23.6350795,0 80.5555935,23.634834,0 80.5556196,23.6347483,0 80.5556762,23.6346731,0 80.5556865,23.6346126,0 80.5557315,23.6345276,0 80.555743,23.6344974,0 80.5557947,23.6344569,0 80.5558672,23.6343921,0 80.5559861,23.6342919,0 80.5560481,23.6342679,0 80.5560729,23.6342488,0 80.5561647,23.634206,0 80.5563066,23.634169,0 80.5563838,23.6342089,0 80.5564908,23.6342533,0 80.5565267,23.6342712,0 80.5565911,23.6342992,0 80.5567006,23.6343434,0 80.5568604,23.6344197,0 80.5569889,23.6344756,0 80.5571115,23.6345314,0 80.5571435,23.634539,0 80.5572039,23.6345904,0 80.5572702,23.6346234,0 80.5573376,23.6346396,0 80.5574503,23.6346428,0 80.5575731,23.6347048,0 80.5576757,23.6347309,0 80.5577723,23.6347622,0 80.5578045,23.6347709,0 80.5578373,23.6347846,0 80.5578944,23.6348268,0 80.5579538,23.6348609,0 80.5580148,23.6348906,0 80.5580746,23.6349175,0 80.5581374,23.6349364,0 80.5582017,23.6349438,0 80.5582663,23.6349652,0 80.5583325,23.6349781,0 80.5584604,23.6349702,0 80.5585267,23.6349646,0 80.5586255,23.6349744,0 80.5586917,23.6349894,0 80.5587508,23.6349947,0 80.5587882,23.6349975,0 80.5588199,23.6349988,0 80.5588893,23.6350119,0 80.5589177,23.6349805,0 80.5590193,23.6350079,0 80.5590846,23.6350283,0 80.5592144,23.6350498,0 80.5592486,23.6350581,0 80.5593187,23.6350749,0 80.5593932,23.6350862,0 80.5595363,23.635087,0 80.559573,23.6350888,0 80.5596282,23.6350909,0 80.5596659,23.6350922,0 80.5597022,23.6351003,0 80.5598144084904,23.6351663498836,0 80.5598357564109,23.6351782331077,0 80.5598698577626,23.6352137978079,0 80.5599211514249,23.6352247807643,0 80.559991677344,23.6352407443616,0 80.5600942811787,23.6352577841217,0 80.5601509250349,23.6352677969546,0 80.5602000635421,23.6352836998108,0 80.5603068824202,23.6353194705716,0 80.5603774347567,23.6353275523051,0 80.5604544691256,23.6353159479635,0 80.5604951250521,23.6353101518381,0 80.5606041879966,23.6353144016957,0 80.5606755,23.6353168,0 80.5607511,23.6353173,0 80.5608658,23.6353241,0 80.5609032,23.6353382,0 80.5610428,23.635365,0 80.5611073,23.6353941,0 80.5611920085465,23.6354165581729,0 80.5612625019019,23.635442373309,0 80.5613202218735,23.6354504183193,0 80.5614609,23.6354644,0 80.5615726008789,23.635449161412,0 80.5616091170815,23.6354019740273,0 80.5616192,23.6353594,0 80.5616432,23.6353393,0 80.5616461,23.6353106,0 80.5616597,23.635217,0 80.5616613,23.6352156,0 80.5616624,23.6351898,0 80.5616738,23.6350934,0 80.5616823,23.6350643,0 80.5616746,23.6350122,0 80.5616767,23.6349779,0 80.5616778,23.6349015,0 80.5616225,23.6348046,0 80.5616095,23.6347223,0 80.5616823,23.6346093,0 80.5616983,23.6345489,0 80.5617496,23.6344922,0 80.5618093,23.6343602,0 80.5617402,23.6342355,0 80.5617112,23.6341891,0 80.5616952,23.6341659,0 80.561684,23.6341414,0 80.5617446,23.6341303,0 80.5617363,23.6340993,0 80.5617346,23.6340977,0 80.5617345,23.6340976,0 80.5617218,23.634076,0 80.5616867,23.6340417,0 80.5616736,23.6340148,0 80.5616602,23.6339907,0 80.5616359,23.6339468,0 80.5615979,23.6338275,0 80.5615816,23.6337946,0 80.5615665,23.6337605,0 80.5615473,23.6337327,0 80.5615368,23.6336986,0 80.5615221,23.6336749,0 80.5615114,23.6336106,0 80.5615106,23.6335743,0 80.5615173,23.6335045,0 80.5614855,23.6334882,0 80.5614615,23.6334247,0 80.561376,23.6333952,0 80.561315,23.6333786,0 80.561272,23.6333194,0 80.5611982,23.6332654,0 80.5611441,23.6332379,0 80.5610215,23.6331787,0 80.5609167,23.6331103,0 80.5608387,23.6329888,0 80.5608085,23.6329272,0 80.5607852,23.6328081,0 80.5607422,23.6327136,0 80.5606867,23.6326711,0 80.5605702,23.6326242,0 80.5604389,23.6325994,0 80.5603085,23.6325626,0 80.5602092,23.6325349,0 80.5600979,23.6325049,0 80.5599837,23.6324766,0 80.5598542,23.6324483,0 80.5597739,23.6324442,0 80.5596645,23.6323978,0 80.5595219,23.6323425,0 80.5593998,23.6322657,0 80.5593134,23.6322316,0 80.5592251,23.6321937,0 80.5591295,23.632179,0 80.5590649,23.6321707,0 80.5589852,23.6321538,0 80.5588835,23.6321172,0 80.5587897,23.6319723,0 80.5586936,23.6319701,0 80.5586625,23.6319924,0 80.5585453,23.6321172,0 80.5585208,23.6321923,0 80.5585101,23.6321888,0 80.5584971,23.6322057,0 80.5584772,23.6322202,0 80.5583968,23.632222,0 80.558405,23.6322344,0 80.5583967,23.6322779,0 80.558343,23.6322988,0 80.5580215,23.6322355,0 80.5579181,23.6322142,0 80.5578901,23.6322077,0 80.5577556,23.6322089,0 80.5576892,23.6322296,0 80.5575204,23.6322127,0 80.557363,23.6321528,0 80.5573311,23.6321406,0 80.5572782,23.6321229,0 80.5572137,23.6321138,0 80.5571532,23.6321143,0 80.5570939,23.632112,0 80.5570115,23.6321109,0 80.5569507,23.6321183,0 80.5568166,23.6320988,0 80.5567901,23.6320974,0 80.5566985,23.6321174,0 80.5566661,23.6321126,0 80.5565576,23.6321146,0 80.5565191,23.6321067,0 80.5562752,23.632041,0 80.5562684,23.6320415,0 80.5562321,23.6320111,0 80.5561944,23.631988,0 80.5561795,23.6319897,0 80.5561186,23.6319996,0 80.5559724,23.6319106,0 80.5558938,23.6318754,0 80.5557987,23.6318298,0 80.5557394,23.6318089,0 80.5557084,23.6317908,0 80.5556693,23.631782,0 80.5555517,23.6317776,0 80.5555198,23.6317707,0 80.5554583,23.6317567,0 80.5554025,23.6317588,0 80.5553686,23.6317461,0 80.5553325,23.6317381,0 80.5552995,23.6317448,0 80.5551873,23.6317637,0 80.5551028,23.6317706,0 80.5550728,23.631774,0 80.5549899,23.6317592,0 80.5549545,23.6317591,0 80.5548847,23.6317641,0 80.5548163,23.6317312,0 80.5547132,23.6317065,0 80.5546157,23.6316949,0 80.5545217,23.6316817,0 80.5544488,23.63167,0 80.5544176,23.6316677,0 80.5543504,23.6316557,0 80.5542958,23.6316379,0 80.5542665,23.6316188,0 80.5542006,23.6315864,0 80.5541531,23.6315675,0 80.5540765,23.6315179,0 80.5539941,23.6315123,0 80.5539661,23.6314959,0 80.553928,23.6314795,0 80.5538996,23.6314657,0 80.5538643,23.6314886,0 80.5538491,23.6315003,0 80.5537798,23.631509,0 80.5537514,23.6315111,0 80.5536948,23.6315128,0 80.5536366,23.6315142,0 80.5536587,23.6315022,0 80.5536575,23.631498,0 80.5536525,23.6314954,0 80.5536241,23.6314938,0 80.5535776,23.6314799,0 80.5534751,23.6315106,0 80.5534035,23.631512,0 80.5533487,23.6315299,0 80.5532991,23.6315524,0 80.5532715,23.6315697,0 80.5531796,23.6316056,0 80.5530985,23.6315697,0 80.5530147,23.6315919,0 80.5529605,23.6315641,0 80.5529124,23.6315224,0 80.552847,23.6315224,0 80.5527908,23.6315193,0 80.5527667,23.6315301,0 80.5527389,23.6315435,0 80.5527182,23.6315344,0 80.5526816,23.6315698,0 80.5526616,23.6316151,0 80.5525982,23.6316634,0 80.5525253,23.6316685,0 80.5524957,23.6316612,0 80.5524475,23.6316459,0 80.5524241,23.6316374,0 80.5523468,23.631629,0 80.5523089,23.6316404,0 80.5522803,23.6316532,0 80.5521826,23.6316524,0 80.5521084,23.6316981,0 80.5520592,23.6317616,0 80.5519952,23.6318345,0 80.5519463,23.631871,0 80.5518706,23.631902,0 80.5518047,23.6319269,0 80.5517671,23.6319334,0 80.5517379,23.6319455,0 80.5517083,23.6319554,0 80.5516699,23.6319963,0 80.5516348,23.632015,0 80.551605,23.6320248,0 80.5515869,23.632052,0 80.5515381,23.6320722,0 80.5514531,23.6320918,0 80.5514421,23.6321443,0 80.5513794,23.6321929,0 80.5513574,23.6322132,0 80.5513296,23.6322661,0 80.5512978,23.6322839,0 80.5512741,23.6323578,0 80.5512243,23.6324093,0 80.551218,23.6324361,0 80.5511973,23.6325022,0 80.5511522,23.6325097,0 80.5511242,23.6325223,0 80.5511085,23.6325189,0 80.5510869,23.632527,0 80.5510563,23.6325488,0 80.5510331,23.6325614,0 80.5510239,23.6325806,0 80.5510055,23.6326231,0 80.5510092,23.6326401,0 80.5510233,23.6326732,0 80.5510237,23.6327056,0 80.5509904,23.6327525,0 80.5509891,23.6327854,0 80.5509789,23.632789,0 80.5509768,23.6327825,0 80.5509785,23.6327894,0 80.5509825,23.6328327,0 80.5509919,23.6328483,0 80.5509886,23.6328551,0 80.5509941,23.6328861,0 80.550993,23.632907,0 80.5509801,23.6329489,0 80.5509593,23.6329907,0 80.5509459,23.6330259,0 80.5509234398721,23.6330563298507,0 80.5509259,23.6330592,0 80.550926,23.6330747,0 80.5509066,23.6331128,0 80.550882,23.633137,0 80.5508724900399,23.6331408039841,0 80.5508714,23.6331458,0 80.5508712,23.6331498,0</coordinates></LinearRing></outerBoundaryIs></Polygon></MultiGeometry>
  </Placemark>
  
    </Document>
</kml>