<?xml version="1.0" encoding="UTF-8"?>
<kml xmlns="http://www.opengis.net/kml/2.2">
    <Document>
        <Placemark xmlns:ns0="http://www.opengis.net/kml/2.2">
	<Style><LineStyle><color>ff0000ff</color></LineStyle><PolyStyle><fill>0</fill></PolyStyle></Style>
	<ExtendedData><SchemaData schemaUrl="#Wave24_v28MAR2025">
		<SimpleData name="area(ha)">0.168945484812884</SimpleData>
		<SimpleData name="site_id">240109_2.2</SimpleData>
		<SimpleData name="Land_parc">240109</SimpleData>
		<SimpleData name="district">Damoh</SimpleData>
		<SimpleData name="block">Pathariya</SimpleData>
		<SimpleData name="village">Kalyanpura</SimpleData>
		<SimpleData name="Land Type">Community</SimpleData>
		<SimpleData name="Instance">Wave 2024</SimpleData>
	</SchemaData></ExtendedData>
      <Polygon><outerBoundaryIs><LinearRing><coordinates>79.4156199,23.9961721,0 79.4156962124517,23.9961464076606,0 79.4157483317891,23.9961203479919,0 79.41579230748,23.9960731148424,0 79.4158281395245,23.9960405402565,0 79.4158493130053,23.9960144805878,0 79.4158786301326,23.9959688761676,0 79.4159209770942,23.9959314153939,0 79.4159388931164,23.9958972120787,0 79.4159682102437,23.995857308211,0 79.4160072997468,23.9958369490948,0 79.416035,23.9958221,0 79.4160776,23.9958002,0 79.4160996,23.9957874,0 79.4161156102448,23.9957856441221,0 79.4161302688085,23.9958581225757,0 79.4162630102459,23.9958735955039,0 79.4163004710196,23.9958687093161,0 79.4163346743348,23.9958491645645,0 79.4163753925671,23.9958279910837,0 79.4163884224015,23.995801931415,0 79.4164177395288,23.9957937877686,0 79.4164437991975,23.9957595844534,0 79.4164217138695,23.9957202824213,0 79.4163595388158,23.9957255065051,0 79.4161852647164,23.9957450512434,0 79.4159428146502,23.9957934971734,0 79.4158125162561,23.9958114131969,0 79.4156620834659,23.995835837171,0 79.4155304268249,23.9958424673615,0 79.415543926264,23.9959224573827,0 79.4155692607981,23.9960574749696,0 79.4155995702407,23.9962232297334,0 79.4156241966627,23.9963690939256,0 79.4156421928942,23.9963226825918,0 79.4156199,23.9961721,0</coordinates></LinearRing></outerBoundaryIs></Polygon>
  </Placemark>
  
    </Document>
</kml>