<?xml version="1.0" encoding="UTF-8"?>
<kml xmlns="http://www.opengis.net/kml/2.2">
    <Document>
        <Placemark xmlns:ns0="http://www.opengis.net/kml/2.2">
	<Style><LineStyle><color>ff0000ff</color></LineStyle><PolyStyle><fill>0</fill></PolyStyle></Style>
	<ExtendedData><SchemaData schemaUrl="#Wave24_v28MAR2025">
		<SimpleData name="area(ha)">6.092595865523028</SimpleData>
		<SimpleData name="site_id">240179_2.2</SimpleData>
		<SimpleData name="Land_parc">240179</SimpleData>
		<SimpleData name="district">Damoh</SimpleData>
		<SimpleData name="block">Batyagarh</SimpleData>
		<SimpleData name="village">Sadpur</SimpleData>
		<SimpleData name="Land Type">Community</SimpleData>
		<SimpleData name="Instance">Wave 2024</SimpleData>
	</SchemaData></ExtendedData>
      <Polygon><outerBoundaryIs><LinearRing><coordinates>79.3893177,24.2242941,0 79.3893204,24.2242944,0 79.3893261,24.2242965,0 79.3893311,24.2242949,0 79.389383,24.2242971,0 79.38944,24.2242767,0 79.3894645,24.2242744,0 79.3895291,24.2242605,0 79.3895582,24.2242564,0 79.3896137,24.2242446,0 79.3896487,24.2242315,0 79.3897493,24.224204,0 79.3898257,24.2241766,0 79.3898289,24.2241752,0 79.3898697,24.2241482,0 79.3898859,24.2241073,0 79.3899404,24.2240854,0 79.3899618,24.2240744,0 79.3899707,24.2240741,0 79.3899889,24.2240639,0 79.3900348,24.2240588,0 79.3900802,24.2240597,0 79.3901288,24.2240639,0 79.390156,24.2240725,0 79.3901566,24.2240728,0 79.3901985,24.2240644,0 79.3902341,24.2240443,0 79.3902635,24.2240362,0 79.3902864,24.2240204,0 79.3903399,24.2239888,0 79.3903692,24.2239775,0 79.3903969,24.2239764,0 79.3904223,24.2239654,0 79.3904785,24.2239616,0 79.3904997,24.2239748,0 79.3905235,24.2239731,0 79.3905706,24.2239701,0 79.3905939,24.2239704,0 79.3906157,24.2239685,0 79.3906645,24.2239521,0 79.3906801,24.2239559,0 79.3907219,24.2239575,0 79.390753,24.2239485,0 79.3908029,24.2239265,0 79.3908548,24.2239095,0 79.3908782,24.2238991,0 79.3909049,24.2238916,0 79.3909375,24.2238804,0 79.3909665,24.2238813,0 79.3910131,24.2238683,0 79.3910725,24.2238624,0 79.3911481,24.2238444,0 79.3911974,24.2238317,0 79.3912259,24.2238353,0 79.3912731,24.2238138,0 79.3913249,24.2237887,0 79.3913507,24.2237869,0 79.3913875,24.2237874,0 79.3914415,24.2237759,0 79.3914713,24.2237654,0 79.3914959,24.2237564,0 79.3915492,24.2237419,0 79.3915946,24.2237217,0 79.3916257,24.2237055,0 79.3916484,24.2236953,0 79.3917033,24.2236814,0 79.3917634,24.2236618,0 79.3918181,24.2236528,0 79.3918533,24.2236441,0 79.3918905,24.2236369,0 79.391919,24.2236429,0 79.3919783,24.2236556,0 79.3920001,24.223664,0 79.3920033,24.2236609,0 79.3920134,24.2236614,0 79.3920146,24.2236606,0 79.3920441,24.2236152,0 79.392052,24.2235871,0 79.3920663,24.2235428,0 79.3920592,24.2235132,0 79.3920496,24.2234592,0 79.3920309,24.2233908,0 79.392017,24.2233605,0 79.3920155,24.2233402,0 79.391997,24.2232775,0 79.3919815,24.2232228,0 79.391976,24.2231449,0 79.3919336,24.2230987,0 79.3919049,24.2231249,0 79.391867,24.2231648,0 79.3918571,24.2231949,0 79.3918335,24.2231952,0 79.3917955,24.2232086,0 79.3917768,24.2232182,0 79.3917111,24.2232659,0 79.3916727,24.2232699,0 79.3916567,24.2232671,0 79.3916114,24.2232674,0 79.391589,24.2232722,0 79.3915547,24.223306,0 79.3915243,24.2233023,0 79.3915007,24.2233088,0 79.3914512,24.2233382,0 79.3914278,24.2233406,0 79.3914101,24.2233431,0 79.3913453,24.2233567,0 79.3913112,24.2233255,0 79.3912752,24.2232821,0 79.3912968,24.2232893,0 79.3913138,24.2232902,0 79.3913387,24.2232855,0 79.3913477,24.2232273,0 79.391333,24.2232043,0 79.3913259,24.2231775,0 79.3913124,24.2231474,0 79.3912965,24.2230953,0 79.3912849,24.223074,0 79.3912827,24.2230459,0 79.3912705,24.2229949,0 79.3912605,24.2229728,0 79.3912683,24.2229426,0 79.3912683,24.2228694,0 79.3912594,24.2228312,0 79.391253,24.2227931,0 79.3912433,24.2227773,0 79.3912308,24.2227328,0 79.3912273,24.222713,0 79.3912279,24.2226855,0 79.3912264,24.2226528,0 79.3912219,24.2226292,0 79.3911989,24.2225598,0 79.3912082,24.2225213,0 79.3912218,24.222474,0 79.3912305,24.2224499,0 79.3912267,24.2223958,0 79.3912264,24.2223738,0 79.3912292,24.2223502,0 79.3912241,24.2223251,0 79.3912083,24.2222717,0 79.3912072,24.2222449,0 79.3912076,24.222224,0 79.3912122,24.2222026,0 79.3912068,24.222184,0 79.3911725,24.2221535,0 79.3911625,24.2221302,0 79.3911524,24.222109,0 79.3911398,24.2220605,0 79.3911342,24.2220379,0 79.3911243,24.2220149,0 79.3911148,24.2219564,0 79.3911121,24.2219316,0 79.3910997,24.2219126,0 79.3910938,24.2218836,0 79.391081,24.2218637,0 79.3910751,24.2218132,0 79.3910694,24.2217894,0 79.3910409,24.2217492,0 79.391025,24.2217304,0 79.3910138,24.2217069,0 79.3910036,24.2216867,0 79.3909924,24.2216558,0 79.3909748,24.2216312,0 79.3909742,24.2216077,0 79.3909666,24.2215822,0 79.3909683,24.2215619,0 79.3909548,24.2215207,0 79.3908907,24.2215131,0 79.3908578,24.2215206,0 79.3908284,24.2215243,0 79.3908033,24.2215363,0 79.3907775,24.2215536,0 79.3907557,24.221567,0 79.3907399,24.2215864,0 79.3907213,24.2216027,0 79.390704,24.2216259,0 79.3906637,24.2216508,0 79.3906385,24.2216637,0 79.390625,24.2216786,0 79.3906105,24.2216969,0 79.390581,24.2217298,0 79.3905624,24.2217422,0 79.390526,24.2217709,0 79.3905139,24.2217878,0 79.3904712,24.2218186,0 79.3904114,24.2218566,0 79.3903854,24.2218715,0 79.3903329,24.2218948,0 79.3903081,24.2219004,0 79.3902517,24.2219215,0 79.3902201,24.2219334,0 79.3901699,24.2219447,0 79.3901135,24.2219626,0 79.3900303,24.2220099,0 79.3899986,24.2220566,0 79.3899648,24.2220912,0 79.3899403,24.2220886,0 79.3898697,24.2220871,0 79.3898131,24.2221205,0 79.3897659,24.2221346,0 79.3897214,24.2221488,0 79.3896708,24.2221691,0 79.3896377,24.2221821,0 79.3895383,24.2222202,0 79.3895328,24.2222274,0 79.3894834,24.2222555,0 79.3894631,24.2222662,0 79.3894374,24.2222779,0 79.3894113,24.2222929,0 79.3893629,24.2223185,0 79.3893333,24.2223311,0 79.3893086,24.2223335,0 79.389275,24.2223399,0 79.3892345,24.2223707,0 79.3892095,24.2223884,0 79.3891884,24.2224036,0 79.3891679,24.2224247,0 79.389143,24.2224354,0 79.3890887,24.2224466,0 79.3890287,24.2224522,0 79.3889811,24.2224893,0 79.3889536,24.2224852,0 79.3889149,24.2225234,0 79.3888924,24.2225416,0 79.3888676,24.2225485,0 79.3888441,24.2225501,0 79.3888128,24.2225607,0 79.3887869,24.222566,0 79.3887548,24.2225666,0 79.3887295,24.2225802,0 79.3887156,24.2226015,0 79.3886999,24.2226229,0 79.3886734,24.2226405,0 79.3886321,24.2226624,0 79.3886054,24.2226722,0 79.3885862,24.2226868,0 79.3885485,24.2227312,0 79.388535,24.2227535,0 79.3885198,24.2227768,0 79.3885089,24.222799,0 79.3885058,24.2228265,0 79.388484,24.2228737,0 79.3884702,24.2229198,0 79.3884914,24.2229876,0 79.3884856,24.2230048,0 79.3884778,24.223023,0 79.3884669,24.2230663,0 79.3884778,24.2230886,0 79.3884717,24.2231101,0 79.3884727,24.2231608,0 79.3884843,24.2232012,0 79.3884869,24.2232272,0 79.388506,24.2232664,0 79.3885067,24.2233254,0 79.3885036,24.2233976,0 79.3885045,24.2234273,0 79.3885127,24.2234448,0 79.3885096,24.2234985,0 79.3885117,24.2235207,0 79.3885303,24.2235283,0 79.3885745,24.2235492,0 79.3885958,24.2235627,0 79.3886183,24.2235712,0 79.3886339,24.2235732,0 79.3886856,24.2235917,0 79.3887007,24.2236114,0 79.3887643,24.2236509,0 79.3887915,24.2236815,0 79.3888127,24.2236975,0 79.3888354,24.2237096,0 79.3888759,24.2237309,0 79.3889061,24.2237308,0 79.3889384,24.2237286,0 79.3889971,24.2237271,0 79.3890388,24.2237272,0 79.3890654,24.2237254,0 79.3891076,24.2237308,0 79.389154,24.2237439,0 79.3891772,24.2237532,0 79.3891777,24.223802,0 79.389195,24.2239319,0 79.3892045,24.223952,0 79.3892024,24.2240026,0 79.3892217,24.2240426,0 79.3892605,24.2241005,0 79.3892743,24.2241287,0 79.389305,24.2242021,0 79.3893193,24.2242426,0 79.3893436,24.2242877,0 79.3893177,24.2242941,0</coordinates></LinearRing></outerBoundaryIs></Polygon>
  </Placemark>
  
    </Document>
</kml>