<?xml version="1.0" encoding="UTF-8"?>
<kml xmlns="http://www.opengis.net/kml/2.2">
    <Document>
        <Placemark xmlns:ns0="http://www.opengis.net/kml/2.2">
	<Style><LineStyle><color>ff0000ff</color></LineStyle><PolyStyle><fill>0</fill></PolyStyle></Style>
	<ExtendedData><SchemaData schemaUrl="#Wave24_v28MAR2025">
		<SimpleData name="area(ha)">4.675341605461204</SimpleData>
		<SimpleData name="site_id">240140_2.2</SimpleData>
		<SimpleData name="Land_parc">240140</SimpleData>
		<SimpleData name="district">Chhatarpur</SimpleData>
		<SimpleData name="block">Bada Malahara</SimpleData>
		<SimpleData name="village">Sizwaha</SimpleData>
		<SimpleData name="Land Type">Community</SimpleData>
		<SimpleData name="Instance">Wave 2024</SimpleData>
	</SchemaData></ExtendedData>
      <Polygon><outerBoundaryIs><LinearRing><coordinates>79.2594667,24.6215249,0 79.2594367,24.6215132,0 79.2593461,24.6215189,0 79.2592755,24.6215921,0 79.2592156,24.6216511,0 79.2591007,24.6218002,0 79.2590557,24.6219059,0 79.2590153,24.6219607,0 79.2589461,24.6220617,0 79.2588161,24.6222987,0 79.2587634,24.6224118,0 79.2587574,24.6224776,0 79.2586631,24.6227049,0 79.2586118,24.6228273,0 79.258582,24.6229665,0 79.2585447,24.6230514,0 79.2584586,24.6232808,0 79.2584143,24.6234106,0 79.2583724,24.6235467,0 79.2583131,24.6237596,0 79.2582608,24.6239533,0 79.2582576,24.6240852,0 79.2582227,24.6241712,0 79.258112,24.6242541,0 79.2579945,24.6243495,0 79.2579037,24.6245543,0 79.2578825,24.6246082,0 79.2578392,24.6247927,0 79.2577812,24.6248906,0 79.2577378830645,24.6249081423852,0 79.2576913397632,24.6250091796265,0 79.2576489,24.6251767,0 79.2576479237854,24.6253229288529,0 79.2577286145938,24.6252635527214,0 79.257816161202,24.625210604501,0 79.25796383069,24.6250789960867,0 79.2581145318529,24.6249791652868,0 79.2582086040448,24.6249564479343,0 79.2583224536837,24.62488475846,0 79.2584503008852,24.6248052953347,0 79.2585622603496,24.6247446937075,0 79.2586390826096,24.6247138406472,0 79.2587125428545,24.6246750129497,0 79.2588618357513,24.6246767415782,0 79.2591499178644,24.6246864253306,0 79.2592930143508,24.6246341192561,0 79.2594096316783,24.6246153714141,0 79.25950392361,24.6244492786816,0 79.259501,24.6243851,0 79.2595118,24.6243314,0 79.2595148,24.6242309,0 79.2595243,24.6241292,0 79.2596039,24.6239385,0 79.2596824,24.6237493,0 79.2597339,24.6236673,0 79.2597985,24.6235922,0 79.2598717,24.6234131,0 79.2599013,24.6233469,0 79.259952,24.6231955,0 79.2599908,24.623116,0 79.2600275,24.6229079,0 79.2600279,24.6228496,0 79.2600338,24.622681,0 79.2600285,24.6225416,0 79.2600062,24.6224697,0 79.259995,24.6224247,0 79.2599609,24.6223516,0 79.2599279,24.6222758,0 79.2598818,24.6221754,0 79.2598502,24.6220831,0 79.2598414,24.621942,0 79.2598226,24.6218337,0 79.2598097,24.6217849,0 79.2598138,24.6217529,0 79.2597223,24.6216583,0 79.2596578,24.6215985,0 79.259568,24.6215565,0 79.2594895,24.6215341,0 79.2594667,24.6215249,0</coordinates></LinearRing></outerBoundaryIs></Polygon>
  </Placemark>
  
    </Document>
</kml>