<?xml version="1.0" encoding="UTF-8"?>
<kml xmlns="http://www.opengis.net/kml/2.2">
    <Document>
        <Placemark xmlns:ns0="http://www.opengis.net/kml/2.2">
	<Style><LineStyle><color>ff0000ff</color></LineStyle><PolyStyle><fill>0</fill></PolyStyle></Style>
	<ExtendedData><SchemaData schemaUrl="#Wave24_v28MAR2025">
		<SimpleData name="area(ha)">0.668849287906604</SimpleData>
		<SimpleData name="site_id">240185_1.1</SimpleData>
		<SimpleData name="Land_parc">240185</SimpleData>
		<SimpleData name="district">Chhatarpur</SimpleData>
		<SimpleData name="block">Bijawar</SimpleData>
		<SimpleData name="village">Tikri</SimpleData>
		<SimpleData name="Land Type">Farmer</SimpleData>
		<SimpleData name="Instance">Wave 2024</SimpleData>
	</SchemaData></ExtendedData>
      <Polygon><outerBoundaryIs><LinearRing><coordinates>79.4561260718302,24.5748176509886,0 79.4561626000586,24.5748575329012,0 79.4562150000675,24.5749062328821,0 79.4563612073855,24.5750150323844,0 79.4564055850818,24.5750488124219,0 79.4564671839738,24.5750859042278,0 79.456520172268,24.5751190219116,0 79.4565678617327,24.5751759843278,0 79.4566195253195,24.575228972622,0 79.4566658900769,24.5752687138426,0 79.4567079,24.5752752,0 79.4567571,24.5753185,0 79.4568248549594,24.5753316374419,0 79.4568785056072,24.5753773398456,0 79.456971235122,24.5754641081773,0 79.457016275172,24.5754939140928,0 79.4570758870029,24.5755137847031,0 79.4570772117103,24.5755442529722,0 79.4571103293941,24.5755813447781,0 79.4571474212,24.5755495518016,0 79.4571995,24.575502,0 79.4572546,24.5754709,0 79.4573395037663,24.5754210551883,0 79.4573116176826,24.5753718729548,0 79.4572977754846,24.5753263386125,0 79.4572712813376,24.5752654020742,0 79.457235514239,24.5751925431698,0 79.4572037212625,24.5751753219742,0 79.4571891494816,24.5751090866065,0 79.4571507329684,24.5750494747756,0 79.4571282129433,24.5750110582623,0 79.4571136411625,24.5749646935049,0 79.4570831728933,24.574909055796,0 79.4570513799168,24.5748706392828,0 79.4570368081359,24.574818975696,0 79.4570069670947,24.5747537752926,0 79.4569844821955,24.5747063755709,0 79.4569487150969,24.5746096719341,0 79.4569049997542,24.5745699307135,0 79.4568427385086,24.574583177787,0 79.4567142418953,24.5746096719341,0 79.4566824489188,24.5746441143253,0 79.4566042911849,24.57469180379,0 79.4565354064025,24.5747010767415,0 79.456473,24.5746722,0 79.4563605450318,24.5746123213488,0 79.4562916602494,24.5746533872768,0 79.4562082036861,24.5746666343503,0 79.4561830342464,24.5746904790827,0 79.4561225,24.5747331,0 79.4560757,24.574762,0 79.4560982529758,24.5747805591827,0 79.4561260718302,24.5748176509886,0</coordinates></LinearRing></outerBoundaryIs></Polygon>
  </Placemark>
  
    </Document>
</kml>