<?xml version="1.0" encoding="UTF-8"?>
<kml xmlns="http://www.opengis.net/kml/2.2">
    <Document>
        <Placemark xmlns:ns0="http://www.opengis.net/kml/2.2">
	<Style><LineStyle><color>ff0000ff</color></LineStyle><PolyStyle><fill>0</fill></PolyStyle></Style>
	<ExtendedData><SchemaData schemaUrl="#Wave24_v28MAR2025">
		<SimpleData name="area(ha)">5.872413008253650</SimpleData>
		<SimpleData name="site_id">240138_1.1</SimpleData>
		<SimpleData name="Land_parc">240138</SimpleData>
		<SimpleData name="district">Damoh</SimpleData>
		<SimpleData name="block">Damoh</SimpleData>
		<SimpleData name="village">Ranjra</SimpleData>
		<SimpleData name="Land Type">Community</SimpleData>
		<SimpleData name="Instance">Wave 2024</SimpleData>
	</SchemaData></ExtendedData>
      <Polygon><outerBoundaryIs><LinearRing><coordinates>79.5741668,23.7550058,0 79.5741178,23.7550853,0 79.5742719,23.755389,0 79.5739267,23.7554408,0 79.5738382,23.7554126,0 79.5734773,23.7553592,0 79.5734038,23.755476,0 79.5734105,23.7557822,0 79.5734119,23.7557983,0 79.5734174,23.755823,0 79.5734564,23.7558998,0 79.5734268,23.7560227,0 79.5734036,23.7560824,0 79.5733868,23.7561165,0 79.5733812,23.7561509,0 79.5733733,23.7562178,0 79.573371,23.7562749,0 79.5733641,23.7563388,0 79.5733612,23.7563746,0 79.5733382,23.7564244,0 79.5733218,23.7564888,0 79.5733146,23.7565156,0 79.5732995,23.7565447,0 79.5732909,23.7565934,0 79.573273,23.7566393,0 79.5732556,23.7566649,0 79.5732401,23.7566963,0 79.5732371,23.7567235,0 79.5732446,23.7567818,0 79.5732214,23.7568087,0 79.5732175,23.7568611,0 79.5732354,23.7569083,0 79.5732458,23.7569239,0 79.5732702,23.7569781,0 79.5732889,23.7570259,0 79.5733162,23.7570722,0 79.5733281,23.7570971,0 79.5733643,23.7571331,0 79.5734082,23.7571628,0 79.57346,23.7571915,0 79.5734868,23.7571997,0 79.5735782,23.7573359,0 79.5736064,23.7574171,0 79.573648,23.7574919,0 79.5736785,23.7575547,0 79.5738295,23.7574974,0 79.573915,23.7575212,0 79.574067,23.7575759,0 79.5742168,23.7576499,0 79.5742703,23.7576578,0 79.5745754,23.7575988,0 79.5746241208049,23.7576009407674,0 79.5751377217864,23.7573830494419,0 79.5757863,23.7570321,0 79.5758496,23.756938,0 79.5758923,23.7567815,0 79.5759242,23.7566732,0 79.575946,23.7564878,0 79.5759897,23.7563375,0 79.5759725,23.7563019,0 79.5759396,23.7562974,0 79.5759413,23.7562963,0 79.5759781597562,23.7561564380069,0 79.5759446006011,23.7561656789336,0 79.5758789413847,23.7561841607871,0 79.5757948003148,23.7562259881398,0 79.5757247638174,23.7562712200444,0 79.5757111456095,23.7562352290665,0 79.5757967457731,23.7561836744226,0 79.5758765095619,23.7561491425384,0 79.5759426551429,23.756131633414,0 79.5757545,23.755757,0 79.5757513,23.7556642,0 79.5755179,23.7556054,0 79.5754862,23.7556096,0 79.5754352,23.7556031,0 79.5753974,23.7555676,0 79.5752678,23.7554662,0 79.5752147,23.7553661,0 79.5752365,23.7553248,0 79.5751807650504,23.7552982477305,0 79.5751496377182,23.7552778204187,0 79.5751360195103,23.7552272385038,0 79.5751136467403,23.7551951384425,0 79.5750922466994,23.7551630383811,0 79.5750562557215,23.7551367746946,0 79.5750319374932,23.7550939746128,0 79.5749967,23.7551221,0 79.5749665,23.7551289,0 79.5749149,23.7551488,0 79.5748689,23.7551802,0 79.5748468,23.7551652,0 79.574815,23.7551241,0 79.5747436,23.7550766,0 79.5747199,23.7550617,0 79.5746695,23.7550255,0 79.5745975,23.7549762,0 79.5745815,23.7549546,0 79.5745342,23.7548258,0 79.5743921,23.7548037,0 79.5743026,23.7547917,0 79.5742317,23.7547694,0 79.5741559,23.7547541,0 79.5741503,23.75471,0 79.5741333,23.7547339,0 79.5741281,23.7547623,0 79.5741803,23.7548088,0 79.5741375,23.7548244,0 79.5742481,23.7549196,0 79.5742861,23.7549532,0 79.5742108,23.7549313,0 79.5742063,23.754988,0 79.5741668,23.7550058,0</coordinates></LinearRing></outerBoundaryIs><innerBoundaryIs><LinearRing><coordinates>79.5747700943632,23.756408912318,0 79.5744952649932,23.7564241154107,0 79.5744846946329,23.7562499707876,0 79.5747987853414,23.7562015972399,0 79.5747700943632,23.756408912318,0</coordinates></LinearRing></innerBoundaryIs><innerBoundaryIs><LinearRing><coordinates>79.5745511368981,23.7567489083314,0 79.5745239559714,23.7565415937947,0 79.5748833482244,23.756450375294,0 79.5750011322401,23.7565581789698,0 79.5749105291511,23.7567295589886,0 79.5746810013256,23.7567489083314,0 79.5745511368981,23.7567489083314,0</coordinates></LinearRing></innerBoundaryIs></Polygon>
  </Placemark>
  
    </Document>
</kml>