<?xml version="1.0" encoding="UTF-8"?>
<kml xmlns="http://www.opengis.net/kml/2.2">
    <Document>
        <Placemark xmlns:ns0="http://www.opengis.net/kml/2.2">
	<Style><LineStyle><color>ff0000ff</color></LineStyle><PolyStyle><fill>0</fill></PolyStyle></Style>
	<ExtendedData><SchemaData schemaUrl="#Wave24_v28MAR2025">
		<SimpleData name="area(ha)">8.553929627794920</SimpleData>
		<SimpleData name="site_id">240179_1.2</SimpleData>
		<SimpleData name="Land_parc">240179</SimpleData>
		<SimpleData name="district">Damoh</SimpleData>
		<SimpleData name="block">Batyagarh</SimpleData>
		<SimpleData name="village">Sadpur</SimpleData>
		<SimpleData name="Land Type">Community</SimpleData>
		<SimpleData name="Instance">Wave 2024</SimpleData>
	</SchemaData></ExtendedData>
      <Polygon><outerBoundaryIs><LinearRing><coordinates>79.3912217,24.2287532,0 79.3911695,24.2287062,0 79.3911314,24.228679,0 79.3910891,24.2286511,0 79.3910524,24.2285837,0 79.390989,24.2285293,0 79.3909313,24.2284761,0 79.3909173,24.2284501,0 79.3909065,24.2283838,0 79.3908854,24.2283371,0 79.3908676,24.2282966,0 79.3908407,24.2282586,0 79.3908146,24.2282211,0 79.3907976,24.2282013,0 79.3907591,24.2281607,0 79.3906929,24.2280831,0 79.3906729,24.2280692,0 79.3906525,24.2280367,0 79.3905994,24.2279813,0 79.39056,24.2279424,0 79.3905154,24.2278977,0 79.3904626,24.2278212,0 79.3904315,24.2277601,0 79.3903703,24.2276894,0 79.3903446,24.2276668,0 79.3903124,24.2276243,0 79.3902762,24.2275808,0 79.390263,24.2275579,0 79.3902498,24.2275317,0 79.39024,24.2275079,0 79.390232,24.2274777,0 79.3902076,24.2274225,0 79.3901957,24.2274004,0 79.3901822,24.2273748,0 79.39015,24.2273194,0 79.3901386,24.2272933,0 79.3901321,24.2272713,0 79.3901139,24.2271893,0 79.3901058,24.2271642,0 79.3900881,24.2271378,0 79.3900321,24.2270629,0 79.3900119,24.2270185,0 79.3899962,24.226989,0 79.3899886,24.2269409,0 79.3899895,24.2269177,0 79.3899797,24.2268937,0 79.3899778,24.2268698,0 79.3899643,24.2268409,0 79.3899394,24.2267878,0 79.3899237,24.2267634,0 79.3899168,24.2267402,0 79.3899005,24.2267171,0 79.3898837,24.2266753,0 79.3898788,24.2266528,0 79.389868,24.2266073,0 79.3898663,24.226585,0 79.3898607,24.2265638,0 79.3898584,24.2265408,0 79.3898557,24.2265169,0 79.3898519,24.2264474,0 79.3898468,24.2264232,0 79.3898411,24.2263693,0 79.3898224,24.2263197,0 79.3897999,24.2262966,0 79.3897464,24.2262905,0 79.3897225,24.2262982,0 79.3896543,24.2263156,0 79.3896096,24.226333,0 79.3895801,24.226336,0 79.389543,24.2263481,0 79.3894554,24.2263677,0 79.3894016,24.2263857,0 79.3893495,24.2263965,0 79.389314,24.2264098,0 79.3892648,24.2264373,0 79.3892122,24.2264473,0 79.3891785,24.2264503,0 79.3891291,24.2264602,0 79.3890762,24.2264737,0 79.3890217,24.2264844,0 79.3889991,24.2264933,0 79.3889445,24.226511,0 79.3889197,24.2265104,0 79.3888593,24.2265057,0 79.388836,24.2264911,0 79.3888079,24.2265001,0 79.388769,24.2264974,0 79.3887494,24.226505,0 79.3886742,24.2265143,0 79.3886444,24.226521,0 79.388554,24.2265399,0 79.3885209,24.2265496,0 79.3884658,24.2265722,0 79.3884578,24.2265743,0 79.3884502,24.2265757,0 79.3884603,24.226642,0 79.3884654,24.2266603,0 79.3884794,24.2266918,0 79.3884896,24.2267288,0 79.3884943,24.2267727,0 79.3884969,24.2267916,0 79.3884995,24.2268123,0 79.3885067,24.2268351,0 79.3885281,24.2268664,0 79.3885336,24.2268823,0 79.3885328,24.2269397,0 79.3885296,24.2269607,0 79.3885335,24.2269881,0 79.3885258,24.2270531,0 79.3885281,24.2270717,0 79.3885361,24.2271067,0 79.3885383,24.2271246,0 79.3885514,24.2271576,0 79.3885701,24.2271853,0 79.3885878,24.2272206,0 79.388585,24.2272411,0 79.3885892,24.2272645,0 79.3886,24.2273145,0 79.3885928,24.22734,0 79.3885771,24.227359,0 79.3885825,24.2274317,0 79.3885827,24.227454,0 79.3885648,24.2274911,0 79.3885547,24.2275167,0 79.3885476,24.2275195,0 79.3885289,24.2275302,0 79.3885338,24.2275311,0 79.3885733,24.2276148,0 79.3885412,24.2276058,0 79.3884486,24.2276283,0 79.3884256,24.2276365,0 79.3883584,24.2276539,0 79.3883063,24.2276394,0 79.388257,24.2276045,0 79.3882351,24.2275876,0 79.3882026,24.2276207,0 79.3882003,24.2276444,0 79.3881847,24.2276765,0 79.3881509,24.2277294,0 79.3881262,24.2277425,0 79.388108,24.2277667,0 79.3880568,24.2277953,0 79.388006,24.2278383,0 79.3879905,24.2278618,0 79.3880081,24.2278838,0 79.3880333,24.2279044,0 79.3880433,24.227924,0 79.3880538,24.2279834,0 79.3880554,24.2280433,0 79.3880556,24.2280705,0 79.3880627,24.2280942,0 79.3880701,24.2281281,0 79.3880618,24.2281523,0 79.3880548,24.2282089,0 79.3880402,24.2282374,0 79.3880178,24.2282576,0 79.3879762,24.2282904,0 79.3879659,24.22831,0 79.3879456,24.22835,0 79.3879058,24.2283854,0 79.3878699,24.2284179,0 79.3878299,24.2284652,0 79.3878106,24.2284751,0 79.3877669,24.2284975,0 79.3877228,24.2285396,0 79.3877067,24.2285614,0 79.3876963,24.2286175,0 79.3876778,24.2286827,0 79.3876828,24.2287352,0 79.3877271,24.228769,0 79.3877798,24.22879,0 79.3878023,24.2288104,0 79.3878226,24.2288312,0 79.3878418,24.2288528,0 79.3878656,24.2288756,0 79.3878855,24.2289037,0 79.3879139,24.2289231,0 79.3879782,24.228951,0 79.3880063,24.228963,0 79.3880399,24.2290086,0 79.3880806,24.2290522,0 79.3880958,24.2290837,0 79.3881121,24.229121,0 79.3881061,24.229171,0 79.3880684,24.2292257,0 79.3880554,24.2292775,0 79.3880679,24.2293068,0 79.3880852,24.2293537,0 79.3880867,24.2293753,0 79.3881167,24.2294402,0 79.3881261,24.2294811,0 79.3881121,24.2295019,0 79.3880891,24.2295447,0 79.388075,24.2295605,0 79.3880463,24.229628,0 79.3880423,24.229649,0 79.388043,24.2296726,0 79.3880459,24.2297147,0 79.3880734,24.2297429,0 79.3881157,24.2297571,0 79.3882341,24.2297566,0 79.3882833,24.2297331,0 79.3883383,24.2297216,0 79.3884022,24.2297134,0 79.388451,24.2297237,0 79.3884983,24.2297256,0 79.3885215,24.2297119,0 79.3885587,24.2297119,0 79.388577,24.2297106,0 79.3886208,24.2296991,0 79.3886293,24.2296971,0 79.3886687,24.2296888,0 79.3887044,24.2296701,0 79.3887517,24.2296559,0 79.3887939,24.2296502,0 79.3888166,24.2296514,0 79.3888363,24.2296685,0 79.388862,24.2296658,0 79.3889025,24.2296913,0 79.3889122,24.229707,0 79.3889061,24.2297169,0 79.3889584,24.2297174,0 79.3889699,24.2296982,0 79.3889753,24.2296647,0 79.3889746,24.2296586,0 79.3889696,24.2296492,0 79.3889597,24.2296153,0 79.3889535,24.2295996,0 79.3890558,24.2296467,0 79.3891401,24.2295379,0 79.3891816,24.2294878,0 79.3892061,24.2294634,0 79.3892565,24.2294248,0 79.3892682,24.2294018,0 79.3893062,24.2293629,0 79.3893361,24.2293332,0 79.3893587,24.2293396,0 79.3893837,24.229322,0 79.3894061,24.2293084,0 79.389404,24.229304,0 79.3894335,24.2292897,0 79.3894956,24.2292838,0 79.3895586,24.2292731,0 79.3896237,24.2292638,0 79.3897193,24.2292419,0 79.3897525,24.2292367,0 79.3898128,24.2292324,0 79.3898608,24.2292149,0 79.3899085,24.2292002,0 79.3899344,24.2291957,0 79.3900088,24.2291711,0 79.3900703,24.2291663,0 79.3900956,24.2291677,0 79.3901529,24.2291653,0 79.3901874,24.2291633,0 79.3902469,24.2291682,0 79.3902726,24.2291751,0 79.3902991,24.2291873,0 79.3903291,24.2291891,0 79.3903532,24.2292017,0 79.3904068,24.2292211,0 79.3904322,24.229222,0 79.3904816,24.2292287,0 79.3904955,24.2292411,0 79.3905253,24.2292404,0 79.3905595,24.2292424,0 79.3905724,24.2292396,0 79.3905928,24.229234,0 79.3906207,24.2292224,0 79.3906329,24.2291945,0 79.3906271,24.2291253,0 79.3906466,24.2291152,0 79.3906483,24.2291184,0 79.3906515,24.2291175,0 79.3906768,24.2291262,0 79.3906943,24.2291692,0 79.3907423,24.2292097,0 79.3907895,24.2292215,0 79.3908061,24.2292358,0 79.3908136,24.229245,0 79.3908243,24.2292465,0 79.3909122,24.229289,0 79.3909384,24.2293065,0 79.3909805,24.2293238,0 79.3909915,24.2293407,0 79.3910017,24.2293833,0 79.3910335,24.2294274,0 79.3910469,24.229452,0 79.3910559,24.2294772,0 79.3910748,24.2295047,0 79.3911403,24.229567,0 79.3911719,24.229611,0 79.3911884,24.2296344,0 79.3912052,24.2296619,0 79.3912213,24.2297051,0 79.3912302,24.2297309,0 79.3912615,24.2297911,0 79.3912681,24.2298125,0 79.3912701,24.2299127,0 79.3912767,24.2299306,0 79.3912859,24.229942,0 79.391322,24.2300317,0 79.3913332,24.2300708,0 79.3914036,24.2300438,0 79.3914298,24.2300459,0 79.3914842,24.2300515,0 79.3915139,24.2300559,0 79.3915702,24.2300318,0 79.3915917,24.2300204,0 79.3916414,24.22999,0 79.3916687,24.2299397,0 79.3916583,24.2299088,0 79.3916543,24.2298829,0 79.3916351,24.2298528,0 79.3916476,24.2297942,0 79.3916767,24.2297821,0 79.3917257,24.2297588,0 79.391774,24.2297822,0 79.3918383,24.2297551,0 79.391899,24.2297287,0 79.391917,24.2297128,0 79.3919391,24.2296922,0 79.3919324,24.2296696,0 79.3919029,24.2296316,0 79.3918765,24.2296125,0 79.3918532,24.2295955,0 79.3918367,24.2295691,0 79.3918402,24.2295505,0 79.3918198,24.2295199,0 79.3917761,24.2294674,0 79.3917552,24.2294387,0 79.3917309,24.2294105,0 79.3917083,24.2293717,0 79.3917008,24.2293475,0 79.3916829,24.2293219,0 79.3916676,24.2293046,0 79.3916283,24.2292501,0 79.3915924,24.2292087,0 79.3915514,24.2291744,0 79.3915143,24.2291402,0 79.3914975,24.2290904,0 79.3914688,24.2290408,0 79.3914427,24.2290146,0 79.3914069,24.2289798,0 79.3913792,24.2289599,0 79.3913503,24.2289375,0 79.3913307,24.2288856,0 79.3912967,24.2288431,0 79.3912618,24.2287901,0 79.3912272,24.2287498,0 79.391227,24.2287492,0 79.391227,24.2287495,0 79.3912261,24.2287476,0 79.3912217,24.2287532,0</coordinates></LinearRing></outerBoundaryIs></Polygon>
  </Placemark>
  
    </Document>
</kml>