<?xml version="1.0" encoding="UTF-8"?>
<kml xmlns="http://www.opengis.net/kml/2.2">
    <Document>
        <Placemark xmlns:ns0="http://www.opengis.net/kml/2.2">
	<Style><LineStyle><color>ff0000ff</color></LineStyle><PolyStyle><fill>0</fill></PolyStyle></Style>
	<ExtendedData><SchemaData schemaUrl="#Wave24_v28MAR2025">
		<SimpleData name="area(ha)">1.175767732962879</SimpleData>
		<SimpleData name="site_id">240157_1.1</SimpleData>
		<SimpleData name="Land_parc">240157</SimpleData>
		<SimpleData name="district">Chhatarpur</SimpleData>
		<SimpleData name="block">Bijawar</SimpleData>
		<SimpleData name="village">Gulat</SimpleData>
		<SimpleData name="Land Type">Farmer</SimpleData>
		<SimpleData name="Instance">Wave 2024</SimpleData>
	</SchemaData></ExtendedData>
      <Polygon><outerBoundaryIs><LinearRing><coordinates>79.4742088948626,24.5699979253632,0 79.4742353338634,24.5700372691145,0 79.4742963953655,24.5701540413684,0 79.474310244366,24.5702346173711,0 79.4743983743689,24.5702585383719,0 79.4745393823736,24.5701993653699,0 79.4745230153731,24.5701553003684,0 79.4746139,24.5701475,0 79.4747147,24.5702329,0 79.4748012543824,24.5702132143704,0 79.4749435213872,24.5702711283723,0 79.47502787439,24.5702446893714,0 79.4750820113918,24.5702182503706,0 79.4750203203898,24.5700973863665,0 79.4750442413906,24.5700319183643,0 79.4750505363908,24.5699173493605,0 79.4750946013923,24.5697008013532,0 79.4751109683928,24.5695799373492,0 79.4750467593907,24.5695383903478,0 79.4749762553883,24.5694200443438,0 79.4749019743858,24.569334432341,0 79.4747999953824,24.5692601513385,0 79.4746866853786,24.5691304743341,0 79.4746718921281,24.5690807438325,0 79.474609886376,24.5690637473319,0 79.4745453626239,24.5690609145818,0 79.4744937436221,24.5690539900816,0 79.4744477901206,24.569038252581,0 79.4743760271182,24.5690388820811,0 79.4743218901164,24.5690432885812,0 79.4742652351145,24.569065950582,0 79.474221170113,24.5690527310815,0 79.474160738111,24.5689985940797,0 79.4741330401101,24.5689343850776,0 79.4740993618589,24.568916129577,0 79.4740700901079,24.5689384768277,0 79.4740282283565,24.5689882073294,0 79.4739753503548,24.5690713013321,0 79.4739199543529,24.569187129336,0 79.4738847023517,24.5692576333384,0 79.4740181563562,24.5694666273454,0 79.4741289483599,24.5697008013532,0 79.4741717543613,24.5698065573567,0 79.4741981933622,24.5698846153594,0 79.4742107833627,24.5699488243615,0 79.4742088948626,24.5699979253632,0</coordinates></LinearRing></outerBoundaryIs><innerBoundaryIs><LinearRing><coordinates>79.4743643813678,24.5701320088677,0 79.474341089867,24.5701231958674,0 79.4743316473667,24.5701143828671,0 79.4743310178667,24.5700898323662,0 79.4743354243668,24.570081648866,0 79.4743612338677,24.5700778718658,0 79.4743883023686,24.5700753538658,0 79.4743914498687,24.5701206778673,0 79.4743958563689,24.5701320088677,0 79.4743643813678,24.5701320088677,0</coordinates></LinearRing></innerBoundaryIs></Polygon>
  </Placemark>
  
    </Document>
</kml>