<?xml version="1.0" encoding="UTF-8"?>
<kml xmlns="http://www.opengis.net/kml/2.2">
    <Document>
        <Placemark xmlns:ns0="http://www.opengis.net/kml/2.2">
	<Style><LineStyle><color>ff0000ff</color></LineStyle><PolyStyle><fill>0</fill></PolyStyle></Style>
	<ExtendedData><SchemaData schemaUrl="#Wave24_v28MAR2025">
		<SimpleData name="area(ha)">28.072067912370223</SimpleData>
		<SimpleData name="site_id">240109_1.2</SimpleData>
		<SimpleData name="Land_parc">240109</SimpleData>
		<SimpleData name="district">Damoh</SimpleData>
		<SimpleData name="block">Pathariya</SimpleData>
		<SimpleData name="village">Kalyanpura</SimpleData>
		<SimpleData name="Land Type">Community</SimpleData>
		<SimpleData name="Instance">Wave 2024</SimpleData>
	</SchemaData></ExtendedData>
      <Polygon><outerBoundaryIs><LinearRing><coordinates>79.4180264946037,24.0001539476733,0 79.4173114243986,24.0002163361542,0 79.4173123190929,24.0002646496795,0 79.4170549798645,24.0002939668068,0 79.4167422638402,24.0003591159785,0 79.4164100030643,24.000450324819,0 79.4162080406318,24.0005627071402,0 79.4158171456014,24.0006734607322,0 79.4157715411811,23.9998004618308,0 79.4157715411811,23.9995007756408,0 79.4156607875892,23.9992206342023,0 79.4158757798559,23.9991880596164,0 79.415953958862,23.9989079181779,0 79.4160907721227,23.9987841347516,0 79.4161722085874,23.9987026982869,0 79.4161950107975,23.9985267955232,0 79.4162731898035,23.9983517071241,0 79.4161575500237,23.9983093601625,0 79.4161819809631,23.9982718993887,0 79.4163236804117,23.9982556120958,0 79.4164116317938,23.9982140794989,0 79.4164250405692,23.9982006707284,0 79.4163766141137,23.9981692894432,0 79.4163057643894,23.998123685023,0 79.4162617886985,23.9980911104371,0 79.4162357290298,23.9980862242493,0 79.4161933820682,23.998040619829,0 79.416064712454,23.997879375629,0 79.4160044494701,23.9977751369542,0 79.4159669886964,23.9977099877824,0 79.4159441864862,23.9976790419258,0 79.4159246417347,23.9976562397157,0 79.4159083544418,23.9975992341905,0 79.4158888096903,23.9975682883339,0 79.415871,23.9975207,0 79.4158755,23.9974764,0 79.4158795,23.997426,0 79.4158623,23.9973701,0 79.4158273,23.9973232,0 79.4158011,23.9972797,0 79.4157642,23.9972413,0 79.4157274,23.9972137,0 79.4156891,23.9971762,0 79.4156599,23.997126,0 79.4156508,23.9970517,0 79.4156412,23.9970014,0 79.4156243,23.9969292,0 79.4156305,23.9968817,0 79.4156127,23.9967881,0 79.4155925,23.996722,0 79.4155929673202,23.9966662514528,0 79.4155618,23.9967424,0 79.4154837,23.9968387,0 79.4153693,23.9969521,0 79.4152419,23.9970619,0 79.4151157,23.9971782,0 79.4149944,23.9972786,0 79.4148852,23.9973632,0 79.4147454417261,23.9974705645763,0 79.4146701,23.997186,0 79.4145351,23.9970811,0 79.4144731,23.997125,0 79.4145089,23.9974298,0 79.4145569,23.9976977,0 79.4145554,23.9977819,0 79.4145662815038,23.9978810043582,0 79.4143740914472,23.9979038065683,0 79.4142991698997,23.99794615353,0 79.4143024273583,23.9981057690007,0 79.4143024273583,23.9982523546372,0 79.4143350019441,23.9984347723181,0 79.4143284870269,23.9986139325404,0 79.4142893975239,23.9987833203869,0 79.414217733435,23.9990211148638,0 79.4141688715562,23.9991937601689,0 79.4140596,23.9993409,0 79.4139211,23.9994527,0 79.4139195,23.9994681,0 79.4139176,23.9994836,0 79.413913,23.9994971,0 79.4138845,23.9995936,0 79.413908,23.9996592,0 79.4138998,23.9996923,0 79.4138778,23.9997267,0 79.413856,23.9997404,0 79.4138446,23.9997961,0 79.4137426,23.9998132,0 79.4137044,23.9998509,0 79.4136563,23.9998528,0 79.4136356,23.9998606,0 79.4136068,23.9998591,0 79.4135368,23.9998692,0 79.4135257,23.9998877,0 79.4135079,23.9999129,0 79.4134996,23.9999986,0 79.4134715,24.0000437,0 79.4133858,24.0000531,0 79.4133336,24.0000721,0 79.413322,24.0001189,0 79.4133397,24.0001396,0 79.4133877,24.0001532,0 79.4134529,24.0001982,0 79.4134416,24.0002759,0 79.4134399,24.0002946,0 79.4134357,24.0003554,0 79.4134403,24.0003359,0 79.4134874,24.0003064,0 79.4135149,24.0002998,0 79.413564,24.0003112,0 79.4135854,24.0003184,0 79.4136368,24.0003282,0 79.4136962,24.0003808,0 79.4137355,24.0005059,0 79.4137099,24.0005069,0 79.4136267,24.0005518,0 79.4135381,24.0005777,0 79.4134679,24.0006232,0 79.4134173,24.0006603,0 79.4133754,24.0007297,0 79.4132745,24.0008302,0 79.4132688,24.0008845,0 79.4132225798365,24.0009365005131,0 79.4131786041456,24.0009495303474,0 79.4131264848082,24.0009641889111,0 79.4130711080122,24.0009967634969,0 79.4130385334264,24.0010456253757,0 79.4129636118789,24.0010733137737,0 79.4129326660223,24.0011107745475,0 79.4128740317677,24.0011694088021,0 79.4128153975131,24.0012182706809,0 79.4127828229273,24.0012622463718,0 79.4127421046949,24.0013306530021,0 79.4127176737555,24.0013860297981,0 79.4126818417111,24.0014935259315,0 79.4126785842525,24.0015700762083,0 79.4126394947494,24.0016319679214,0 79.4126004052464,24.0017427215134,0 79.4125189687817,24.0018078706852,0 79.4124668494443,24.001801355768,0 79.412382155521,24.0018697623983,0 79.4122844317634,24.001951198863,0 79.4121944,24.0020845,0 79.4121958,24.002063,0 79.412163,24.0020695,0 79.4121114,24.0020969,0 79.4120744,24.0021033,0 79.4119871,24.0021123,0 79.4118781,24.0021542,0 79.411795,24.0022116,0 79.4117792,24.0022271,0 79.4117264,24.0022464,0 79.4117160052399,24.002209352456,0 79.4116638859025,24.0022012088096,0 79.4116378262338,24.0021946938924,0 79.4115938505429,24.0021800353288,0 79.4114765820337,24.0021751491409,0 79.4113935168398,24.0022451845005,0 79.4114049179448,24.0023135911308,0 79.4113137091044,24.0023559380925,0 79.4112746196013,24.0024642485905,0 79.4113951455691,24.0025245115743,0 79.4114032892155,24.0025912894754,0 79.4113479124196,24.002677612128,0 79.4113348825852,24.0027395038411,0 79.4113251102094,24.0028079104714,0 79.4113153378337,24.0028649159967,0 79.4112713621428,24.0029382088149,0 79.4113365113145,24.0030196452796,0 79.4114521510944,24.003044076219,0 79.4115622,24.0030448,0 79.4116363,24.0030706,0 79.4116811,24.0031633,0 79.4116871,24.0031802,0 79.4116728,24.0032559,0 79.4116783,24.0033784,0 79.4116345,24.0034231,0 79.4116276,24.0034505,0 79.4116371,24.003497,0 79.4116837,24.0035611,0 79.4118147,24.0036022,0 79.4119032,24.0035989,0 79.4119542,24.0036125,0 79.411994,24.0036412,0 79.4120174,24.0036959,0 79.4120119,24.003778,0 79.4120159,24.0038007,0 79.4119982,24.0038522,0 79.4119862,24.0038744,0 79.4119599,24.0039175,0 79.4119314,24.0039644,0 79.4118755,24.0040349,0 79.4118484,24.0040805,0 79.4118082,24.0041171,0 79.4117868,24.0041407,0 79.4117324,24.0041832,0 79.4117139,24.0042054,0 79.4117005,24.0042236,0 79.4116834,24.0042505,0 79.4116714,24.0042779,0 79.4116617,24.004306,0 79.4116676,24.0043466,0 79.4116645,24.0043725,0 79.4116379,24.0044323,0 79.4116193,24.004453,0 79.4115979,24.004476,0 79.411569,24.0044855,0 79.4115468,24.0045064,0 79.4115388,24.004527,0 79.4115331,24.0045604,0 79.4115314,24.0045846,0 79.4115636,24.0046227,0 79.4115901,24.0046256,0 79.4116575,24.0046228,0 79.4116807,24.0046137,0 79.4117366,24.0045873,0 79.4117582,24.0045794,0 79.4118046,24.0045483,0 79.4118786,24.004491,0 79.4118892,24.0044742,0 79.4119397,24.0043952,0 79.412032,24.004283,0 79.4120577,24.0042441,0 79.4120741,24.0042205,0 79.4121081,24.0041753,0 79.4121264,24.0041513,0 79.4121572,24.0041059,0 79.4121715,24.00408,0 79.4121929,24.0040279,0 79.4121978,24.0040058,0 79.4122048,24.0039813,0 79.4122125,24.0039268,0 79.4122478,24.0038756,0 79.4122671,24.0038579,0 79.4122841,24.003829,0 79.4123129,24.0038132,0 79.4124161,24.0037507,0 79.4124841,24.003683,0 79.4125262,24.0036445,0 79.412685,24.0037061,0 79.4127604,24.0037646,0 79.4127599,24.0037648,0 79.4127651,24.003787,0 79.4126948,24.0038683,0 79.4126559,24.0039131,0 79.4126506,24.0039326,0 79.412587,24.0040054,0 79.412593,24.0040595,0 79.4126078,24.0041127,0 79.412594,24.0041643,0 79.4125814,24.0041944,0 79.4125835,24.0042474,0 79.4125649,24.0042899,0 79.4125803,24.0042819,0 79.4125547,24.0043747,0 79.4125635,24.0043854,0 79.4125859,24.0044079,0 79.412621,24.0044313,0 79.4126312,24.0044553,0 79.4126454,24.0045071,0 79.4126398,24.0045356,0 79.4126412,24.0046386,0 79.4126809,24.0046966,0 79.4127297,24.0047666,0 79.4127222,24.0048024,0 79.4127157,24.0048385,0 79.4127395,24.0048905,0 79.4127537,24.0049207,0 79.412739,24.0049575,0 79.4127622,24.0050389,0 79.4127663,24.0050646,0 79.4127769,24.0050923,0 79.4127985,24.0051463,0 79.4128446,24.0052139,0 79.4128942,24.0052665,0 79.4129338,24.0053584,0 79.41295,24.005383,0 79.412976,24.0054315,0 79.4130274,24.0054662,0 79.4131353,24.0054964,0 79.4132742,24.0054782,0 79.4133162,24.0054467,0 79.4134062,24.0054371,0 79.4135753,24.0054386,0 79.4136165,24.005448,0 79.4136915,24.0054402,0 79.4137696,24.0054359,0 79.4139095,24.005413,0 79.4139467,24.0054016,0 79.4139677,24.0053629,0 79.4139563,24.0053713,0 79.4139941,24.0053357,0 79.4140623,24.0052991,0 79.4141841,24.0052985,0 79.4143138,24.005289,0 79.4144216,24.0052477,0 79.4144585,24.0052321,0 79.4146677,24.0051018,0 79.4146806,24.0051028,0 79.4147157,24.0050847,0 79.4147405,24.0050639,0 79.4147973,24.0050211,0 79.4148182,24.0049998,0 79.414849,24.0049554,0 79.4148989,24.0049167,0 79.414925,24.0049017,0 79.4149791,24.004838,0 79.4150229,24.0048019,0 79.415038,24.0048243,0 79.4150641,24.004828,0 79.4151327,24.0047999,0 79.4151854,24.0047626,0 79.4152092,24.0047482,0 79.4153663,24.0045865,0 79.4153998,24.0045568,0 79.4153957,24.0044585,0 79.4154036,24.0044066,0 79.4153953,24.004312,0 79.4153898,24.0042651,0 79.4153621,24.0042037,0 79.4154802,24.0041803,0 79.4154794,24.0040921,0 79.415443,24.0040479,0 79.4154298,24.004009,0 79.41541,24.0039532,0 79.4153468,24.0038287,0 79.4153646,24.0037853,0 79.4154089,24.0037136,0 79.4154227,24.0036912,0 79.4155974,24.0037058,0 79.4155135,24.0036639,0 79.4155216,24.003662,0 79.4155381,24.0036478,0 79.4155665,24.0036293,0 79.4155527,24.0036053,0 79.4155856,24.0035267,0 79.4156153,24.0034638,0 79.4156546,24.0034123,0 79.415682,24.0033852,0 79.4157031,24.0033534,0 79.415742,24.00329,0 79.4157895,24.0032459,0 79.4158247,24.003162,0 79.4159151,24.003046,0 79.4159301,24.0030211,0 79.4159671,24.002968,0 79.4159859,24.0029427,0 79.4160151,24.0028726,0 79.4161065,24.0027467,0 79.4161369,24.0026611,0 79.4161370543624,24.0026608993288,0 79.416139,24.0026606,0 79.4161814,24.0026345,0 79.4161822,24.0026325,0 79.4162522,24.0025067,0 79.4163376,24.0023795,0 79.4165511,24.0021988,0 79.4165924207454,24.002158861848,0 79.4166282527899,24.0021148861571,0 79.4167031743374,24.0020578806318,0 79.4167569224041,24.0019748154378,0 79.4168132,24.0018467,0 79.4169892,24.001595,0 79.4170216,24.0015046,0 79.417051,24.0014484,0 79.4170654,24.0014053,0 79.417067,24.0013967,0 79.4171154,24.0013334,0 79.4171374,24.0012885,0 79.4171541,24.0012677,0 79.4171676,24.0012462,0 79.4171719,24.0012217,0 79.4172312,24.001159,0 79.4172429,24.0011603,0 79.4172887,24.0011143,0 79.417308,24.0011068,0 79.4173871,24.0010211,0 79.4173937,24.0010035,0 79.4174499,24.000903,0 79.417467,24.0008824,0 79.4174647,24.0008512,0 79.4174776,24.0008243,0 79.4175056,24.0007865,0 79.417669,24.0007033,0 79.4177487,24.0005964,0 79.4178214,24.0005036,0 79.4179548,24.0003539,0 79.4180262,24.0002464,0 79.4180368,24.0002136,0 79.4180343,24.0001837,0 79.4180264946037,24.0001539476733,0</coordinates></LinearRing></outerBoundaryIs><innerBoundaryIs><LinearRing><coordinates>79.4157422240538,23.9975552584995,0 79.4157226793023,23.9975813181682,0 79.4156803323407,23.997591090544,0 79.4156640450477,23.997574803251,0 79.4156575301305,23.9975585159581,0 79.4156607875891,23.997535713748,0 79.4156770748821,23.9975096540793,0 79.415693362175,23.9974998817035,0 79.4157194218437,23.9975063966207,0 79.4157194218437,23.9975063966207,0 79.4157324516781,23.9975063966207,0 79.4157422240538,23.9975552584995,0</coordinates></LinearRing></innerBoundaryIs></Polygon>
  </Placemark>
  
    </Document>
</kml>