<?xml version="1.0" encoding="UTF-8"?>
<kml xmlns="http://www.opengis.net/kml/2.2">
    <Document>
        <Placemark xmlns:ns0="http://www.opengis.net/kml/2.2">
	<Style><LineStyle><color>ff0000ff</color></LineStyle><PolyStyle><fill>0</fill></PolyStyle></Style>
	<ExtendedData><SchemaData schemaUrl="#Wave24_v28MAR2025">
		<SimpleData name="area(ha)">5.649790148964054</SimpleData>
		<SimpleData name="site_id">240115_2.4</SimpleData>
		<SimpleData name="Land_parc">240115</SimpleData>
		<SimpleData name="district">Damoh</SimpleData>
		<SimpleData name="block">Batyagarh</SimpleData>
		<SimpleData name="village">Singhpur (Sakri, Neemkheda, Kh</SimpleData>
		<SimpleData name="Land Type">Community</SimpleData>
		<SimpleData name="Instance">Wave 2024</SimpleData>
	</SchemaData></ExtendedData>
      <Polygon><outerBoundaryIs><LinearRing><coordinates>79.4066541381758,24.1932429110461,0 79.4067887756391,24.1932252313792,0 79.4068907737174,24.1932007518404,0 79.4069587724363,24.1931898720454,0 79.4070039,24.1931919,0 79.407327,24.1931888,0 79.4074276,24.1931778,0 79.4074603,24.1931631,0 79.4075192,24.1931551,0 79.4077965166525,24.19313071316,0 79.4077965166525,24.1929185571571,0 79.40780195655,24.1928559983358,0 79.4077883568063,24.1927499203344,0 79.4077883568063,24.1926302425892,0 79.407812836345,24.1924398461764,0 79.4078046764988,24.1923800073038,0 79.4078046764988,24.1923228883799,0 79.407812836345,24.1922603295586,0 79.4078101163963,24.1921161722746,0 79.4078264360889,24.1918876965792,0 79.4078400358327,24.1917761786803,0 79.4078617954227,24.1915966620625,0 79.4078645153714,24.1915422630874,0 79.4078509156277,24.1915014638561,0 79.4078563555252,24.1914314251757,0 79.4078645153714,24.1913953858547,0 79.4078658753458,24.1913321470462,0 79.4078733552049,24.19121994916,0 79.407877435128,24.1911709900825,0 79.40787,24.1909763,0 79.4079511,24.19083,0 79.4079864,24.1908172,0 79.408,24.1906376,0 79.4079674,24.1904495,0 79.4079426,24.1903159,0 79.4078995,24.1901661,0 79.4079069,24.1899883,0 79.4079269,24.189809,0 79.4079663,24.1895907,0 79.4079073,24.1895239,0 79.4078092,24.1894568,0 79.4077958,24.1894353,0 79.4076684,24.18935,0 79.4075591,24.1892887,0 79.4074741,24.1892188,0 79.4073717,24.1892347,0 79.4073185,24.189256,0 79.4072822,24.1892613,0 79.4071024,24.1891632,0 79.4070912,24.1891895,0 79.4070826,24.1893078,0 79.4070655,24.1894355,0 79.4070371,24.1894703,0 79.4070285,24.1895194,0 79.4070328,24.1895567,0 79.4070537,24.189739,0 79.4070635,24.1897636,0 79.4070545,24.1898051,0 79.4070974,24.1898846,0 79.4071323,24.1899708,0 79.4071434,24.1900698,0 79.4071465,24.1901336,0 79.4071707,24.1901885,0 79.4071955,24.1902358,0 79.4072061,24.1902828,0 79.4072036,24.1903321,0 79.407192,24.1903604,0 79.4072526,24.1905056,0 79.4072534,24.1905291,0 79.4072262,24.1905719,0 79.4071244,24.1905696,0 79.4071016,24.1905844,0 79.4070134,24.1906022,0 79.4069274,24.190609,0 79.4068501,24.1906239,0 79.4067762,24.1906262,0 79.4066514,24.1906233,0 79.4066408,24.190626,0 79.4066402,24.1906267,0 79.4065026,24.1906638,0 79.4065036,24.1907878,0 79.406533,24.1908336,0 79.4066014,24.1908905,0 79.4066621,24.1909768,0 79.4066058590855,24.1909843335992,0 79.4065337804435,24.1909829736248,0 79.4064565,24.1909833,0 79.4063488239282,24.1909911334711,0 79.4062527,24.1909823,0 79.4062087465674,24.1909938534198,0 79.4061901,24.1910256,0 79.4061897069261,24.1910754518825,0 79.4061984,24.1911302,0 79.4061988,24.19116,0 79.4062005867211,24.1912454486796,0 79.4061965067979,24.191351526681,0 79.4062209863367,24.1914304051949,0 79.406229146183,24.1915269633757,0 79.4062237062855,24.1915813623508,0 79.4062454658755,24.1916548009672,0 79.4062672254656,24.1917282395835,0 79.4062658654912,24.1918533572262,0 79.4062617855681,24.1919050362526,0 79.4062631455424,24.1919689550483,0 79.4062685854399,24.1920682331778,0 79.4062631455424,24.1921212721785,0 79.4062685854399,24.1921892708974,0 79.4062794652349,24.1922735893088,0 79.4062781052605,24.1923048687195,0 79.4062849051324,24.1923266283095,0 79.406283545158,24.1923511078483,0 79.4062862651068,24.1923701474895,0 79.4062862651068,24.1924177465928,0 79.4062985048762,24.1924313463365,0 79.406301224825,24.1924517459522,0 79.4062971449018,24.1924857453116,0 79.4063039447737,24.1925007050298,0 79.4062985048762,24.1925659837999,0 79.4063039447737,24.1926475822625,0 79.406322984415,24.1927074211351,0 79.406322984415,24.1927917395465,0 79.4063202644662,24.1928461385216,0 79.4063175445174,24.1929114172917,0 79.4064181826214,24.1928678981116,0 79.4064195425957,24.1930514946525,0 79.406322984415,24.1930542146013,0 79.4063206,24.1931524,0 79.4063211,24.193185,0 79.4063318242484,24.1932942500789,0 79.4066541381758,24.1932429110461,0</coordinates></LinearRing></outerBoundaryIs><innerBoundaryIs><LinearRing><coordinates>79.4066085790343,24.1930215752163,0 79.4066235387524,24.19299165578,0 79.4066820176507,24.1929930157543,0 79.4066874575482,24.1930338149856,0 79.4066085790343,24.1930215752163,0</coordinates></LinearRing></innerBoundaryIs></Polygon>
  </Placemark>
  
    </Document>
</kml>