<?xml version="1.0" encoding="UTF-8"?>
<kml xmlns="http://www.opengis.net/kml/2.2">
    <Document>
        <Placemark xmlns:ns0="http://www.opengis.net/kml/2.2">
	<Style><LineStyle><color>ff0000ff</color></LineStyle><PolyStyle><fill>0</fill></PolyStyle></Style>
	<ExtendedData><SchemaData schemaUrl="#Wave24_v28MAR2025">
		<SimpleData name="area(ha)">1.065064025766780</SimpleData>
		<SimpleData name="site_id">240144_1.1</SimpleData>
		<SimpleData name="Land_parc">240144</SimpleData>
		<SimpleData name="district">Katni</SimpleData>
		<SimpleData name="block">Dhimakheda</SimpleData>
		<SimpleData name="village">karondi 2 (GP Bahamani)</SimpleData>
		<SimpleData name="Land Type">Community</SimpleData>
		<SimpleData name="Instance">Wave 2024</SimpleData>
	</SchemaData></ExtendedData>
      <Polygon><outerBoundaryIs><LinearRing><coordinates>80.3278899617941,23.5062522499142,0 80.3280293,23.5062981,0 80.3280552,23.5062831,0 80.3280691,23.5062388,0 80.3280689,23.5062106,0 80.3281667,23.506184,0 80.3281937,23.5061929,0 80.3282213,23.5061771,0 80.3282158,23.5060539,0 80.3281913,23.5060255,0 80.3281354,23.5060102,0 80.32817,23.505833,0 80.3281614,23.5057235,0 80.328175,23.5057142,0 80.3281777,23.5056723,0 80.3282812,23.5056523,0 80.3283688,23.505622,0 80.3283828,23.5056004,0 80.3284452,23.5055736,0 80.3284744,23.5055388,0 80.3284834,23.5055152,0 80.328501,23.5054909,0 80.328507,23.5054669,0 80.3285322,23.5053981,0 80.3285432,23.5053808,0 80.3285941,23.5053162,0 80.3286563,23.5052495,0 80.3286649,23.5052243,0 80.3286648,23.5051618,0 80.3288274,23.5051396,0 80.328865,23.5051477,0 80.3288962,23.5051246,0 80.3289356,23.5050892,0 80.3289686,23.5050532,0 80.3289416,23.5049968,0 80.3288767,23.5049662,0 80.3288184,23.5049584,0 80.3287401,23.5049052,0 80.3287602,23.5048944,0 80.328806,23.5048484,0 80.3288823,23.5047836,0 80.3289107,23.5047587,0 80.3289273,23.5047479,0 80.328928,23.5047076,0 80.3289452,23.5046639,0 80.3289306,23.5046201,0 80.3289379,23.5045656,0 80.329001,23.5045551,0 80.3290344,23.504549,0 80.3290699,23.5044964,0 80.3290739,23.5044769,0 80.3290333,23.5044244,0 80.3290358,23.5044461,0 80.3290301,23.5044418,0 80.3290315,23.50444,0 80.328985,23.5044038,0 80.3289455,23.5042823,0 80.3289461,23.5042461,0 80.328943,23.5042114,0 80.3289204,23.5041282,0 80.3289597,23.5040868,0 80.3289454,23.5040576,0 80.3289559,23.5040289,0 80.3289649066814,23.5039784972764,0 80.3288094703998,23.503933846152,0 80.3287830181411,23.5039563863849,0 80.3287418181628,23.5040731661969,0 80.3286612909326,23.5041899459054,0 80.3285320728189,23.5044406784592,0 80.3284721455778,23.5046330209167,0 80.3282773820442,23.5049249687531,0 80.3280376730798,23.5053336946372,0 80.3279178185976,23.5059553677103,0 80.3278899617941,23.5062522499142,0</coordinates></LinearRing></outerBoundaryIs></Polygon>
  </Placemark>
  
    </Document>
</kml>