<?xml version="1.0" encoding="UTF-8"?>
<kml xmlns="http://www.opengis.net/kml/2.2">
    <Document>
        <Placemark xmlns:ns0="http://www.opengis.net/kml/2.2">
	<Style><LineStyle><color>ff0000ff</color></LineStyle><PolyStyle><fill>0</fill></PolyStyle></Style>
	<ExtendedData><SchemaData schemaUrl="#Wave24_v28MAR2025">
		<SimpleData name="area(ha)">28.092374901278070</SimpleData>
		<SimpleData name="site_id">240121_1.2</SimpleData>
		<SimpleData name="Land_parc">240121</SimpleData>
		<SimpleData name="district">Katni</SimpleData>
		<SimpleData name="block">Barwara</SimpleData>
		<SimpleData name="village">Bhadawar</SimpleData>
		<SimpleData name="Land Type">Community</SimpleData>
		<SimpleData name="Instance">Wave 2024</SimpleData>
	</SchemaData></ExtendedData>
      <Polygon><outerBoundaryIs><LinearRing><coordinates>80.5671982,23.7137863,0 80.5671885,23.7137893,0 80.5671809,23.7137899,0 80.5671765,23.7137905,0 80.5671512,23.713793,0 80.5671176,23.7137937,0 80.5670725,23.7138041,0 80.5670571,23.7138399,0 80.5670501,23.7138855,0 80.5670415,23.7139128,0 80.5670302,23.7139851,0 80.5670782,23.7140409,0 80.5670888,23.714095,0 80.5670839,23.7141234,0 80.5670892,23.7141513,0 80.567121,23.7141868,0 80.5671458,23.7142259,0 80.5671467,23.714265,0 80.5671711,23.7143466,0 80.5671816,23.7143724,0 80.5671896,23.7144018,0 80.5671903,23.7144736,0 80.5672055,23.714528,0 80.5672398,23.7146001,0 80.567239,23.7146422,0 80.5672149,23.7147164,0 80.5672035,23.7147738,0 80.5672331,23.7148498,0 80.5672359,23.7148818,0 80.5672148,23.7149485,0 80.5671994,23.7149838,0 80.5672746,23.7150047,0 80.5673398,23.7150244,0 80.5673966,23.7150391,0 80.5674145,23.7151152,0 80.5674144,23.7151921,0 80.5673696,23.715227,0 80.5673241,23.7152702,0 80.5673323,23.7153394,0 80.5673381,23.7153954,0 80.5673293,23.7154408,0 80.5672963,23.7155337,0 80.5672203,23.7155481,0 80.5671501,23.7155751,0 80.5671641,23.7156528,0 80.5671425,23.7156961,0 80.5671056,23.7157381,0 80.5670696,23.7157916,0 80.5670476,23.7158506,0 80.5670267,23.7159246,0 80.5670466,23.715992,0 80.5670503,23.7160169,0 80.5671473,23.7160711,0 80.5672261,23.7161083,0 80.5673276,23.7161442,0 80.5674021,23.7161912,0 80.5674318,23.7163072,0 80.5674497,23.7163248,0 80.5674292,23.7163541,0 80.5673917,23.7163968,0 80.5673807,23.716422,0 80.5674193252916,23.7164582884763,0 80.5674554088612,23.7165268433172,0 80.5675278648227,23.7165763963955,0 80.5675726827993,23.7166179124322,0 80.5676364150446,23.716691320364,0 80.567710547714,23.7167567975678,0 80.5677744007695,23.7167935908744,0 80.5678849846189,23.7168161871089,0 80.5679349846092,23.7168593094674,0 80.5680012,23.7168718,0 80.5680525213291,23.7168707813326,0 80.5681716508125,23.7169236483191,0 80.5683564151375,23.7169973937301,0 80.5685302,23.717004,0 80.5686287,23.7170357,0 80.5687138,23.7170512,0 80.5687845,23.7170789,0 80.5689311,23.7171485,0 80.5690323,23.7171551,0 80.5691303,23.7171943,0 80.5692586,23.7172537,0 80.5693759,23.7172979,0 80.5694227,23.7173031,0 80.5695538,23.7173737,0 80.5696273,23.7174339,0 80.5697229,23.7174994,0 80.5698637,23.7174909,0 80.5699476,23.7175379,0 80.5700435,23.7175565,0 80.5701313,23.7175436,0 80.5702077,23.7176455,0 80.5702792,23.7177289,0 80.5703592,23.7177447,0 80.5703807,23.7177971,0 80.5704919,23.717875,0 80.5705782,23.7179157,0 80.5706827,23.7179784,0 80.5708195,23.7180006,0 80.570875,23.717996,0 80.5709348,23.7179735,0 80.5710216,23.7179248,0 80.5710901,23.7178803,0 80.5711438,23.7178542,0 80.5712345,23.7178083,0 80.5713365,23.7177038,0 80.5713605,23.7176661,0 80.5714108,23.7176599,0 80.5714416,23.7177126,0 80.5714559,23.7177391,0 80.5715336,23.7177794,0 80.5716381,23.7177378,0 80.5717116,23.7177291,0 80.5717399,23.7177228,0 80.5718043,23.7176978,0 80.5718866,23.7176593,0 80.5719917,23.7176187,0 80.5721218,23.7176259,0 80.5722001,23.7176297,0 80.5722961,23.7176494,0 80.5723911,23.717667,0 80.5725022,23.7176669,0 80.5725706,23.717652,0 80.5726326,23.7176409,0 80.5727003,23.7176481,0 80.5728419,23.7176791,0 80.5729292,23.7176692,0 80.5729255,23.7177153,0 80.5729362,23.7177236,0 80.5730054,23.7177212,0 80.5730295,23.7177284,0 80.5731254,23.7177706,0 80.5732727,23.7177866,0 80.573319,23.7177914,0 80.5733569,23.7178091,0 80.5733839,23.7178117,0 80.5734449540393,23.7178019116447,0 80.5735656,23.7177914,0 80.5735016,23.7177472,0 80.5735265,23.7176941,0 80.5735412,23.7176672,0 80.5736176,23.717611,0 80.5736103,23.717567,0 80.5736183,23.717483,0 80.5735922,23.7174413,0 80.5735894,23.717439,0 80.5735793,23.7174168,0 80.5735719,23.717373,0 80.573578,23.7172299,0 80.5736639,23.7170839,0 80.573708,23.7170551,0 80.5737319,23.7170164,0 80.5736835,23.7168828,0 80.5736635,23.7168336,0 80.5736507,23.7167196,0 80.5736972,23.7166767,0 80.5737644,23.7166636,0 80.573884,23.7166121,0 80.5739735,23.7166309,0 80.574107,23.7166627,0 80.5741825,23.7166779,0 80.5742372,23.716686,0 80.5743003,23.7166873,0 80.5743877,23.7166623,0 80.5744444,23.7166768,0 80.5745116,23.7167321,0 80.5747776,23.7167328,0 80.5747528,23.7164734,0 80.5747245,23.7164024,0 80.5744985,23.7161112,0 80.5743824,23.7159787,0 80.5743671,23.7159662,0 80.574288,23.7156872,0 80.57427,23.7156451,0 80.5742608,23.7156095,0 80.5742048,23.7154605,0 80.5741624,23.7153696,0 80.5741036,23.7152497,0 80.5740818,23.7151968,0 80.5740442,23.7150837,0 80.5739716,23.7148291,0 80.5739717,23.7147674,0 80.5739566,23.7146855,0 80.573919,23.7145804,0 80.5738837,23.714495,0 80.5738465,23.7143938,0 80.5738151,23.7143092,0 80.5737822,23.7142203,0 80.5737445,23.7141325,0 80.5736864,23.7140634,0 80.5736953,23.7139766,0 80.5737203,23.7138587,0 80.5737238,23.7137416,0 80.5737662,23.7136632,0 80.5738056,23.7136031,0 80.5738323,23.7135639,0 80.5738673,23.7135183,0 80.5738961,23.7134659,0 80.5739378,23.7133799,0 80.5739289,23.7133362,0 80.5739966,23.7132508,0 80.5740856681062,23.7131117915546,0 80.5738901028395,23.7131701554197,0 80.5737618225635,23.7132732791122,0 80.5737220199272,23.7132843131408,0 80.5736778728577,23.7133021009937,0 80.5736449240169,23.7133322573339,0 80.5735461433908,23.7134024290794,0 80.5734685439277,23.7134722611612,0 80.573355829014,23.713573835459,0 80.5732825686283,23.7136385055579,0 80.5732526958233,23.7136531487442,0 80.5732114762685,23.7137002325467,0 80.5731569080867,23.7137332781989,0 80.57308582558,23.7137927803592,0 80.573026902886,23.7138348045494,0 80.5729567754545,23.7138664500926,0 80.5729282031862,23.7138799028388,0 80.5724617964045,23.7141480529481,0 80.5723631715339,23.7141700677493,0 80.5721877391223,23.7141512753196,0 80.571854315004,23.7140675714723,0 80.5715995,23.7139245,0 80.5714677348929,23.7138484036461,0 80.5713452372853,23.7137684666522,0 80.571158751961,23.7136931280903,0 80.5709981286467,23.7136401483622,0 80.5707785326721,23.7136443152161,0 80.5706280854335,23.7136518575675,0 80.5704111,23.7136804,0 80.5699183,23.7138421,0 80.569539,23.7140599,0 80.5691504,23.7142383,0 80.568729,23.7139635,0 80.5685882,23.7138988,0 80.5684504,23.7138346,0 80.5685448,23.7138043,0 80.5681982,23.7136163,0 80.5677961,23.7134726,0 80.5673979,23.7134845,0 80.5670156,23.7137158,0 80.567017,23.713768,0 80.5671982,23.7137863,0</coordinates></LinearRing></outerBoundaryIs></Polygon>
  </Placemark>
  
    </Document>
</kml>