<?xml version="1.0" encoding="UTF-8"?>
<kml xmlns="http://www.opengis.net/kml/2.2">
    <Document>
        <Placemark xmlns:ns0="http://www.opengis.net/kml/2.2">
	<Style><LineStyle><color>ff0000ff</color></LineStyle><PolyStyle><fill>0</fill></PolyStyle></Style>
	<ExtendedData><SchemaData schemaUrl="#Wave24_v28MAR2025">
		<SimpleData name="area(ha)">1.154663195614226</SimpleData>
		<SimpleData name="site_id">240186_1.1</SimpleData>
		<SimpleData name="Land_parc">240186</SimpleData>
		<SimpleData name="district">Chhatarpur</SimpleData>
		<SimpleData name="block">Bijawar</SimpleData>
		<SimpleData name="village">Gulat</SimpleData>
		<SimpleData name="Land Type">Farmer</SimpleData>
		<SimpleData name="Instance">Wave 2024</SimpleData>
	</SchemaData></ExtendedData>
      <Polygon><outerBoundaryIs><LinearRing><coordinates>79.4737650791717,24.5899125233392,0 79.4738223427437,24.5899835842338,0 79.4740120961977,24.5900475839195,0 79.4741165167375,24.5900240050879,0 79.4742636037344,24.5899948122488,0 79.4742614072508,24.5898368306039,0 79.4742960096441,24.5895989391499,0 79.4743695397299,24.5893059001315,0 79.474237077443,24.5889642014976,0 79.4741300262887,24.5887349606419,0 79.4739981046642,24.5884516535467,0 79.474004592613,24.588387855384,0 79.4739645835957,24.5883705541874,0 79.4738515355827,24.5883611360618,0 79.4737336414338,24.5883847148981,0 79.4737010801813,24.58844197777,0 79.4737347642264,24.5884868898301,0 79.4737358870279,24.5885115914632,0 79.4737078169903,24.5885048546542,0 79.4736382032971,24.5884621881971,0 79.4735201591067,24.5885619486754,0 79.4734877193629,24.5886441293595,0 79.4735158338075,24.5888387678219,0 79.4734952886364,24.5888928340614,0 79.4735417856024,24.5891199122675,0 79.4735817946197,24.5892507525672,0 79.4735785506453,24.589303737482,0 79.4735763879957,24.5893588850463,0 79.4735915265428,24.5894291711577,0 79.4736250476113,24.589603264449,0 79.4736937117355,24.5897395113727,0 79.4737348020776,24.5898476438518,0 79.4737650791717,24.5899125233392,0</coordinates></LinearRing></outerBoundaryIs></Polygon>
  </Placemark>
  
    </Document>
</kml>