<?xml version="1.0" encoding="UTF-8"?>
<kml xmlns="http://www.opengis.net/kml/2.2">
    <Document>
        <Placemark xmlns:ns0="http://www.opengis.net/kml/2.2">
	<Style><LineStyle><color>ff0000ff</color></LineStyle><PolyStyle><fill>0</fill></PolyStyle></Style>
	<ExtendedData><SchemaData schemaUrl="#Wave24_v28MAR2025">
		<SimpleData name="area(ha)">9.039134493732298</SimpleData>
		<SimpleData name="site_id">240139_1.1</SimpleData>
		<SimpleData name="Land_parc">240139</SimpleData>
		<SimpleData name="district">Damoh</SimpleData>
		<SimpleData name="block">Pathariya</SimpleData>
		<SimpleData name="village">Rangir</SimpleData>
		<SimpleData name="Land Type">Community</SimpleData>
		<SimpleData name="Instance">Wave 2024</SimpleData>
	</SchemaData></ExtendedData>
      <MultiGeometry><Polygon><outerBoundaryIs><LinearRing><coordinates>79.4183281,24.0170812,0 79.4183308681291,24.0170825982657,0 79.4183282,24.0170769,0 79.4183281,24.0170812,0</coordinates></LinearRing></outerBoundaryIs></Polygon><Polygon><outerBoundaryIs><LinearRing><coordinates>79.4185105,24.0173841,0 79.418594,24.0175068,0 79.4186159,24.0175673,0 79.4186423,24.017626,0 79.418659,24.0176853,0 79.418665,24.0177533,0 79.4186997,24.01782,0 79.4187483,24.0179,0 79.4187132,24.0179232,0 79.4187527,24.0179924,0 79.4187549,24.0180129,0 79.4187656,24.0179982,0 79.418771,24.0180791,0 79.4188327954382,24.0180750643795,0 79.4188604,24.0180499,0 79.41884382441,24.0180741099903,0 79.4188381,24.0180725,0 79.4188348521242,24.0180749300654,0 79.4188436566081,24.0180743550786,0 79.4188122,24.0181203,0 79.4188612,24.018211,0 79.4189111,24.0183104,0 79.4189198,24.0183031,0 79.4189429,24.018288,0 79.4190463,24.0184927,0 79.4191453,24.0185971,0 79.4191279,24.018609,0 79.419257,24.0187243,0 79.4192747,24.0187327,0 79.4192881,24.0187566,0 79.4192894,24.0187815,0 79.4193173,24.0188252,0 79.4193122,24.0188539,0 79.4193219,24.0188738,0 79.4193282,24.0188998,0 79.4193535,24.0189222,0 79.4193621,24.0189375,0 79.4194008,24.0189701,0 79.4194202,24.0189851,0 79.4194395,24.0189989,0 79.4194592,24.0190155,0 79.4194869,24.0190525,0 79.4195022,24.0190726,0 79.4195403,24.0191482,0 79.4195442,24.0192434,0 79.4195579,24.0192911,0 79.4195678,24.0193254,0 79.4195873,24.0194236,0 79.4196255,24.0194731,0 79.4196263,24.0195124,0 79.4196561,24.0195541,0 79.4196913,24.0195967,0 79.4197062,24.0196175,0 79.4197355,24.0196715,0 79.4197564,24.0196964,0 79.4197659,24.0196991,0 79.4197701238465,24.019699346648,0 79.4198634,24.0196691,0 79.4199201,24.0196384,0 79.4199886,24.0196032,0 79.4200106,24.0196265,0 79.420073,24.0197168,0 79.4201238,24.0197998,0 79.4200839,24.019823,0 79.4200911,24.0198258,0 79.4201505,24.0199428,0 79.420192,24.0199367,0 79.4202234,24.0199444,0 79.4202716,24.0199426,0 79.4203066,24.0199352,0 79.4203131,24.0199319,0 79.4203352,24.0199181,0 79.420343,24.0199063,0 79.4203956,24.0198991,0 79.4204221,24.0198995,0 79.4204294,24.019888,0 79.420469,24.0198291,0 79.4205057,24.0198014,0 79.4205223,24.0197698,0 79.4205355,24.0197476,0 79.4205479,24.0196648,0 79.4205457,24.0196575,0 79.4205768,24.0196263,0 79.4205995,24.0196032,0 79.4206052,24.0195868,0 79.4206139,24.0195566,0 79.4205849,24.0195016,0 79.4204997,24.0194587,0 79.4204761,24.019447,0 79.4204543,24.0194506,0 79.4204637,24.0194164,0 79.4204564,24.0193703,0 79.4204632,24.0193237,0 79.4204697,24.0193017,0 79.4204605,24.0192535,0 79.4204357,24.0192036,0 79.4204303,24.0192021,0 79.4204225,24.0191859,0 79.4204353,24.0191643,0 79.4204443,24.0191427,0 79.4204849,24.019131,0 79.4205004,24.0191276,0 79.4205438,24.0191103,0 79.4205639,24.0191037,0 79.4205677,24.019096,0 79.4206503,24.019061,0 79.4207048,24.019049,0 79.4207303,24.0190368,0 79.4207581,24.0190292,0 79.4207878,24.0190213,0 79.4208423,24.0190082,0 79.4208647,24.018999,0 79.4208891,24.0189797,0 79.4209229,24.0189618,0 79.4209777,24.0189396,0 79.4210028,24.0189382,0 79.4210208,24.0189439,0 79.4210622,24.018971,0 79.4210928,24.0190121,0 79.4211155,24.019017,0 79.4211346,24.0190191,0 79.421182,24.0190432,0 79.4212465,24.0190378,0 79.4213195,24.0190435,0 79.4214284,24.0190625,0 79.4214558,24.0190746,0 79.4214692,24.0190665,0 79.4213979,24.0189765,0 79.421418,24.0189254,0 79.4214252,24.0188323,0 79.4214297,24.0185956,0 79.4214463,24.0184822,0 79.4214734,24.0183391,0 79.4214939,24.0181702,0 79.4214845,24.0180021,0 79.4214687,24.0178508,0 79.4214197,24.0177143,0 79.4213331,24.0175302,0 79.4212668,24.0173992,0 79.4212292,24.0172696,0 79.4212026,24.0171833,0 79.4211599,24.017093,0 79.4211344,24.0170088,0 79.4210655,24.0168204,0 79.4210554,24.0168496,0 79.4209682,24.0167238,0 79.4208699,24.0166468,0 79.420891,24.0166054,0 79.4209685,24.0164868,0 79.4208907,24.0165044,0 79.4209061,24.0165004,0 79.4208013,24.016447,0 79.4206708,24.016368,0 79.4203807,24.0162377,0 79.4203622,24.0162415,0 79.4202942,24.0161976,0 79.4202765,24.0161852,0 79.4201252,24.0161374,0 79.4201129,24.0161313,0 79.4200976,24.0161214,0 79.4200986,24.0161197,0 79.4200952,24.0161185,0 79.4200947,24.0161177,0 79.4199919,24.0160091,0 79.4199841,24.016016,0 79.4198311,24.0158049,0 79.4197804,24.0156478,0 79.419684,24.0156286,0 79.4195654,24.015505,0 79.4195299,24.0154419,0 79.4194683,24.0153569,0 79.419462,24.0153326,0 79.4194477,24.0152966,0 79.4193175,24.0152603,0 79.4192186,24.0152369,0 79.419131,24.0152479,0 79.4190095,24.0152932,0 79.4190503,24.0153759,0 79.4190188,24.0154281,0 79.4190152,24.0154626,0 79.4189839,24.0155588,0 79.418917,24.0155788,0 79.4188338,24.0156474,0 79.4188114,24.0156709,0 79.4187647,24.0157369,0 79.4187657,24.0157932,0 79.4187431,24.0158269,0 79.4185987,24.0158894,0 79.4184955,24.0159214,0 79.4184762,24.0159369,0 79.4184742,24.0159928,0 79.4184639,24.0160182,0 79.4184583,24.0160757,0 79.4184303,24.0161407,0 79.4184312,24.0162025,0 79.4184282,24.0162312,0 79.4183946,24.0162842,0 79.4183964,24.0163808,0 79.4183916,24.0164334,0 79.4183998,24.0164647,0 79.4184208,24.0165209,0 79.418443,24.0165949,0 79.4184316,24.0166468,0 79.4184487,24.0167333,0 79.418447,24.0167588,0 79.4184997,24.0168072,0 79.4185131,24.0168017,0 79.4185607,24.0168514,0 79.4186527,24.0168319,0 79.4186866,24.0167842,0 79.4187641,24.0167375,0 79.4188275,24.0166836,0 79.418881,24.0166701,0 79.4189363,24.0166516,0 79.4189621,24.0166444,0 79.4189925,24.0166432,0 79.4189996,24.0166715,0 79.4189673,24.0167182,0 79.4189718,24.0167646,0 79.4189827,24.0168317,0 79.4190038,24.0168666,0 79.4190499,24.016902,0 79.4191198,24.0168973,0 79.4191488,24.0169143,0 79.4192778,24.0168751,0 79.4193046,24.0168872,0 79.4193319,24.016902,0 79.4193609,24.0169195,0 79.4193955,24.0169334,0 79.4194221,24.0169478,0 79.4194589,24.0169687,0 79.4194668,24.0169801,0 79.4195246,24.0170613,0 79.4195768,24.0171162,0 79.4196099,24.0172067,0 79.4195841,24.0172684,0 79.419568,24.0173385,0 79.4195101,24.017364,0 79.4194499,24.0174578,0 79.4194366,24.0175809,0 79.4193763,24.0177029,0 79.4193137,24.0177697,0 79.4192655,24.0177959,0 79.4190826,24.0177723,0 79.418959,24.0176798,0 79.4189255,24.0175753,0 79.4189135,24.0175765,0 79.4188649,24.0175513,0 79.4188527,24.01755,0 79.4187756,24.0174811,0 79.4188069,24.0175015,0 79.4187058,24.0173115,0 79.4186827,24.0172587,0 79.4186492,24.0171998,0 79.4186296,24.0171819,0 79.4185703,24.0171488,0 79.4185242,24.0171605,0 79.4184548,24.0171452,0 79.4183308681291,24.0170825982657,0 79.4184675,24.0173744,0 79.4185105,24.0173841,0</coordinates></LinearRing></outerBoundaryIs></Polygon><Polygon><outerBoundaryIs><LinearRing><coordinates>79.4188348521242,24.0180749300654,0 79.4188327954382,24.0180750643795,0 79.4188242,24.0180829,0 79.4188348521242,24.0180749300654,0</coordinates></LinearRing></outerBoundaryIs></Polygon><Polygon><outerBoundaryIs><LinearRing><coordinates>79.4197796,24.0196999,0 79.4197701238465,24.019699346648,0 79.4197641,24.0197013,0 79.4197796,24.0196999,0</coordinates></LinearRing></outerBoundaryIs></Polygon></MultiGeometry>
  </Placemark>
  
    </Document>
</kml>