<?xml version="1.0" encoding="UTF-8"?>
<kml xmlns="http://www.opengis.net/kml/2.2">
    <Document>
        <Placemark xmlns:ns0="http://www.opengis.net/kml/2.2">
	<Style><LineStyle><color>ff0000ff</color></LineStyle><PolyStyle><fill>0</fill></PolyStyle></Style>
	<ExtendedData><SchemaData schemaUrl="#Wave24_v28MAR2025">
		<SimpleData name="area(ha)">12.940074212796462</SimpleData>
		<SimpleData name="site_id">240108_3.4</SimpleData>
		<SimpleData name="Land_parc">240108</SimpleData>
		<SimpleData name="district">Damoh</SimpleData>
		<SimpleData name="block">Pathariya</SimpleData>
		<SimpleData name="village">Seeta Nagar- Hawai Adde ke Pic</SimpleData>
		<SimpleData name="Land Type">Community</SimpleData>
		<SimpleData name="Instance">Wave 2024</SimpleData>
	</SchemaData></ExtendedData>
      <MultiGeometry><Polygon><outerBoundaryIs><LinearRing><coordinates>79.4307257,24.0394228,0 79.4307053,24.0395623,0 79.4306915,24.0396006,0 79.4306595,24.0396559,0 79.4306447,24.0397251,0 79.4306653,24.0398138,0 79.4306788,24.0398698,0 79.4306829,24.0400224,0 79.4306926,24.0400652,0 79.430728,24.0401637,0 79.4307611,24.040237,0 79.4307834,24.0403455,0 79.4307902,24.0403585,0 79.430818,24.0403887,0 79.4308641,24.0404386,0 79.4309308,24.0405383,0 79.4310099,24.0406028,0 79.4310208,24.0406099,0 79.4311067,24.0408026,0 79.4311035,24.0408164,0 79.4311009,24.040865,0 79.4310908,24.040864,0 79.4310658,24.0408752,0 79.4311168,24.0408853,0 79.4311037,24.0408735,0 79.4311726,24.0409277,0 79.4311948,24.0409374,0 79.4312128,24.040956,0 79.4312727,24.0409939,0 79.4313103,24.0409994,0 79.4313352,24.0410179,0 79.4313878,24.0410173,0 79.4314078,24.0410332,0 79.4314411,24.0410473,0 79.4314527,24.0410738,0 79.4315163,24.0411095,0 79.4315231,24.0411147,0 79.4316127,24.0411604,0 79.4315814,24.0411562,0 79.4316563,24.0412156,0 79.431682,24.041213,0 79.4317179,24.0412177,0 79.4317455,24.0412369,0 79.4317599,24.0412656,0 79.4317662,24.041287,0 79.4318097,24.0413193,0 79.4318526,24.0413527,0 79.4318741,24.0413699,0 79.4318925,24.0413869,0 79.4319141,24.0414147,0 79.4319817,24.0414369,0 79.432047,24.0414603,0 79.4320861,24.0414724,0 79.4321507,24.0414768,0 79.4321671,24.0414958,0 79.4321819,24.0415093,0 79.4322131,24.0415396,0 79.4322349,24.0415398,0 79.43235,24.0415616,0 79.4323704,24.0415678,0 79.4323697,24.0415703,0 79.4324188,24.0415885,0 79.4324463,24.0415934,0 79.4324533,24.041598,0 79.4324345,24.0416021,0 79.432471,24.0416058,0 79.4324923,24.0416087,0 79.4325516,24.0416284,0 79.4325993,24.0416548,0 79.4326315,24.0416801,0 79.4326622,24.0417041,0 79.4327377,24.0417214,0 79.4327846,24.0417251,0 79.4328126,24.0417377,0 79.4328429,24.0417425,0 79.4328707,24.0417432,0 79.4328962,24.0417537,0 79.4329236,24.0417727,0 79.4329542,24.0417994,0 79.4329525,24.0418166,0 79.4330125,24.041799,0 79.4330392,24.0418106,0 79.4330981,24.0418012,0 79.4331371,24.0418245,0 79.4331339,24.0418409,0 79.4331597,24.0419207,0 79.4331232,24.0419603,0 79.4330803,24.041931,0 79.4329846,24.0419484,0 79.4329476,24.0419279,0 79.4329412144972,24.0419217297389,0 79.4329375,24.0419244,0 79.4329028,24.0419334,0 79.4328561,24.0419417,0 79.4328211,24.0419673,0 79.4328158,24.041968,0 79.4327677,24.0419548,0 79.4327073,24.0419473,0 79.4326898,24.0419524,0 79.4326675,24.0419908,0 79.4326393,24.0420373,0 79.4326274,24.0420621,0 79.4326252,24.0421115,0 79.4325943,24.042147,0 79.4325691,24.0421692,0 79.4325345,24.0421836,0 79.4324047,24.0422221,0 79.4323774,24.0422426,0 79.4323116,24.0422725,0 79.4321645,24.0423845,0 79.4321246,24.0424046,0 79.432067,24.0424369,0 79.4319843,24.0425008,0 79.4319563,24.0425214,0 79.4318735,24.0426099,0 79.4318363,24.0426363,0 79.4318056,24.0426568,0 79.4317719,24.0426918,0 79.4317677,24.0427167,0 79.431764,24.0427795,0 79.4317525,24.0428011,0 79.4317538,24.0428323,0 79.4317443,24.0428927,0 79.4317216,24.04295,0 79.4316703,24.0430374,0 79.4316498,24.0430692,0 79.4315976,24.0431266,0 79.4315545,24.0431834,0 79.4315006,24.0432059,0 79.4314476,24.0432186,0 79.4314378,24.0432404,0 79.4314173,24.0432464,0 79.4314015,24.0433174,0 79.4313974,24.0433406,0 79.4313823,24.0435017,0 79.431377,24.0435536,0 79.4313849,24.0435766,0 79.4313896,24.0436248,0 79.431408,24.04366,0 79.4314618,24.0437222,0 79.4315508,24.043764,0 79.4316833,24.0438382,0 79.4317175,24.043847,0 79.4317906,24.043869,0 79.431818,24.0438819,0 79.4318693,24.0438967,0 79.4319005,24.0439032,0 79.4319788,24.0438999,0 79.4323316,24.0439783,0 79.432194,24.0439839,0 79.4321879,24.0439917,0 79.4322419,24.0440128,0 79.4322691,24.0440139,0 79.4323016,24.0440384,0 79.432363,24.0440456,0 79.4323943,24.0440447,0 79.4324626,24.044041,0 79.4324884,24.0440369,0 79.4325139,24.0440349,0 79.4325459,24.0440316,0 79.4325735,24.0440426,0 79.4326138,24.0440525,0 79.4326484,24.044078,0 79.4326898,24.0441107,0 79.4327219,24.0441423,0 79.4327643,24.0441748,0 79.4327896,24.0441952,0 79.4328418,24.044264,0 79.4328624,24.0442853,0 79.4328986,24.0443107,0 79.4329303,24.044316,0 79.4329622,24.044313,0 79.432986,24.0442955,0 79.4330048,24.044279,0 79.4330209,24.044266,0 79.4330816,24.0442425,0 79.4331367,24.0442184,0 79.4331607,24.0442053,0 79.4332064,24.0441743,0 79.4332639,24.0441409,0 79.4332874,24.0441223,0 79.4333229,24.044107,0 79.4334713,24.0440035,0 79.433534,24.0439238,0 79.4335545,24.0439007,0 79.4335729,24.0438626,0 79.4335829,24.0438429,0 79.4335785,24.0438137,0 79.4335734,24.0437923,0 79.4335524,24.0437641,0 79.433541,24.0437409,0 79.4335173,24.0437069,0 79.4335144,24.0436785,0 79.433513,24.0436545,0 79.4335142,24.0436277,0 79.433524,24.043605,0 79.4335399,24.0435786,0 79.4335586,24.0435559,0 79.4335719,24.0435314,0 79.4335845,24.0435082,0 79.4335948,24.0434753,0 79.4336066,24.0434449,0 79.4336172,24.0434231,0 79.4336219,24.0433952,0 79.4336331,24.0433698,0 79.4336466,24.0433336,0 79.4336649,24.0433067,0 79.4336876,24.0432811,0 79.433707,24.043254,0 79.433731,24.0432246,0 79.4337361,24.0432028,0 79.4337461,24.0431729,0 79.4337601,24.043147,0 79.4337713,24.0431141,0 79.4337979,24.0430721,0 79.4338183,24.04306,0 79.433835,24.0430395,0 79.4338904,24.0429808,0 79.433919,24.0429794,0 79.4340004,24.0430779,0 79.4340336,24.0431133,0 79.4340375,24.0431427,0 79.4340642,24.0431633,0 79.4341036,24.0431822,0 79.434136,24.0431869,0 79.4341807,24.0431996,0 79.4342096,24.043206,0 79.4342562,24.0432271,0 79.4343259,24.0432357,0 79.4344716,24.0432057,0 79.434488,24.043185,0 79.4345118,24.043145,0 79.4344909,24.0431141,0 79.4345004,24.0430891,0 79.4344938,24.0430703,0 79.4345231,24.043054,0 79.4345431,24.0430329,0 79.4345332,24.0430179,0 79.4345114,24.0430221,0 79.4347359,24.0429173,0 79.4348111,24.0428815,0 79.4348496,24.0428775,0 79.4349669,24.0428408,0 79.434978,24.042814,0 79.4349874,24.0428484,0 79.4350635,24.0428195,0 79.4352573,24.0428238,0 79.4353303,24.0428163,0 79.4356232,24.0427937,0 79.4356296,24.0427972,0 79.4356313,24.0427949,0 79.4356426,24.0428031,0 79.4356486,24.0428172,0 79.4356761,24.0428181,0 79.4356788,24.0428182,0 79.4356832,24.042827,0 79.4357135,24.0428537,0 79.4357368,24.0428511,0 79.4357606,24.042837,0 79.4357828,24.0428206,0 79.4358381,24.042798,0 79.4358809,24.0427665,0 79.4359004,24.0427453,0 79.4359848,24.0426972,0 79.4360424,24.042702,0 79.4360412,24.0426929,0 79.4361578,24.042687,0 79.4362305,24.0427076,0 79.4362954,24.0426898,0 79.4363816,24.0426957,0 79.4365304,24.0426481,0 79.4365602,24.0426198,0 79.4366722,24.0425833,0 79.4366888,24.0425508,0 79.4367761275121,24.0424810052705,0 79.4367118847578,24.0424060553905,0 79.4366083825425,24.0423560888038,0 79.436554846914,24.0423275364686,0 79.436444206615,24.0422668627562,0 79.4363478424835,24.0422204652114,0 79.4362586164359,24.0421954819181,0 79.4361379,24.0420593,0 79.4360269,24.0420189,0 79.4359642,24.0420016,0 79.4359124193711,24.0419920465295,0 79.435844607575,24.0419420799429,0 79.4357446744016,24.0418921133562,0 79.4356090508092,24.0418153789553,0 79.4355216092826,24.04178682662,0 79.4354894879055,24.0417654123686,0 79.435430598714,24.0417172303029,0 79.4353913392531,24.0416922470096,0 79.4353324500617,24.0416797553629,0 79.4352871,24.041646,0 79.4352558,24.041631,0 79.4351817,24.0415951,0 79.4351575670083,24.0415771454081,0 79.4351183075474,24.0415628692405,0 79.4350799403469,24.0415325323843,0 79.4350603106164,24.0415253943005,0 79.4350371118441,24.0415191484772,0 79.4350192666345,24.0415137949143,0 79.4349737613502,24.0414950574443,0 79.4349309328474,24.0414745354534,0 79.4349059495541,24.0414656128486,0 79.4348818585212,24.0414450908577,0 79.4348568752279,24.0414236766062,0 79.4348033395993,24.0413844171453,0 79.4347551575336,24.04137460228,0 79.4347332971519,24.0413554186798,0 79.4347011757748,24.0413442654238,0 79.434682884435,24.0413304353865,0 79.4346610240533,24.0413255279538,0 79.4346373791507,24.0413058982234,0 79.4345998,24.0413008,0 79.4345702,24.0412877,0 79.434495509735,24.0412313944736,0 79.4344162,24.0411962,0 79.434389,24.041185,0 79.434355,24.0411793,0 79.4343171,24.0411843,0 79.434265,24.0411861,0 79.4342044,24.0411928,0 79.4341299,24.0411888,0 79.4341048,24.041208,0 79.4340927,24.0412245,0 79.4340698,24.041241,0 79.4340261,24.0413145,0 79.4340058,24.0413299,0 79.433995,24.0413479,0 79.4339845,24.0413631,0 79.4339232,24.041421,0 79.4338969,24.0414167,0 79.4337309,24.0413706,0 79.4336357,24.0413432,0 79.4335467,24.041268,0 79.4335269,24.0412442,0 79.4334973,24.0412109,0 79.4334753,24.0411489,0 79.4334715,24.041113,0 79.4334506,24.0410097,0 79.4334503,24.0409763,0 79.4334326,24.040907,0 79.4334582,24.040886,0 79.4335193,24.0408685,0 79.433546,24.0408193,0 79.4335607,24.040809,0 79.4335415,24.04079,0 79.4333778,24.040653,0 79.4333699893226,24.0406563217823,0 79.4332926,24.04061,0 79.4332354,24.0405741,0 79.4331873,24.0405422,0 79.4331128,24.0405074,0 79.43306,24.0404882,0 79.4329726,24.0404497,0 79.4329035,24.0404181,0 79.4328476,24.0403838,0 79.4328164,24.0403626,0 79.4327805,24.0403308,0 79.4327132,24.0403015,0 79.4326446,24.0402822,0 79.4326358,24.0402809,0 79.4326349,24.0402873,0 79.4326311,24.0403047,0 79.4325827,24.0402755,0 79.4325527,24.0402392,0 79.4324885,24.0402059,0 79.4324309,24.0401631,0 79.4323559,24.0401271,0 79.4322919,24.0400898,0 79.4322104,24.0400571,0 79.4321806,24.0400433,0 79.4321381,24.0400288,0 79.432113,24.0400074,0 79.4320865,24.0399788,0 79.4320541,24.0399625,0 79.4319866,24.0399273,0 79.4319553,24.0399152,0 79.4319328,24.0398953,0 79.4318838,24.0398582,0 79.4318557,24.0398433,0 79.4318095,24.0398127,0 79.4316323,24.0397541,0 79.4315001,24.0396965,0 79.4314734,24.0396822,0 79.4314498,24.0396672,0 79.4314251,24.0396441,0 79.4314077,24.0396151,0 79.4313904,24.0395957,0 79.4313688,24.0395542,0 79.4313289,24.0395441,0 79.4312539,24.0394999,0 79.4312253,24.039473,0 79.4312077,24.0394671,0 79.4311859,24.0394573,0 79.4311534,24.0394389,0 79.4308077,24.039322,0 79.4307735,24.0392564,0 79.4307257,24.0394228,0</coordinates></LinearRing></outerBoundaryIs></Polygon><Polygon><outerBoundaryIs><LinearRing><coordinates>79.4329624,24.0419065,0 79.4329375,24.0419126,0 79.4329387,24.0419193,0 79.4329412144972,24.0419217297389,0 79.4329624,24.0419065,0</coordinates></LinearRing></outerBoundaryIs></Polygon></MultiGeometry>
  </Placemark>
  
    </Document>
</kml>