<?xml version="1.0" encoding="UTF-8"?>
<kml xmlns="http://www.opengis.net/kml/2.2">
    <Document>
        <Placemark xmlns:ns0="http://www.opengis.net/kml/2.2">
	<Style><LineStyle><color>ff0000ff</color></LineStyle><PolyStyle><fill>0</fill></PolyStyle></Style>
	<ExtendedData><SchemaData schemaUrl="#Wave24_v28MAR2025">
		<SimpleData name="area(ha)">0.951813198001939</SimpleData>
		<SimpleData name="site_id">240187_1.1</SimpleData>
		<SimpleData name="Land_parc">240187</SimpleData>
		<SimpleData name="district">Chhatarpur</SimpleData>
		<SimpleData name="block">Bijawar</SimpleData>
		<SimpleData name="village">Gulat</SimpleData>
		<SimpleData name="Land Type">Farmer</SimpleData>
		<SimpleData name="Instance">Wave 2024</SimpleData>
	</SchemaData></ExtendedData>
      <Polygon><outerBoundaryIs><LinearRing><coordinates>79.4728842,24.5725322,0 79.4728484472453,24.5724824731061,0 79.4728662194778,24.5723707619306,0 79.4729525417498,24.5722810544714,0 79.4730075510408,24.5722226599933,0 79.4730752547835,24.5721439543923,0 79.4731497289006,24.5720423987781,0 79.4732123548626,24.5719746950354,0 79.4731649622427,24.5719433820544,0 79.4731057214678,24.5719374579769,0 79.4729990880729,24.5719340727897,0 79.4729533880466,24.5718782172019,0 79.4728281361224,24.5718062819753,0 79.4726698786238,24.571799511601,0 79.4725666304161,24.5718020504913,0 79.4724481,24.5718598,0 79.4721646394434,24.5720423987781,0 79.4721536375852,24.572113487708,0 79.4721908746437,24.5721896544187,0 79.4721908746437,24.5722455100064,0 79.4720326171451,24.5723800711952,0 79.4720376949258,24.5724418508604,0 79.4721121690428,24.5725781046427,0 79.4721697172242,24.5726483472759,0 79.472297931187,24.5726695046955,0 79.4724147201432,24.5727862936517,0 79.4724722683246,24.5729733252411,0 79.4725230461317,24.5730554160292,0 79.4726051369198,24.5730850364167,0 79.4726609925075,24.5730850364167,0 79.4727363129214,24.5730647252939,0 79.4727921685091,24.5730317197193,0 79.4728649500326,24.5729970215511,0 79.4729021870911,24.5729623233829,0 79.4728928778265,24.572879386298,0 79.472879337078,24.5728463807234,0 79.472855640768,24.5727346695479,0 79.4728234814902,24.5726331139337,0 79.4728842,24.5725322,0</coordinates></LinearRing></outerBoundaryIs></Polygon>
  </Placemark>
  
    </Document>
</kml>