<?xml version="1.0" encoding="UTF-8"?>
<kml xmlns="http://www.opengis.net/kml/2.2">
    <Document>
        <Placemark xmlns:ns0="http://www.opengis.net/kml/2.2">
	<Style><LineStyle><color>ff0000ff</color></LineStyle><PolyStyle><fill>0</fill></PolyStyle></Style>
	<ExtendedData><SchemaData schemaUrl="#Wave24_v28MAR2025">
		<SimpleData name="area(ha)">17.347727523242419</SimpleData>
		<SimpleData name="site_id">240138_2.2</SimpleData>
		<SimpleData name="Land_parc">240138</SimpleData>
		<SimpleData name="district">Damoh</SimpleData>
		<SimpleData name="block">Damoh</SimpleData>
		<SimpleData name="village">Ranjra</SimpleData>
		<SimpleData name="Land Type">Community</SimpleData>
		<SimpleData name="Instance">Wave 2024</SimpleData>
	</SchemaData></ExtendedData>
      <Polygon><outerBoundaryIs><LinearRing><coordinates>79.5665881320767,23.7641125065104,0 79.5666948423815,23.7639964169788,0 79.5667532310388,23.7639632485222,0 79.5668136330981,23.7639392935205,0 79.5668639681476,23.7638913835038,0 79.5669606114425,23.7638232038343,0 79.5670615,23.7637648,0 79.5670842,23.7637436,0 79.5671264,23.7637003,0 79.5671747,23.7636553,0 79.5672073,23.7636399,0 79.5672441,23.7636145,0 79.5672561,23.7635815,0 79.5672806,23.7635434,0 79.5673079,23.7634848,0 79.5673278,23.763428,0 79.5673586,23.7633705,0 79.5674106,23.7633026,0 79.5674426,23.7632228,0 79.567495,23.7630584,0 79.5675158,23.7630069,0 79.5675537,23.762933,0 79.5675815,23.7628883,0 79.567603,23.7628315,0 79.5676123,23.7627711,0 79.5676214,23.7626657,0 79.5676004,23.7626012,0 79.5675469,23.762597,0 79.5675453,23.7626047,0 79.5675476,23.7625788,0 79.5674568,23.7625395,0 79.5674298,23.76251,0 79.5674278,23.7624429,0 79.5673485,23.762399,0 79.5673003,23.7623678,0 79.5672369,23.7623497,0 79.5671849,23.7623335,0 79.5671302,23.7623194,0 79.5671041,23.7623189,0 79.5670569,23.7623662,0 79.5670327,23.7624423,0 79.56701,23.7625037,0 79.5669557,23.7625976,0 79.5668794,23.7626236,0 79.5668342,23.7626476,0 79.5667671,23.7626432,0 79.5666097,23.7626669,0 79.5665546,23.7626526,0 79.5664048,23.7626694,0 79.5663306,23.7626999,0 79.5662448,23.7627467,0 79.5661341,23.7627662,0 79.5660377,23.762745,0 79.5659651,23.7627353,0 79.5659065,23.7627016,0 79.5658512,23.7626669,0 79.5657979,23.7626283,0 79.5656997,23.7624756,0 79.5656625,23.762414,0 79.5656293,23.7623497,0 79.565594,23.7622876,0 79.5655258,23.7622116,0 79.5654749,23.7621588,0 79.5654711,23.7621228,0 79.5653867,23.7619778,0 79.5653344,23.7618695,0 79.5652818,23.7618082,0 79.565191,23.7617157,0 79.5651613,23.7616978,0 79.5651076,23.7616465,0 79.5650663,23.7616221,0 79.5650501,23.7616004,0 79.5650266,23.7615739,0 79.5650181,23.7615248,0 79.5649808,23.761432,0 79.5649682,23.7614121,0 79.564961,23.7613994,0 79.5648422,23.7612886,0 79.5647736,23.7612688,0 79.5647113,23.7612436,0 79.5646692,23.7612421,0 79.5646579,23.7612752,0 79.5646317,23.7613369,0 79.5646212,23.7613634,0 79.5646179,23.7613973,0 79.5645888,23.7614821,0 79.564581,23.7615129,0 79.5645582,23.7615928,0 79.5645198,23.7616596,0 79.5644866,23.7617313,0 79.564462,23.761805,0 79.564414,23.7618971,0 79.5644056,23.7619283,0 79.5643974,23.7619567,0 79.5643537,23.7620479,0 79.5643412,23.7620744,0 79.5643208,23.7621257,0 79.5643004,23.7622271,0 79.5642772,23.762341,0 79.5642775,23.7624075,0 79.5642818,23.7624704,0 79.5642803,23.7625292,0 79.5642831,23.7625599,0 79.564279,23.7626306,0 79.5642722164519,23.7627000768407,0 79.5642646661945,23.7627608862616,0 79.5642450355252,23.7628659206491,0 79.5642329551133,23.7629875393076,0 79.5642148344955,23.7630981016258,0 79.5641906736718,23.7632045177683,0 79.5641574525391,23.7632805292454,0 79.5641544324362,23.7633441024467,0 79.5641453721273,23.763380035112,0 79.5641499022817,23.7634449902894,0 79.5641348017669,23.7634892150724,0 79.5641317816639,23.763536203888,0 79.5641317816639,23.763594248872,0 79.5641619826936,23.7636688780992,0 79.5641879,23.7637366,0 79.5642223847529,23.7637960240913,0 79.5642888270182,23.763845776837,0 79.5643643295924,23.7638789453236,0 79.5644126512398,23.7638982936035,0 79.5644941940199,23.7639480463101,0 79.564578756903,23.7639895068844,0 79.564666339889,23.7640420235929,0 79.5647297620513,23.7641138885281,0 79.5647629831839,23.7641774613222,0 79.5648264053462,23.7642023376245,0 79.5649260687441,23.7642824945663,0 79.5650136517301,23.7643460672781,0 79.5650005,23.7643848,0 79.5650712,23.7644583,0 79.5650896,23.7645227,0 79.5651366,23.764553,0 79.565153,23.7645819,0 79.5652025,23.7646503,0 79.565289,23.7647331,0 79.5653543,23.7648082,0 79.565388,23.7648577,0 79.5654481,23.764949,0 79.5654843,23.765005,0 79.5655258,23.7650618,0 79.5655815,23.7651101,0 79.5656595,23.7651818,0 79.5657437,23.7652221,0 79.5657945,23.7652556,0 79.565847,23.765349,0 79.5658902,23.7654126,0 79.5659338,23.7655559,0 79.5659833,23.7656508,0 79.5660543,23.7657467,0 79.5660839,23.7658296,0 79.5661578,23.7658739,0 79.5662034,23.7658982,0 79.5662324,23.7659621,0 79.5662845,23.766016,0 79.5663139,23.7660371,0 79.566398,23.7660852,0 79.5664463,23.7661305,0 79.5665271,23.7661927,0 79.5666442,23.7662932,0 79.5667048,23.7663435,0 79.5667792,23.7664198,0 79.5668047,23.7664374,0 79.5668458,23.7664814,0 79.5668917,23.7665312,0 79.5669106,23.7665583,0 79.5669348,23.7666251,0 79.5669587,23.7666927,0 79.5669376,23.7667614,0 79.566935,23.7667743,0 79.5670685,23.7668091,0 79.5671012,23.7668039,0 79.5671361,23.7667809,0 79.5671679,23.7667696,0 79.5671999,23.7667402,0 79.5672567,23.7667055,0 79.5673487,23.7666036,0 79.567396,23.7665822,0 79.5674236,23.7665999,0 79.5674836,23.7664948,0 79.5674989,23.7664205,0 79.5675034,23.7663944,0 79.5675302,23.7662892,0 79.5675412,23.7662327,0 79.5675157,23.7661479,0 79.5675153,23.7659887,0 79.5675062,23.7659635,0 79.5675093,23.7659402,0 79.5675005,23.7659108,0 79.5674982,23.7658244,0 79.567498,23.7658097,0 79.5674636,23.7656007,0 79.5674411,23.7654335,0 79.5674346,23.7653276,0 79.567424544958,23.7652669796995,0 79.5674352,23.7652249,0 79.5674539,23.76505,0 79.5674343,23.7650112,0 79.5674228,23.7649648,0 79.5674172,23.7649568,0 79.5674132,23.764829,0 79.5674731,23.7647701,0 79.5674829,23.7647627,0 79.5675048,23.7647181,0 79.5676007,23.7646198,0 79.5676425,23.7645832,0 79.5676785,23.7645551,0 79.5677127,23.7645245,0 79.567735,23.7644981,0 79.5678177,23.764425,0 79.5678147,23.7644303,0 79.5678202,23.7644462,0 79.5678293,23.764424,0 79.5680827,23.7643688,0 79.5681097,23.7643485,0 79.5681885,23.7643509,0 79.5682761,23.7643375,0 79.5683614,23.7643336,0 79.5685013,23.7643415,0 79.5686229,23.7643133,0 79.5687314,23.764311,0 79.5688418,23.7643164,0 79.5689293,23.7643316,0 79.5690054,23.764343,0 79.5689957,23.7643473,0 79.5690956,23.7643689,0 79.5691254,23.7643772,0 79.5691536,23.7643857,0 79.5694439,23.7644916,0 79.5696138,23.7645872,0 79.5698671,23.7647246,0 79.5700495,23.7647892,0 79.5701469,23.7648025,0 79.5703082,23.7648613,0 79.5703954,23.7649054,0 79.5705266,23.7649984,0 79.5706019,23.7650359,0 79.5706589,23.7650878,0 79.5706762,23.7651071,0 79.5708331,23.7652373,0 79.570907,23.7652731,0 79.570967,23.7653504,0 79.5709693,23.765347,0 79.5710761,23.7653787,0 79.5711118,23.7654003,0 79.5713691,23.7654901,0 79.5714277,23.7655244,0 79.5714334,23.7655326,0 79.5716665,23.7656257,0 79.5717245,23.7656676,0 79.5717912,23.7656794,0 79.5717895,23.7656809,0 79.5718094,23.7656824,0 79.5719751,23.7657124,0 79.572266,23.7657224,0 79.5723207,23.7657292,0 79.5723704,23.7657365,0 79.5723945,23.7657381,0 79.5723885,23.7657383,0 79.5726218,23.7657644,0 79.5727674,23.7657753,0 79.5728013,23.7657885,0 79.5728076,23.7657884,0 79.5728791,23.7657751,0 79.5729009,23.7657827,0 79.5730105,23.7657579,0 79.5730162,23.7656756,0 79.573021,23.7656756,0 79.5731234,23.7656545,0 79.5731996,23.7656529,0 79.5732499,23.7656533,0 79.573289,23.7656514,0 79.5732948,23.7656521,0 79.5732972,23.7656528,0 79.5733099,23.7656519,0 79.5733144,23.7656508,0 79.5733432,23.7656484,0 79.5733534,23.7656573,0 79.5733715,23.765653,0 79.5733713,23.7656534,0 79.5733769,23.7656447,0 79.5733905,23.7655793,0 79.5733923,23.7655783,0 79.573393,23.7655442,0 79.5733912,23.7655014,0 79.573387,23.7654802,0 79.5733719,23.7654425,0 79.5733458,23.7654013,0 79.5733093,23.765359,0 79.5732688,23.765323,0 79.5732305,23.7652958,0 79.5732066,23.7652845,0 79.5731932,23.7652659,0 79.57316,23.7652431,0 79.5731321,23.7652413,0 79.5731108,23.7652307,0 79.5731045,23.7652149,0 79.5730866,23.7651616,0 79.5730809,23.7651446,0 79.5730779,23.7651212,0 79.5730311,23.7650984,0 79.5729927,23.7650957,0 79.5729186,23.7651059,0 79.5728898,23.7651105,0 79.5728232,23.7651245,0 79.5727607,23.7651431,0 79.5727207,23.7651483,0 79.5726945,23.7651579,0 79.5726557,23.7651654,0 79.5726306,23.7651711,0 79.5725871,23.7651785,0 79.5725613,23.7651824,0 79.5724787,23.7652052,0 79.5724189,23.7652106,0 79.5723547,23.7652158,0 79.5723334,23.7652268,0 79.5723248,23.765226,0 79.572327,23.7652258,0 79.5723185,23.7652235,0 79.5722734,23.765214,0 79.5722377,23.7652037,0 79.5722076,23.7652006,0 79.5721789,23.7651978,0 79.5721491,23.7651922,0 79.5721149,23.7651903,0 79.5720989,23.7651785,0 79.5720708,23.7651623,0 79.5720355,23.765132,0 79.5719526,23.7651086,0 79.571918,23.7650988,0 79.5718397,23.7650806,0 79.5717764,23.7650622,0 79.5717538,23.7650511,0 79.5716471,23.7649671,0 79.5716386,23.7649375,0 79.5716389,23.7649289,0 79.5716368,23.7649245,0 79.5716562,23.7649453,0 79.5716329,23.764914,0 79.5716276,23.7649146,0 79.5716431,23.7648892,0 79.5715973,23.7648437,0 79.5715764,23.7648191,0 79.5715479,23.7647922,0 79.5714814,23.7647154,0 79.5714093,23.7646564,0 79.5712603,23.7645813,0 79.5712003,23.7645691,0 79.5710743,23.7645341,0 79.5709915,23.7644998,0 79.5709077,23.7644798,0 79.5707655,23.7644263,0 79.5706898,23.7643727,0 79.5706693,23.7643531,0 79.5706416,23.7643251,0 79.5706168,23.7643002,0 79.5705927,23.7642807,0 79.5705695,23.7642629,0 79.5705453,23.7642397,0 79.5705204,23.7642178,0 79.5704949,23.7642002,0 79.5704694,23.7641789,0 79.5704469,23.7641563,0 79.5704144,23.7641364,0 79.5703894,23.7641161,0 79.5703587,23.7641016,0 79.5703333,23.7640735,0 79.5703092,23.7640502,0 79.5702898,23.7640221,0 79.5702619,23.7640058,0 79.5702366,23.7639907,0 79.5702064,23.7639759,0 79.5701265,23.7639342,0 79.5700523,23.7638861,0 79.5699784,23.7638364,0 79.5699177,23.7637969,0 79.5698951,23.7637721,0 79.5698735,23.7637492,0 79.5698295,23.7637142,0 79.569806,23.7636882,0 79.569805,23.763684,0 79.5697809,23.7636621,0 79.5697027,23.7636239,0 79.5696748,23.7635979,0 79.5696302,23.7634904,0 79.5694788,23.7634009,0 79.5694374,23.7633327,0 79.5694193,23.7633117,0 79.5693842,23.763272,0 79.5693047,23.7632171,0 79.5692499,23.763151,0 79.5692023,23.7631196,0 79.5691709,23.7631197,0 79.5690161,23.7631319,0 79.5688852,23.7631108,0 79.5687743,23.7630876,0 79.5687385,23.7630733,0 79.5687246,23.7630588,0 79.5687141,23.7630677,0 79.5686405,23.762973,0 79.5685734,23.7628834,0 79.5685421,23.7628081,0 79.5685259,23.7627851,0 79.5684975,23.7628053,0 79.5684783,23.7628216,0 79.5683701,23.7628398,0 79.5682619,23.762868,0 79.5682056,23.7628463,0 79.5681414,23.7627967,0 79.5681285,23.7627971,0 79.5679003,23.7627489,0 79.567855,23.7627023,0 79.5677948,23.7626457,0 79.5677558,23.7626039,0 79.5677159,23.7626185,0 79.5676865,23.7627135,0 79.5676656,23.7627793,0 79.5676638,23.7628399,0 79.567671,23.7628554,0 79.5676453,23.7629844,0 79.5676395,23.7630145,0 79.5676215,23.7630411,0 79.5675909,23.7631091,0 79.5675664,23.7631792,0 79.5675591,23.7632507,0 79.5675606,23.7632609,0 79.5675425,23.7633339,0 79.5675097,23.7634357,0 79.567481,23.7635088,0 79.5674769,23.7636002,0 79.5674284,23.7636314,0 79.5673975,23.7636607,0 79.5673784,23.7636758,0 79.5673621,23.7636923,0 79.5672999,23.763664,0 79.5672548,23.7636783,0 79.5673941,23.7637863,0 79.5674203,23.7638067,0 79.5675133,23.7638882,0 79.5675517,23.7639672,0 79.5675815,23.7640611,0 79.5676905,23.7640531,0 79.5677428,23.7640768,0 79.5677196,23.7641343,0 79.5676573,23.7641624,0 79.5675914,23.764208,0 79.5675464,23.7642684,0 79.5675039,23.7643422,0 79.5674794,23.7643661,0 79.5673984,23.7644788,0 79.5673603,23.7645303,0 79.5672825,23.7646033,0 79.5672237,23.7646109,0 79.56713,23.764578,0 79.5670837,23.7645208,0 79.5670587,23.7644965,0 79.5670275,23.7644767,0 79.5668966,23.7644204,0 79.5668439,23.7643752,0 79.5668019,23.7643153,0 79.5667814,23.7642936,0 79.5667374,23.7642612,0 79.5665881320767,23.7641125065104,0</coordinates></LinearRing></outerBoundaryIs></Polygon>
  </Placemark>
  
    </Document>
</kml>