<?xml version="1.0" encoding="UTF-8"?>
<kml xmlns="http://www.opengis.net/kml/2.2">
    <Document>
        <Placemark xmlns:ns0="http://www.opengis.net/kml/2.2">
	<Style><LineStyle><color>ff0000ff</color></LineStyle><PolyStyle><fill>0</fill></PolyStyle></Style>
	<ExtendedData><SchemaData schemaUrl="#Wave24_v28MAR2025">
		<SimpleData name="area(ha)">12.699406546615624</SimpleData>
		<SimpleData name="site_id">240141_1.1</SimpleData>
		<SimpleData name="Land_parc">240141</SimpleData>
		<SimpleData name="district">Chhatarpur</SimpleData>
		<SimpleData name="block">Bijawar</SimpleData>
		<SimpleData name="village">Angour</SimpleData>
		<SimpleData name="Land Type">Community</SimpleData>
		<SimpleData name="Instance">Wave 2024</SimpleData>
	</SchemaData></ExtendedData>
      <Polygon><outerBoundaryIs><LinearRing><coordinates>79.440754,24.7589282,0 79.4406196,24.7588107,0 79.4405376,24.758756,0 79.4404323,24.7587461,0 79.4403987,24.7587322,0 79.440372,24.7587256,0 79.4402718,24.7586504,0 79.4401529,24.7585636,0 79.4401192,24.7584851,0 79.4400254,24.7583874,0 79.4399818,24.758336,0 79.4399447,24.7583088,0 79.4398727,24.7582542,0 79.4397808,24.7582029,0 79.4396981,24.7581471,0 79.4395897,24.7581082,0 79.4395242,24.7580724,0 79.4394366,24.7580145,0 79.4393905,24.7580066,0 79.4393687,24.7580129,0 79.4392992,24.7581093,0 79.439278,24.7581657,0 79.4392533,24.7582521,0 79.4392197,24.7583432,0 79.4391706,24.7584753,0 79.4391441,24.7585264,0 79.4391124,24.7586035,0 79.4390917,24.7586562,0 79.4390161,24.7587876,0 79.4389988,24.7588431,0 79.4389638,24.7589285,0 79.4389282,24.7590105,0 79.4388872,24.7591243,0 79.4387809,24.7592058,0 79.4387155,24.7592976,0 79.4386551,24.7593372,0 79.4385697,24.7593915,0 79.4384398,24.7593875,0 79.4383862,24.7593807,0 79.4382446,24.7593697,0 79.4381716,24.7593422,0 79.4380703,24.7593411,0 79.4379433,24.7593055,0 79.4378958,24.759215,0 79.4378541,24.759174,0 79.4377795,24.7591101,0 79.437752,24.7590167,0 79.4377564,24.7589273,0 79.437787,24.7588563,0 79.4377641,24.7587785,0 79.437725,24.758689,0 79.4376725,24.7585741,0 79.4376347,24.758514,0 79.4375676,24.7584639,0 79.437517,24.7583245,0 79.4375248,24.7582496,0 79.4375187,24.7581811,0 79.437493,24.758169,0 79.4374374,24.7581181,0 79.43731,24.7580669,0 79.4372389,24.7580046,0 79.4371618,24.7579563,0 79.4371243,24.7578669,0 79.4371184,24.7578368,0 79.4370791,24.7577825,0 79.4370646,24.7577311,0 79.4370483,24.7576822,0 79.4369242,24.7577089,0 79.4368205,24.757734,0 79.4367282,24.7577399,0 79.4365921,24.7577606,0 79.4365609,24.7577851,0 79.4363047,24.7578139,0 79.4362177,24.7577955,0 79.4361448,24.7578586,0 79.4361131,24.757882,0 79.4360835,24.7579323,0 79.4361078,24.758057,0 79.4360867,24.7581655,0 79.4360797,24.7582774,0 79.4360248,24.7583562,0 79.4359839,24.7584018,0 79.4359503,24.7584745,0 79.4358904,24.7585353,0 79.4358816,24.7586005,0 79.435926,24.7587245,0 79.4359403,24.7587464,0 79.4360292,24.7588737,0 79.4360687,24.7589551,0 79.4361092,24.7590124,0 79.4361567,24.7590869,0 79.4361989,24.7591571,0 79.436246,24.7592361,0 79.4362764,24.759289,0 79.436315,24.7593872,0 79.4363589,24.7594604,0 79.4364042,24.759536,0 79.4364859,24.7596994,0 79.4365883,24.7597802,0 79.4366322,24.759787,0 79.4366962,24.7598318,0 79.4367371,24.7598668,0 79.4366676,24.7598662,0 79.4365809,24.7599059,0 79.43655,24.7599612,0 79.4364055,24.7599945,0 79.4362996,24.7600178,0 79.4362045,24.7600581,0 79.4361499,24.760106,0 79.4361195,24.7601782,0 79.4361462,24.7602815,0 79.4361491,24.7603434,0 79.4361546260449,24.7604370070105,0 79.4361295887102,24.7605058596807,0 79.4361827930463,24.7605653233505,0 79.4362266083819,24.7606623430221,0 79.4362516457165,24.7607311956923,0 79.4363079797194,24.7608313450308,0 79.4363768323896,24.7609534020371,0 79.4364675927276,24.7611787380487,0 79.4364769817281,24.7612694983867,0 79.4364644630608,24.7613978147266,0 79.436505,24.7615059,0 79.4365627,24.7615471,0 79.4368138,24.7615002,0 79.4370089,24.7614685,0 79.4371966,24.7614113,0 79.437359,24.7613835,0 79.4374673,24.7613538,0 79.437611,24.7612996,0 79.4377706,24.7612831,0 79.4379613,24.7613324,0 79.4380217,24.7613483,0 79.43809,24.7612883,0 79.4382007,24.761297,0 79.4382436,24.7612038,0 79.4383362,24.7611652,0 79.4384121,24.7611148,0 79.4384628,24.7610803,0 79.4385881,24.7610692,0 79.4386862,24.7610703,0 79.4387838,24.7610628,0 79.4388711,24.7610329,0 79.4390272,24.7610304,0 79.439056,24.7610236,0 79.4391754,24.761023,0 79.4394038,24.7611005,0 79.4395033695505,24.761081718377,0 79.4396222968899,24.7610159953736,0 79.4397412242294,24.7608501230318,0 79.4399133559049,24.7607969186957,0 79.4400009865761,24.7608031780294,0 79.4401011359146,24.7607781406947,0 79.4401762479184,24.7606967693572,0 79.4403233422593,24.7606873803567,0 79.4403702872617,24.7605903606851,0 79.4405799749392,24.7605340266822,0 79.4405455486041,24.7604808223461,0 79.4403859355959,24.7602711346687,0 79.4403202125925,24.7601240403278,0 79.4402075445867,24.759992594321,0 79.4401652940845,24.7598595834808,0 79.4400917469141,24.759765693476,0 79.4400494964119,24.7597359616411,0 79.4399931,24.7596609,0 79.4400357,24.7596199,0 79.4401256,24.7595813,0 79.440224,24.7595563,0 79.4403976,24.7595324,0 79.4404998,24.759483,0 79.4405823,24.7594418,0 79.4407778,24.7593814,0 79.4408763,24.7593571,0 79.4409515,24.7593585,0 79.4410047,24.7593482,0 79.4410835,24.7593015,0 79.441159,24.7592797,0 79.4412086,24.7592654,0 79.441185,24.7592139,0 79.4410997,24.7591794,0 79.4410336,24.7591749,0 79.440852,24.7591402,0 79.440765,24.7590332,0 79.440756,24.758932,0 79.440754,24.7589282,0</coordinates></LinearRing></outerBoundaryIs><innerBoundaryIs><LinearRing><coordinates>79.439475202549,24.7598079439782,0 79.4394000905452,24.7595294036305,0 79.4397099275611,24.7594167356247,0 79.439785039565,24.7596890166387,0 79.439475202549,24.7598079439782,0</coordinates></LinearRing></innerBoundaryIs></Polygon>
  </Placemark>
  
    </Document>
</kml>