<?xml version="1.0" encoding="UTF-8"?>
<kml xmlns="http://www.opengis.net/kml/2.2">
    <Document>
        <Placemark xmlns:ns0="http://www.opengis.net/kml/2.2">
	<Style><LineStyle><color>ff0000ff</color></LineStyle><PolyStyle><fill>0</fill></PolyStyle></Style>
	<ExtendedData><SchemaData schemaUrl="#Wave24_v28MAR2025">
		<SimpleData name="area(ha)">5.981684327206788</SimpleData>
		<SimpleData name="site_id">240178_1.4</SimpleData>
		<SimpleData name="Land_parc">240178</SimpleData>
		<SimpleData name="district">Katni</SimpleData>
		<SimpleData name="block">Barwara</SimpleData>
		<SimpleData name="village">Sandhi , Guda Kalan</SimpleData>
		<SimpleData name="Land Type">Community</SimpleData>
		<SimpleData name="Instance">Wave 2024</SimpleData>
	</SchemaData></ExtendedData>
      <Polygon><outerBoundaryIs><LinearRing><coordinates>80.6636723814795,23.7740518215777,0 80.6637812728958,23.7740085503162,0 80.6638440400005,23.7739795443057,0 80.6639429457411,23.7739262873685,0 80.6640970104524,23.7738540100965,0 80.6643366666699,23.7737570063894,0 80.6644660049461,23.7737341819877,0 80.6645810779712,23.7737237208036,0 80.6646990040465,23.7737227697869,0 80.6646748,23.7736105,0 80.6647107,23.7733764,0 80.664704,23.7731606,0 80.6650821,23.7730184,0 80.6652367,23.7729719,0 80.6654308,23.7728792,0 80.6656106,23.7727611,0 80.6659071,23.772583,0 80.6659219,23.7724935,0 80.6657107,23.7724719,0 80.66558,23.7725254,0 80.6654097,23.7724841,0 80.665264,23.7725431,0 80.6650897,23.7724659,0 80.6648421,23.7725076,0 80.664683,23.7723022,0 80.6645546,23.7722207,0 80.6644951,23.7720051,0 80.6644505,23.7719151,0 80.6642876,23.7718033,0 80.6641939,23.7717574,0 80.6641834,23.7717281,0 80.6641649,23.7716678,0 80.6640619,23.7716222,0 80.6639337,23.7716059,0 80.6638464,23.7716324,0 80.6638195,23.771626,0 80.6637634,23.7715647,0 80.6637367,23.7715593,0 80.663654,23.771524,0 80.6635363,23.7715042,0 80.6632992,23.7713679,0 80.6630786,23.7712862,0 80.662897,23.7713366,0 80.6625838,23.7715095,0 80.6625071,23.7715606,0 80.6624177,23.7716034,0 80.6622715,23.7715887,0 80.6622235,23.771594,0 80.6621519,23.77163,0 80.6620171,23.7716219,0 80.6619674,23.7716748,0 80.661987,23.7717528,0 80.6620208,23.7718329,0 80.6620434,23.7719452,0 80.6620915,23.7720834,0 80.6621413,23.7722155,0 80.6621921,23.7722632,0 80.6622406,23.77239,0 80.6623103,23.7724727,0 80.6623278,23.7725452,0 80.6623892,23.7725609,0 80.6624295,23.7726049,0 80.662467,23.7726506,0 80.6624899,23.7726704,0 80.6625085,23.7726935,0 80.6625294,23.7727137,0 80.662577,23.772758,0 80.6625948,23.7728068,0 80.6625998,23.7728396,0 80.6626475,23.7728833,0 80.6626678,23.7729125,0 80.662688,23.772948,0 80.6627073,23.7729711,0 80.6627154,23.7729707,0 80.6627274,23.7730083,0 80.6627354,23.7730288,0 80.6627352,23.7730721,0 80.662727,23.7731431,0 80.6627078,23.7731605,0 80.6626582,23.7731981,0 80.662681,23.7732484,0 80.6626991,23.7732864,0 80.6627288,23.773356,0 80.6627806,23.7733698,0 80.6628193,23.7734042,0 80.6629334,23.7734611,0 80.6630054,23.7734737,0 80.6630882,23.7734756,0 80.6632071,23.7734395,0 80.663288,23.7734402,0 80.6634142,23.7734638,0 80.6634522,23.773502,0 80.6634791,23.773548,0 80.6635086,23.7735775,0 80.6635234,23.7736703,0 80.6634916882996,23.7736875821677,0 80.663547798287,23.7737570063894,0 80.6635896430234,23.7738502060296,0 80.6636172225088,23.773906316017,0 80.6636581162284,23.7739567199041,0 80.6636600182619,23.7740175849752,0 80.6636723814795,23.7740518215777,0</coordinates></LinearRing></outerBoundaryIs></Polygon>
  </Placemark>
  
    </Document>
</kml>