<?xml version="1.0" encoding="UTF-8"?>
<kml xmlns="http://www.opengis.net/kml/2.2">
    <Document>
        <Placemark xmlns:ns0="http://www.opengis.net/kml/2.2">
	<Style><LineStyle><color>ff0000ff</color></LineStyle><PolyStyle><fill>0</fill></PolyStyle></Style>
	<ExtendedData><SchemaData schemaUrl="#Wave24_v28MAR2025">
		<SimpleData name="area(ha)">27.971663915697665</SimpleData>
		<SimpleData name="site_id">240136_1.1</SimpleData>
		<SimpleData name="Land_parc">240136</SimpleData>
		<SimpleData name="district">Katni</SimpleData>
		<SimpleData name="block">Barwara</SimpleData>
		<SimpleData name="village">Bhajarwara and Dhanwara (Gram</SimpleData>
		<SimpleData name="Land Type">Community</SimpleData>
		<SimpleData name="Instance">Wave 2024</SimpleData>
	</SchemaData></ExtendedData>
      <Polygon><outerBoundaryIs><LinearRing><coordinates>80.5879231,23.7258176,0 80.5880329,23.7258178,0 80.5880487,23.7258268,0 80.5881689,23.7258723,0 80.5881889,23.7258811,0 80.5883014,23.7259033,0 80.5883205,23.7259125,0 80.5883624,23.7259107,0 80.5884111,23.7259413,0 80.5884921,23.7259816,0 80.5885348,23.7260011,0 80.5886925,23.7261752,0 80.5887865,23.7262144,0 80.588875,23.7262574,0 80.5889206,23.7262644,0 80.5889946,23.72626,0 80.5890231,23.7262492,0 80.5890904,23.7262642,0 80.5891125,23.7262684,0 80.58912,23.7263277,0 80.5891431,23.7263425,0 80.5891666,23.7263523,0 80.5892413,23.7263697,0 80.5892651,23.7263825,0 80.5892998,23.7264113,0 80.5893415,23.7264273,0 80.5893613,23.7264412,0 80.5894077,23.7264785,0 80.5894576,23.7265067,0 80.5894794,23.7265201,0 80.5894936,23.7265515,0 80.5895667,23.7265872,0 80.5896056,23.7266231,0 80.5896764,23.7266283,0 80.5897371,23.7266215,0 80.5897962,23.7266243,0 80.5898546,23.7265715,0 80.5898875,23.7265603,0 80.5899192,23.7265546,0 80.5900031,23.7265468,0 80.5900595,23.7265556,0 80.5901473,23.7265505,0 80.5902049,23.7265427,0 80.5902678,23.7265553,0 80.5903255,23.7265712,0 80.5903516,23.7265813,0 80.5904124,23.7265889,0 80.5905046,23.7265718,0 80.5905649,23.7265731,0 80.5907002,23.7265793,0 80.5908131,23.7265773,0 80.5908673,23.726568,0 80.5909227,23.7266125,0 80.590974,23.7266459,0 80.5909964,23.7266722,0 80.5910674,23.7267382,0 80.5910783,23.7267597,0 80.591082,23.7268026,0 80.5911369,23.7268334,0 80.5911811,23.7268757,0 80.5911984,23.7268913,0 80.5912439,23.7269333,0 80.5912621,23.7269506,0 80.5913282,23.7270059,0 80.5915047,23.7270383,0 80.5917571,23.7271434,0 80.5917779,23.7271401,0 80.5918913,23.7271239,0 80.5919401,23.7271069,0 80.5920303,23.7270918,0 80.5921523,23.7270977,0 80.5921867,23.7270814,0 80.5922562,23.7270154,0 80.592297,23.727004,0 80.5923622,23.7269961,0 80.5923918,23.7269866,0 80.5924491,23.7269794,0 80.592493,23.7269996,0 80.5925448,23.7270251,0 80.5926049,23.7270409,0 80.5926685,23.7270863,0 80.5927302,23.7271366,0 80.5927793,23.7271699,0 80.5928143,23.7271872,0 80.592863,23.727229,0 80.5929089,23.7272747,0 80.5929402,23.7273,0 80.5929842,23.7273427,0 80.5930037,23.7273667,0 80.5930624,23.7274068,0 80.5931095,23.7274079,0 80.593179,23.727429,0 80.5932368,23.7274744,0 80.5934702,23.7274894,0 80.5935326,23.7275235,0 80.5936162,23.7275615,0 80.5938249,23.727596,0 80.5939453,23.7275784,0 80.5939826,23.7275791,0 80.5941401,23.727539,0 80.5942265,23.7275162,0 80.5943268,23.7275209,0 80.5943565,23.7275151,0 80.594414,23.7275118,0 80.5944753,23.7274892,0 80.594524,23.7274595,0 80.594565,23.7274012,0 80.5945858,23.7273512,0 80.5946149,23.7272846,0 80.5946688,23.7272072,0 80.5947127,23.7271327,0 80.5947568,23.7270549,0 80.5947526,23.7269858,0 80.5947366,23.7269481,0 80.5947678,23.7268036,0 80.5947757,23.7267779,0 80.5948099,23.7266991,0 80.5948427,23.7266223,0 80.5948516,23.7265941,0 80.5949086,23.7265498,0 80.5949141,23.726549,0 80.5949443,23.7265242,0 80.5949824,23.7264534,0 80.5949965,23.7264314,0 80.5950334,23.7263941,0 80.595044,23.7263117,0 80.5950818,23.726232,0 80.5951232,23.7261577,0 80.5951334,23.7261036,0 80.5952506,23.7259394,0 80.5952537,23.7259301,0 80.5951399,23.7258977,0 80.59511,23.7258479,0 80.5950656,23.7258003,0 80.5950089,23.7257293,0 80.5949184,23.7256876,0 80.5949014,23.7256643,0 80.5948582,23.7256247,0 80.5947928,23.7255262,0 80.5947861,23.7255055,0 80.5947892,23.7254357,0 80.5948121,23.7254038,0 80.5948257,23.7253613,0 80.5948388,23.7253412,0 80.5948853,23.7253049,0 80.5949249,23.7252768,0 80.5949415,23.7252268,0 80.5949577,23.7252037,0 80.594974,23.7251788,0 80.5949784,23.7251459,0 80.5949549,23.7250924,0 80.5949571,23.725067,0 80.5949414,23.7250416,0 80.594923,23.7250275,0 80.5948933,23.7249873,0 80.5948606,23.7249464,0 80.5948527,23.7249209,0 80.5947705,23.7248749,0 80.5946934,23.7248347,0 80.5946838,23.7248064,0 80.5946655,23.724752,0 80.594656,23.7247212,0 80.5947571,23.7246214,0 80.5947753,23.7245976,0 80.5947923,23.7245726,0 80.5948096,23.7245168,0 80.5947939,23.7244638,0 80.5947768,23.7244394,0 80.5947399,23.7243896,0 80.5947148,23.7243477,0 80.5946741,23.7243147,0 80.5946124,23.7243287,0 80.5945558,23.7243207,0 80.5944578,23.7242977,0 80.594398,23.7242756,0 80.5943596,23.7242379,0 80.5943262,23.724206,0 80.594263,23.7241899,0 80.5942351,23.7241869,0 80.5942007,23.724105,0 80.5941205,23.7241203,0 80.5940745,23.7241291,0 80.5940213,23.7241299,0 80.5939737,23.7240819,0 80.5939487,23.7240692,0 80.593907,23.7240399,0 80.5938866,23.7240339,0 80.5938677,23.7240169,0 80.5938297,23.7239871,0 80.5937899,23.7239605,0 80.593753,23.7238889,0 80.5937226,23.7238442,0 80.5936996,23.7238226,0 80.5936643,23.7237765,0 80.5936456,23.7237615,0 80.5936294,23.723732,0 80.5936026,23.7237067,0 80.5935885,23.723707,0 80.5935614,23.7236831,0 80.59351,23.7236329,0 80.5934908,23.7236188,0 80.5934473,23.723589,0 80.5934678,23.7235819,0 80.5934634,23.7235735,0 80.5934679,23.723514,0 80.5934262,23.7234781,0 80.5932952,23.7234536,0 80.5932474,23.7234188,0 80.5931965,23.7233636,0 80.5931546,23.7233322,0 80.5930865,23.7232876,0 80.5930754,23.7232434,0 80.5930191,23.7231955,0 80.5929677,23.7231644,0 80.5928819,23.7230803,0 80.5928609,23.7230563,0 80.5928328,23.7230042,0 80.592794,23.7229552,0 80.5927667,23.7229461,0 80.592723,23.7229158,0 80.5926468,23.7228626,0 80.5925905,23.7227942,0 80.5925257,23.7227508,0 80.5924885,23.7226704,0 80.592441,23.722638,0 80.5923873,23.7226214,0 80.5923378,23.7226074,0 80.5922905,23.7225764,0 80.5922053,23.7225119,0 80.5921327,23.7224588,0 80.5921041,23.7224575,0 80.5920105,23.7224735,0 80.5919597,23.7224977,0 80.5919366,23.7225559,0 80.5919167,23.7225752,0 80.5918903,23.7226128,0 80.5918651,23.7226207,0 80.5918107,23.72264,0 80.5917645,23.7226761,0 80.5917224,23.7227131,0 80.5916642,23.722718,0 80.5916374,23.7227125,0 80.5915927,23.7227386,0 80.5914756,23.7227773,0 80.5914342,23.7228132,0 80.5913676,23.7228221,0 80.5913173,23.7228463,0 80.591229,23.7228707,0 80.5911511,23.7228257,0 80.5911081,23.7227837,0 80.5910669,23.7227223,0 80.5910384,23.7227057,0 80.5909717,23.722657,0 80.5909,23.7226164,0 80.590834,23.7225833,0 80.5907742,23.7225707,0 80.5907085,23.7225515,0 80.5906342,23.7225101,0 80.5905724,23.7224842,0 80.5905221,23.7224641,0 80.5904679,23.7224095,0 80.5904207,23.7223714,0 80.5903696,23.7223394,0 80.5902962,23.7222964,0 80.5902523,23.7222577,0 80.5901704,23.7222069,0 80.5901247,23.7221619,0 80.5900221,23.7220962,0 80.5899936,23.722104,0 80.5899379,23.7221381,0 80.5898546,23.7221805,0 80.5897998,23.7222077,0 80.5897741,23.7222188,0 80.5896996,23.7222581,0 80.58967,23.7222771,0 80.5896433,23.7222928,0 80.5895862,23.7223202,0 80.5895201,23.7223798,0 80.5894785,23.7224213,0 80.5894324,23.7224634,0 80.5893562,23.7225233,0 80.5893061,23.7225576,0 80.589285,23.7225775,0 80.5892344,23.7226106,0 80.5891798,23.7226575,0 80.5891216,23.7227064,0 80.5890821,23.7227768,0 80.5890706,23.7228104,0 80.5890553,23.72287,0 80.5890107,23.7229835,0 80.5889966,23.7230314,0 80.5889747,23.7231395,0 80.5889736,23.7232251,0 80.5889603,23.7232801,0 80.5889586,23.7233322,0 80.5889757,23.7234223,0 80.5889793,23.7234781,0 80.5889775,23.723533,0 80.5889802,23.7235641,0 80.5889787,23.7236205,0 80.5889607,23.7236783,0 80.5889389,23.7237097,0 80.5889194,23.7237705,0 80.5889079,23.7238622,0 80.5889022,23.723924,0 80.5888931,23.7239789,0 80.5888807,23.7240126,0 80.5888429,23.7241516,0 80.5888302,23.7242139,0 80.58882,23.7242762,0 80.5888136,23.7243389,0 80.5888112,23.7243702,0 80.5887873,23.7244677,0 80.5887643,23.7245319,0 80.5887431,23.7245914,0 80.5887131,23.7246532,0 80.5886665,23.724732,0 80.5886104,23.7248026,0 80.5885341,23.7248677,0 80.588495,23.7249195,0 80.5884525,23.7249768,0 80.5883913,23.7250497,0 80.5883009,23.7251748,0 80.5882469,23.7252494,0 80.5881737,23.7253242,0 80.588125,23.7254152,0 80.58809,23.7254704,0 80.5880535,23.7255239,0 80.5879753,23.7256085,0 80.5879342,23.7256664,0 80.5878987,23.725716,0 80.587881,23.7257457,0 80.5878901,23.7257793,0 80.5879184,23.725812,0 80.5879249,23.7258077,0 80.5879231,23.7258176,0</coordinates></LinearRing></outerBoundaryIs></Polygon>
  </Placemark>
  
    </Document>
</kml>