<?xml version="1.0" encoding="UTF-8"?>
<kml xmlns="http://www.opengis.net/kml/2.2">
    <Document>
        <Placemark xmlns:ns0="http://www.opengis.net/kml/2.2">
	<Style><LineStyle><color>ff0000ff</color></LineStyle><PolyStyle><fill>0</fill></PolyStyle></Style>
	<ExtendedData><SchemaData schemaUrl="#Wave24_v28MAR2025">
		<SimpleData name="area(ha)">3.832335962431709</SimpleData>
		<SimpleData name="site_id">240107_1.1</SimpleData>
		<SimpleData name="Land_parc">240107</SimpleData>
		<SimpleData name="district">Chhatarpur</SimpleData>
		<SimpleData name="block">Bijawar</SimpleData>
		<SimpleData name="village">Gulat</SimpleData>
		<SimpleData name="Land Type">Farmer</SimpleData>
		<SimpleData name="Instance">Wave 2024</SimpleData>
	</SchemaData></ExtendedData>
      <Polygon><outerBoundaryIs><LinearRing><coordinates>79.4810356144556,24.5740144087286,0 79.4808305805268,24.5741519631365,0 79.4806644770909,24.5742648615656,0 79.4806524838347,24.57429041244,0 79.4805991,24.5743257,0 79.4804825,24.5745097,0 79.4801502,24.5747857,0 79.4801048256442,24.5748563698608,0 79.4800860432913,24.5749301517253,0 79.4801401605326,24.5751972519178,0 79.4801953060098,24.5753791525557,0 79.4804036140839,24.5753419267401,0 79.4804993278958,24.5753297831809,0 79.4805591292554,24.5753238318779,0 79.4806137838911,24.5753484168086,0 79.4806882084753,24.5753185794036,0 79.4808004600498,24.5753218965635,0 79.4810948470313,24.5752789833966,0 79.4812138964845,24.5753129569848,0 79.4812775800071,24.5753813301307,0 79.4813828493717,24.5753692823611,0 79.4814874547517,24.5753343510796,0 79.4819444571874,24.5751586417193,0 79.4820403102911,24.5751856227676,0 79.4821444263722,24.5752947933463,0 79.4822682410097,24.5752638396869,0 79.4823611019878,24.575176137652,0 79.4823643387841,24.5751709756148,0 79.4824592,24.5750972,0 79.4826098643808,24.5748594649522,0 79.4825971244736,24.5747837841823,0 79.4826254978283,24.5747053840824,0 79.4826061517912,24.5745841489165,0 79.482523310059,24.5742646169935,0 79.4825219978585,24.5740413838783,0 79.4827933262055,24.5739333035353,0 79.4827818295412,24.5738918022798,0 79.4827081044538,24.5736025045623,0 79.4826859458836,24.5735475650072,0 79.482640974658,24.5733911432949,0 79.4822438,24.5734835,0 79.4818106,24.5736146,0 79.4814958,24.5737012,0 79.4812146947225,24.5738457099265,0 79.4811926341099,24.5738820450531,0 79.4811394291031,24.5739144871304,0 79.4810356144556,24.5740144087286,0</coordinates></LinearRing></outerBoundaryIs></Polygon>
  </Placemark>
  
    </Document>
</kml>