<?xml version="1.0" encoding="UTF-8"?>
<kml xmlns="http://www.opengis.net/kml/2.2">
    <Document>
        <Placemark xmlns:ns0="http://www.opengis.net/kml/2.2">
	<Style><LineStyle><color>ff0000ff</color></LineStyle><PolyStyle><fill>0</fill></PolyStyle></Style>
	<ExtendedData><SchemaData schemaUrl="#Wave24_v28MAR2025">
		<SimpleData name="area(ha)">1.372199940602254</SimpleData>
		<SimpleData name="site_id">240115_1.4</SimpleData>
		<SimpleData name="Land_parc">240115</SimpleData>
		<SimpleData name="district">Damoh</SimpleData>
		<SimpleData name="block">Batyagarh</SimpleData>
		<SimpleData name="village">Singhpur (Sakri, Neemkheda, Kh</SimpleData>
		<SimpleData name="Land Type">Community</SimpleData>
		<SimpleData name="Instance">Wave 2024</SimpleData>
	</SchemaData></ExtendedData>
      <Polygon><outerBoundaryIs><LinearRing><coordinates>79.4040324,24.1947543,0 79.4041089,24.1949539,0 79.4041697,24.1949892,0 79.4042729,24.1949886,0 79.4043633,24.194955,0 79.4043942,24.194944,0 79.4044592,24.1949265,0 79.4045158,24.1948987,0 79.4045493,24.1948967,0 79.4045838,24.1948917,0 79.4047241,24.1948981,0 79.4048532,24.1949318,0 79.4049465,24.1949478,0 79.4050759,24.1948751,0 79.4051813,24.1948712,0 79.40526,24.1948134,0 79.4051928,24.1947903,0 79.4052235,24.1947079,0 79.4052971,24.194685,0 79.4053269,24.1946872,0 79.4053378,24.1946678,0 79.4053805221714,24.1946729241037,0 79.4054036417358,24.1946647642575,0 79.4053995618127,24.1946049253849,0 79.4053995618127,24.1945518863842,0 79.4053886820177,24.1945124471272,0 79.4053805221714,24.1944512482803,0 79.4053519627095,24.1943655698945,0 79.4053043636063,24.1943791696383,0 79.4052513246056,24.1943750897151,0 79.4052812440419,24.1942962112013,0 79.4053642024789,24.194288051355,0 79.4053220432732,24.1942295724568,0 79.4053315630938,24.1941874132511,0 79.4053152434013,24.194143894071,0 79.4052989237088,24.1940894950959,0 79.4052866839394,24.1940119765564,0 79.4052730841956,24.1939031786062,0 79.4051373,24.1939373,0 79.4051036,24.1939463,0 79.4050388,24.1939512,0 79.4049289,24.1939654,0 79.4048964,24.1939676,0 79.4048634,24.1939771,0 79.4048352,24.193988,0 79.4047721,24.1940041,0 79.4047415,24.1940135,0 79.4047086,24.1940173,0 79.4046776,24.1940213,0 79.4046143,24.1940221,0 79.4045566,24.1940317,0 79.4045248,24.194032,0 79.4044906,24.1940376,0 79.4043771,24.1940516,0 79.4043455,24.1940528,0 79.4042488,24.1940593,0 79.4041823847451,24.1940813352497,0 79.4041211858981,24.1940976549422,0 79.4040790266925,24.1940949349934,0 79.4040259876917,24.1941003748909,0 79.403983828486,24.1941112546859,0 79.4039049393831,24.1941258196954,0 79.4039103898697,24.1941806133792,0 79.4039280695366,24.1942703716881,0 79.4039607089216,24.1943696498176,0 79.4039593489473,24.1944879675884,0 79.4039498291266,24.1945600462304,0 79.4039389493316,24.1946103652824,0 79.4039262,24.1946456,0 79.4039732,24.1947353,0 79.4040307,24.1947532,0 79.4040324,24.1947543,0</coordinates></LinearRing></outerBoundaryIs></Polygon>
  </Placemark>
  
    </Document>
</kml>