<?xml version="1.0" encoding="UTF-8"?>
<kml xmlns="http://www.opengis.net/kml/2.2">
    <Document>
        <Placemark xmlns:ns0="http://www.opengis.net/kml/2.2">
	<Style><LineStyle><color>ff0000ff</color></LineStyle><PolyStyle><fill>0</fill></PolyStyle></Style>
	<ExtendedData><SchemaData schemaUrl="#Wave24_v28MAR2025">
		<SimpleData name="area(ha)">0.752345950231957</SimpleData>
		<SimpleData name="site_id">240162_1.1</SimpleData>
		<SimpleData name="Land_parc">240162</SimpleData>
		<SimpleData name="district">Chhatarpur</SimpleData>
		<SimpleData name="block">bijawar</SimpleData>
		<SimpleData name="village">Mednipura</SimpleData>
		<SimpleData name="Land Type">Farmer</SimpleData>
		<SimpleData name="Instance">Wave 2024</SimpleData>
	</SchemaData></ExtendedData>
      <Polygon><outerBoundaryIs><LinearRing><coordinates>79.4761426930601,24.5629333794902,0 79.4755079936866,24.56308945299,0 79.4748013572136,24.5632199663227,0 79.4747323715949,24.5632386110846,0 79.4746913531189,24.5632647137511,0 79.4746666488095,24.563274036132,0 79.4746647843333,24.5632866213463,0 79.4746657165714,24.5633020032747,0 79.4746713099999,24.5633192496794,0 79.4746685132856,24.5633304365365,0 79.4746750389523,24.5633444201079,0 79.4746741067142,24.5633630648697,0 79.4746787679046,24.5633817096315,0 79.4746843613332,24.5634022188695,0 79.474682496857,24.5634227281075,0 79.4746918192379,24.5634451018217,0 79.4747011416188,24.563478662393,0 79.474723515333,24.5634973071548,0 79.4747272442854,24.5635206131071,0 79.4747353,24.5635377,0 79.4747384311425,24.563550444726,0 79.474753346952,24.5635485802498,0 79.4747682627614,24.5635513769641,0 79.4748027555708,24.5635448512975,0 79.4748307227135,24.5635420545832,0 79.4748885214752,24.5635392578689,0 79.4749425912844,24.5635262065356,0 79.4749668294748,24.5635215453452,0 79.4749910676652,24.5635131552024,0 79.4750264927126,24.5635075617738,0 79.4750628499982,24.5635019683453,0 79.4751290389027,24.5634982393929,0 79.4751691251406,24.5634907814882,0 79.4752213304737,24.5634805268692,0 79.4752511620926,24.5634777301549,0 79.4752791292353,24.5634730689644,0 79.4753304023303,24.5634656110597,0 79.4753546405207,24.5634609498693,0 79.4753947267586,24.5634562886788,0 79.4754301518061,24.563447898536,0 79.4754663,24.5634458,0 79.4755075275676,24.5634544242026,0 79.4755401559008,24.5634590853931,0 79.4755709197578,24.5634926459644,0 79.4756305829956,24.5635280710118,0 79.475675330424,24.5635262065356,0 79.4757070265191,24.563519680869,0 79.4757349936618,24.5635150196785,0 79.4757666897569,24.56350942625,0 79.4757825378045,24.5635084940119,0 79.4757955891377,24.5635019683453,0 79.4758133016615,24.5634973071548,0 79.4758384720899,24.563499171631,0 79.4758505911851,24.5634973071548,0 79.4758822872802,24.5634982393929,0 79.475911186661,24.5634907814882,0 79.4759447472323,24.5634907814882,0 79.4759894946607,24.5634851880596,0 79.4760370388033,24.5634805268692,0 79.4760743283269,24.5634767979168,0 79.4761088211363,24.563468407774,0 79.4761656876599,24.5634656110597,0 79.4762141640406,24.5634488307741,0 79.4762929381592,24.5634465001789,0 79.4763553981113,24.5633476829412,0 79.4763572625875,24.5633075967033,0 79.4763693816827,24.5632768328463,0 79.4763805685398,24.5632525946559,0 79.4763796363017,24.5632302209417,0 79.4763665849684,24.5631910669419,0 79.4763581948256,24.563150980704,0 79.4763628560161,24.5631164878946,0 79.4763386178257,24.5630633503234,0 79.4762845480164,24.5630596213711,0 79.4762742933974,24.5630241963236,0 79.476195,24.5630201,0 79.4761823,24.5629995,0 79.4761689504931,24.5629887712762,0 79.4761649,24.5629674,0 79.4761773406359,24.5629328369907,0 79.4761426930601,24.5629333794902,0</coordinates></LinearRing></outerBoundaryIs></Polygon>
  </Placemark>
  
    </Document>
</kml>