<?xml version="1.0" encoding="UTF-8"?>
<kml xmlns="http://www.opengis.net/kml/2.2">
    <Document>
        <Placemark xmlns:ns0="http://www.opengis.net/kml/2.2">
	<Style><LineStyle><color>ff0000ff</color></LineStyle><PolyStyle><fill>0</fill></PolyStyle></Style>
	<ExtendedData><SchemaData schemaUrl="#Wave24_v28MAR2025">
		<SimpleData name="area(ha)">10.407619635531541</SimpleData>
		<SimpleData name="site_id">240247_1.1</SimpleData>
		<SimpleData name="Land_parc">240247</SimpleData>
		<SimpleData name="district">Damoh</SimpleData>
		<SimpleData name="block">Damoh</SimpleData>
		<SimpleData name="village">Kewolari</SimpleData>
		<SimpleData name="Land Type">Community</SimpleData>
		<SimpleData name="Instance">Wave 2024</SimpleData>
	</SchemaData></ExtendedData>
      <Polygon><outerBoundaryIs><LinearRing><coordinates>79.5547174,23.8099861,0 79.5545885,23.8099985,0 79.5545516,23.8100042,0 79.554552134268,23.810005501121,0 79.5545857,23.8100105,0 79.5545873,23.8100195,0 79.5545529,23.8100214,0 79.5545162,23.8100292,0 79.5545069,23.8100191,0 79.5544797,23.8100279,0 79.5544381,23.8100286,0 79.5544152,23.8100122,0 79.5543663,23.8100187,0 79.554366,23.8100444,0 79.5543838,23.8100572,0 79.5543841,23.8100869,0 79.5543661,23.8101497,0 79.5543616,23.8101616,0 79.5543514,23.810226,0 79.5543453,23.8102252,0 79.5543102,23.8102514,0 79.5542891,23.8102709,0 79.5542988,23.8103297,0 79.5542859,23.8103697,0 79.5542761,23.8103909,0 79.5542552,23.8104073,0 79.5542283,23.8104585,0 79.5542224,23.8104888,0 79.5542025,23.8105467,0 79.5541858,23.8105727,0 79.5541745,23.8106013,0 79.5541702,23.8106264,0 79.5541685,23.8106436,0 79.5541616,23.8106664,0 79.5541548,23.8106945,0 79.5541403,23.8107195,0 79.5541159,23.810762,0 79.554102,23.8107845,0 79.5540933,23.8108068,0 79.554069,23.81085,0 79.5540556,23.8108728,0 79.5540459,23.81089,0 79.5540374,23.810913,0 79.5540304,23.8109301,0 79.5540153,23.8109527,0 79.5540071,23.8109746,0 79.5539962,23.8109999,0 79.5539968,23.8110239,0 79.5539805,23.8110787,0 79.5539799,23.8111204,0 79.5539719,23.8111422,0 79.5539582,23.8111807,0 79.5539519,23.8111949,0 79.5539492,23.8111947,0 79.5539408,23.8111945,0 79.553936,23.8111916,0 79.55393,23.8111894,0 79.5539228,23.8112107,0 79.5539126,23.8112321,0 79.5539061,23.8112426,0 79.5538978,23.8112752,0 79.553892,23.811296,0 79.5538791,23.8113171,0 79.5538708,23.8113401,0 79.5538718,23.8113629,0 79.5538546,23.8113718,0 79.5538398,23.8113729,0 79.5538255,23.8113991,0 79.5538245,23.8114239,0 79.5538123,23.8114286,0 79.5538062,23.8114543,0 79.5537983,23.8114596,0 79.5537991,23.8114902,0 79.5537948,23.8114941,0 79.5537879,23.8115123,0 79.553788,23.8115383,0 79.5537834,23.8115462,0 79.5537889,23.8115637,0 79.5537891,23.8115715,0 79.5537914,23.8115856,0 79.553793,23.8115846,0 79.5537903,23.8116028,0 79.553789,23.8116106,0 79.5537883,23.8116299,0 79.5537903,23.8116421,0 79.5537938,23.8116609,0 79.553795,23.811678,0 79.5537925,23.8116994,0 79.5537935,23.8117224,0 79.5537935,23.8117465,0 79.5537916,23.8117748,0 79.5537758,23.8118293,0 79.5540713,23.8119397,0 79.5543883,23.8120192,0 79.554551,23.812143,0 79.5547309,23.8122969,0 79.5549518,23.8124172,0 79.5552447,23.8124965,0 79.5555388,23.8125131,0 79.5557969,23.8125018,0 79.5561091258118,23.8124065637702,0 79.5562989703786,23.8123228088143,0 79.5565334842553,23.812099462265,0 79.5567959164507,23.8118537810609,0 79.5570471813186,23.8114629245997,0 79.557203523903,23.8112172433956,0 79.5573375318326,23.8110329824924,0 79.557494,23.8108374,0 79.5575818,23.8106034,0 79.5576555,23.810387,0 79.5577461,23.8101802,0 79.557808,23.8100281,0 79.5579106,23.8097672,0 79.5580242,23.8095011,0 79.5581247,23.8092221,0 79.5581584,23.8090486,0 79.5581319,23.8090576,0 79.5578856,23.808944,0 79.5575383,23.8089962,0 79.5575168,23.8089687,0 79.5573421,23.8089808,0 79.5572098,23.8090142,0 79.5572562,23.8089904,0 79.5571347,23.8090463,0 79.5570215,23.8091211,0 79.5568957,23.8091501,0 79.5566151,23.8092849,0 79.5565247,23.8093455,0 79.5563278,23.8095193,0 79.5561483,23.8096293,0 79.5561115,23.8096195,0 79.5561073,23.8096193,0 79.5561056,23.8096165,0 79.5561054,23.809605,0 79.5560991,23.8095944,0 79.5560311,23.8095983,0 79.5559417,23.8096543,0 79.5559207,23.8096606,0 79.555869,23.8096761,0 79.5558399,23.8096933,0 79.555821,23.8097041,0 79.5557762,23.8097224,0 79.555723,23.8097262,0 79.555683,23.8097307,0 79.555627,23.8097387,0 79.5555368,23.8097578,0 79.5554922,23.8097808,0 79.5554656,23.8097942,0 79.5553721,23.809815,0 79.5553418,23.8098221,0 79.5553261,23.8098245,0 79.5553045,23.8098098,0 79.5552547,23.8098005,0 79.5551956,23.8098079,0 79.5551963,23.8098128,0 79.555185,23.8098385,0 79.5551421,23.8098476,0 79.5551053,23.8098549,0 79.5550803,23.8098595,0 79.5550572,23.8098691,0 79.5550403,23.8098742,0 79.5550255,23.8098789,0 79.5548834,23.8099281,0 79.5548595,23.8099272,0 79.5547959,23.8099533,0 79.5547235,23.809976,0 79.5547112,23.8099799,0 79.5547142,23.8099834,0 79.5547141,23.8099797,0 79.5547174,23.8099861,0</coordinates></LinearRing></outerBoundaryIs></Polygon>
  </Placemark>
  
    </Document>
</kml>