<?xml version="1.0" encoding="UTF-8"?>
<kml xmlns="http://www.opengis.net/kml/2.2">
    <Document>
        <Placemark xmlns:ns0="http://www.opengis.net/kml/2.2">
	<Style><LineStyle><color>ff0000ff</color></LineStyle><PolyStyle><fill>0</fill></PolyStyle></Style>
	<ExtendedData><SchemaData schemaUrl="#Wave24_v28MAR2025">
		<SimpleData name="area(ha)">1.802318383275438</SimpleData>
		<SimpleData name="site_id">240220_1.1</SimpleData>
		<SimpleData name="Land_parc">240220</SimpleData>
		<SimpleData name="district">Damoh</SimpleData>
		<SimpleData name="block">Tendukheda</SimpleData>
		<SimpleData name="village">Devri Leeladhar</SimpleData>
		<SimpleData name="Land Type">Farmer</SimpleData>
		<SimpleData name="Instance">Wave 2024</SimpleData>
	</SchemaData></ExtendedData>
      <Polygon><outerBoundaryIs><LinearRing><coordinates>79.4979836637381,23.6103977854688,0 79.4979495877348,23.6104053579139,0 79.4978094974989,23.6104370675281,0 79.4977915129415,23.6104522124185,0 79.497787726719,23.6105061660905,0 79.497803818165,23.6106860116636,0 79.4978549321699,23.6112260216608,0 79.4983376755505,23.6111256867621,0 79.4989851196138,23.6109250169647,0 79.4991744307434,23.6113812567871,0 79.499498152775,23.6111559765429,0 79.4996874639047,23.6109950620827,0 79.4996761052369,23.6109439480777,0 79.4997272192419,23.6108985134066,0 79.4996391895666,23.6108180561765,0 79.4995767168938,23.610693110831,0 79.4993817264303,23.6105151583691,0 79.4993892988755,23.610367495688,0 79.4993627953173,23.6101516810003,0 79.4993078950898,23.6099850872062,0 79.499146034074,23.6100295753217,0 79.4989784937243,23.6100996204396,0 79.4988194723754,23.6101194981082,0 79.4984048810015,23.6102236192295,0 79.4982875081011,23.6102633745667,0 79.4982657373212,23.6103059695709,0 79.4980631744125,23.6103656025767,0 79.4979836637381,23.6103977854688,0</coordinates></LinearRing></outerBoundaryIs></Polygon>
  </Placemark>
  
    </Document>
</kml>