<?xml version="1.0" encoding="UTF-8"?>
<kml xmlns="http://www.opengis.net/kml/2.2">
    <Document>
        <Placemark xmlns:ns0="http://www.opengis.net/kml/2.2">
	<Style><LineStyle><color>ff0000ff</color></LineStyle><PolyStyle><fill>0</fill></PolyStyle></Style>
	<ExtendedData><SchemaData schemaUrl="#Wave24_v28MAR2025">
		<SimpleData name="area(ha)">9.129736851423271</SimpleData>
		<SimpleData name="site_id">240228_1.2</SimpleData>
		<SimpleData name="Land_parc">240228</SimpleData>
		<SimpleData name="district">Katni</SimpleData>
		<SimpleData name="block">Bahoriband</SimpleData>
		<SimpleData name="village">Masanda</SimpleData>
		<SimpleData name="Land Type">Community</SimpleData>
		<SimpleData name="Instance">Wave 2024</SimpleData>
	</SchemaData></ExtendedData>
      <Polygon><outerBoundaryIs><LinearRing><coordinates>79.9599894,23.6981653,0 79.9600902,23.6983056,0 79.9604534899868,23.6981157848801,0 79.9606236,23.6980601,0 79.9610256,23.6977743,0 79.9609776,23.6974006,0 79.9612163,23.6974065,0 79.9613383,23.6973379,0 79.9618122,23.697117,0 79.962215,23.6968947,0 79.962342,23.6968557,0 79.9624459,23.696963,0 79.9625549972265,23.6968999993026,0 79.9628177454015,23.6968128526699,0 79.9630622713027,23.6967044151041,0 79.9630559,23.6964307,0 79.9627496,23.6960748,0 79.9625276,23.6957793,0 79.9624915,23.6956735,0 79.9623976666592,23.6954287986203,0 79.9623753496941,23.6953439753823,0 79.9623075288986,23.6951995755693,0 79.962135779336,23.6948258601326,0 79.9615830413829,23.6949576311164,0 79.9613987170757,23.6950114326646,0 79.9611913394486,23.6950735464577,0 79.9607119207651,23.6952354422211,0 79.9600311797634,23.6954797588503,0 79.95954999608,23.6956594726736,0 79.9588154667925,23.6959651223316,0 79.9588182,23.6962033,0 79.9590913,23.6967071,0 79.9593425,23.69709,0 79.9595969,23.6975042,0 79.9598595,23.6979013,0 79.9599668,23.6981198,0 79.9599894,23.6981653,0</coordinates></LinearRing></outerBoundaryIs></Polygon>
  </Placemark>
  
    </Document>
</kml>