<?xml version="1.0" encoding="UTF-8"?>
<kml xmlns="http://www.opengis.net/kml/2.2">
    <Document>
        <Placemark xmlns:ns0="http://www.opengis.net/kml/2.2">
	<Style><LineStyle><color>ff0000ff</color></LineStyle><PolyStyle><fill>0</fill></PolyStyle></Style>
	<ExtendedData><SchemaData schemaUrl="#Wave24_v28MAR2025">
		<SimpleData name="area(ha)">16.973819173365552</SimpleData>
		<SimpleData name="site_id">240245_1.1</SimpleData>
		<SimpleData name="Land_parc">240245</SimpleData>
		<SimpleData name="district">Damoh</SimpleData>
		<SimpleData name="block">Jabera</SimpleData>
		<SimpleData name="village">Guda</SimpleData>
		<SimpleData name="Land Type">Community</SimpleData>
		<SimpleData name="Instance">Wave 2024</SimpleData>
	</SchemaData></ExtendedData>
      <Polygon><outerBoundaryIs><LinearRing><coordinates>79.4951397635317,23.6627693276925,0 79.4950782603917,23.6626887373711,0 79.4949382877283,23.6626060262518,0 79.4942341828155,23.6624893823657,0 79.4939627206804,23.6620418940024,0 79.4938333520066,23.66180860623,0 79.4935937018405,23.6616643919708,0 79.4933752596537,23.6615944056391,0 79.4930677439538,23.6616665127687,0 79.4928386977773,23.6619485788934,0 79.4927284162849,23.6621988330492,0 79.4923445518595,23.6629877698793,0 79.4926372219739,23.6631447089261,0 79.4924378669684,23.663513727766,0 79.4921833712168,23.6634819157971,0 79.4919625,23.6636682,0 79.4913721660085,23.6639601557303,0 79.4904124,23.663976,0 79.4898621578821,23.6641807187151,0 79.4892259185029,23.6646812270267,0 79.4890191407047,23.6651212925972,0 79.4889894495336,23.6655709017585,0 79.4889109800102,23.6659462829921,0 79.4889406711812,23.6663619593865,0 79.4890297446943,23.6665231400292,0 79.4890806438446,23.6662474362983,0 79.4891103350156,23.6660353565052,0 79.4893775555549,23.6658232767122,0 79.4899894057579,23.6658646322718,0 79.4904814308777,23.665525304603,0 79.4907359266294,23.6653641239602,0 79.4909649728058,23.6657289012043,0 79.4920762709214,23.6650247962914,0 79.4925216384867,23.6648975484156,0 79.4929511000676,23.6648328640787,0 79.4934293400009,23.6650078299079,0 79.4938609223797,23.6652103661103,0 79.4942140352352,23.6655125798154,0 79.4944727725827,23.6656695188622,0 79.4949478313191,23.6657713171629,0 79.4951344615369,23.6656864852457,0 79.4952511054231,23.6654574390692,0 79.4954643,23.6648853,0 79.4955999766827,23.6644945968088,0 79.4958438684447,23.6641976850986,0 79.496077156217,23.6639368269531,0 79.4961662297301,23.6637841295021,0 79.4962086456887,23.6636483984346,0 79.4961121493828,23.6634151106623,0 79.4959774787142,23.6631553129158,0 79.495831143657,23.6631235009468,0 79.4956423926412,23.6631934872785,0 79.4953306353454,23.6631574337137,0 79.4952245954489,23.663087447382,0 79.4951143139565,23.6628414348221,0 79.4951397635317,23.6627693276925,0</coordinates></LinearRing></outerBoundaryIs></Polygon>
  </Placemark>
  
    </Document>
</kml>