<?xml version="1.0" encoding="UTF-8"?>
<kml xmlns="http://www.opengis.net/kml/2.2">
    <Document>
        <Placemark xmlns:ns0="http://www.opengis.net/kml/2.2">
	<Style><LineStyle><color>ff0000ff</color></LineStyle><PolyStyle><fill>0</fill></PolyStyle></Style>
	<ExtendedData><SchemaData schemaUrl="#Wave24_v28MAR2025">
		<SimpleData name="area(ha)">9.504863742950024</SimpleData>
		<SimpleData name="site_id">240251_1.1</SimpleData>
		<SimpleData name="Land_parc">240251</SimpleData>
		<SimpleData name="district">Chhatarpur</SimpleData>
		<SimpleData name="block">Nowgong</SimpleData>
		<SimpleData name="village">Mahewa</SimpleData>
		<SimpleData name="Land Type">Community</SimpleData>
		<SimpleData name="Instance">Wave 2024</SimpleData>
	</SchemaData></ExtendedData>
      <Polygon><outerBoundaryIs><LinearRing><coordinates>79.4972879,24.9862179,0 79.4973105,24.9862149,0 79.4971306,24.986055,0 79.4970505,24.9859747,0 79.4969796,24.9859465,0 79.4969102,24.9858807,0 79.4968355,24.9857975,0 79.4966911,24.9855906,0 79.4965619,24.9855879,0 79.4963407,24.9856193,0 79.4962237,24.985561,0 79.4960944,24.9854834,0 79.4959603,24.9854268,0 79.4958053,24.9854053,0 79.4957771,24.9854184,0 79.4957123,24.9854429,0 79.4955748,24.9854665,0 79.4954674,24.9854587,0 79.4953307,24.9854299,0 79.495205,24.9853698,0 79.4951028,24.9852986,0 79.4950534,24.9852788,0 79.4949449,24.9852137,0 79.494825,24.9852033,0 79.4948203,24.9852115,0 79.4947613,24.9852043,0 79.4947222,24.9851736,0 79.4946884,24.9851441,0 79.4946368,24.9851304,0 79.4945581,24.9850265,0 79.4945335,24.9849996,0 79.4945051,24.9849027,0 79.4944288,24.9847799,0 79.4944216,24.9847761,0 79.4943346,24.9846468,0 79.4943089,24.9846125,0 79.4942786,24.9845408,0 79.4941538,24.984425,0 79.4940096,24.9844049,0 79.4939223,24.9844074,0 79.4937738,24.9843942,0 79.493707,24.9844013,0 79.4936086,24.9844103,0 79.4934757,24.9843896,0 79.4933445,24.9843523,0 79.4932448,24.984438,0 79.493073,24.9845737,0 79.4929642,24.9847054,0 79.4929423,24.9851661,0 79.4930042,24.9852504,0 79.4930448,24.9855059,0 79.4930844,24.9857598,0 79.4931256,24.9858109,0 79.4931591,24.9858803,0 79.493215,24.9860164,0 79.4932584,24.986124,0 79.4933293,24.9862147,0 79.493432,24.9864185,0 79.4935138,24.9865189,0 79.4936325,24.9866269,0 79.4937269,24.9867085,0 79.4938029,24.9868708,0 79.4938944,24.9869789,0 79.493944,24.9871518,0 79.4940246,24.9872616,0 79.4941955,24.9874432,0 79.4943214,24.987427,0 79.4945229,24.9874476,0 79.4947199,24.9875209,0 79.4948603,24.9876139,0 79.494927,24.9876315,0 79.4950395,24.9876787,0 79.495373,24.9878119,0 79.4954701,24.9877941,0 79.4955895,24.9876978,0 79.4956589,24.9876361,0 79.4957505,24.9875841,0 79.495854,24.9875148,0 79.4959627,24.9874158,0 79.4961246,24.9874711,0 79.4961304,24.987401,0 79.4963407,24.9872254,0 79.4964776,24.9871977,0 79.4965921,24.9871244,0 79.4967079,24.9870445,0 79.4967976,24.9869954,0 79.4968777,24.9868557,0 79.4969568,24.9867033,0 79.4970608,24.9865376,0 79.4971436,24.9864011,0 79.4972102,24.9863176,0 79.4972879,24.9862179,0</coordinates></LinearRing></outerBoundaryIs></Polygon>
  </Placemark>
  
    </Document>
</kml>