<?xml version="1.0" encoding="UTF-8"?>
<kml xmlns="http://www.opengis.net/kml/2.2">
    <Document>
        <Placemark xmlns:ns0="http://www.opengis.net/kml/2.2">
	<Style><LineStyle><color>ff0000ff</color></LineStyle><PolyStyle><fill>0</fill></PolyStyle></Style>
	<ExtendedData><SchemaData schemaUrl="#Wave24_v28MAR2025">
		<SimpleData name="area(ha)">1.796917526953359</SimpleData>
		<SimpleData name="site_id">240230_1.1</SimpleData>
		<SimpleData name="Land_parc">240230</SimpleData>
		<SimpleData name="district">Damoh</SimpleData>
		<SimpleData name="block">Tendukheda</SimpleData>
		<SimpleData name="village">Deori leeladhar</SimpleData>
		<SimpleData name="Land Type">Farmer</SimpleData>
		<SimpleData name="Instance">Wave 2024</SimpleData>
	</SchemaData></ExtendedData>
      <Polygon><outerBoundaryIs><LinearRing><coordinates>79.5048691525422,23.6010405275418,0 79.5049914998409,23.6011500926512,0 79.5049836516927,23.6013560508014,0 79.5049723885292,23.6014310176433,0 79.505000150629,23.6015216011263,0 79.5053461080464,23.6020730382602,0 79.5055177913731,23.6024901453286,0 79.5056234440931,23.6024640674917,0 79.5056890102147,23.602691617939,0 79.5057244888445,23.6029121050427,0 79.5060851781629,23.6027586519748,0 79.5062815286142,23.6027289306195,0 79.5063288724949,23.602551011684,0 79.5065621050801,23.6023881461911,0 79.5065633332257,23.6023878757672,0 79.5062966586344,23.6018665566931,0 79.5061069162249,23.6015294322317,0 79.5059794900575,23.6013148340854,0 79.5059574027881,23.6013180083953,0 79.5058960023541,23.6013309649462,0 79.5058174527659,23.6013437564294,0 79.5057584510147,23.6013612518184,0 79.5055674595519,23.6014587613041,0 79.5054587061468,23.601109997205,0 79.5054549963817,23.6010049689488,0 79.5052340610068,23.6010152604833,0 79.5050288276814,23.6009912698631,0 79.5048330300877,23.6009724501263,0 79.5048691525422,23.6010405275418,0</coordinates></LinearRing></outerBoundaryIs><innerBoundaryIs><LinearRing><coordinates>79.5059643822089,23.602644969812,0 79.505928206889,23.6026711065573,0 79.5058899445315,23.6026500696651,0 79.5058718568717,23.6026162831342,0 79.5059358593605,23.6025888714141,0 79.5059671649258,23.6026073583888,0 79.5059643822089,23.602644969812,0</coordinates></LinearRing></innerBoundaryIs></Polygon>
  </Placemark>
  
    </Document>
</kml>