<?xml version="1.0" encoding="UTF-8"?>
<kml xmlns="http://www.opengis.net/kml/2.2">
    <Document>
        <Placemark xmlns:ns0="http://www.opengis.net/kml/2.2">
	<Style><LineStyle><color>ff0000ff</color></LineStyle><PolyStyle><fill>0</fill></PolyStyle></Style>
	<ExtendedData><SchemaData schemaUrl="#Wave24_v28MAR2025">
		<SimpleData name="area(ha)">21.488420568875782</SimpleData>
		<SimpleData name="site_id">240228_2.2</SimpleData>
		<SimpleData name="Land_parc">240228</SimpleData>
		<SimpleData name="district">Katni</SimpleData>
		<SimpleData name="block">Bahoriband</SimpleData>
		<SimpleData name="village">Masanda</SimpleData>
		<SimpleData name="Land Type">Community</SimpleData>
		<SimpleData name="Instance">Wave 2024</SimpleData>
	</SchemaData></ExtendedData>
      <Polygon><outerBoundaryIs><LinearRing><coordinates>79.9554631049017,23.700006783834,0 79.9561947015613,23.699336886455,0 79.9564690503087,23.6993009989984,0 79.9569001697689,23.6993009989984,0 79.9575533810722,23.6993488489384,0 79.9583111061839,23.6992531490409,0 79.9588598036787,23.6990258615033,0 79.9590557670697,23.6988344611646,0 79.9596436572427,23.6986789481828,0 79.9599441344422,23.6987267983508,0 79.9599441344422,23.6983200713637,0 79.9598526848597,23.697961193558,0 79.9594999507559,23.6975425015377,0 79.9590949597479,23.6970520320345,0 79.9589381890351,23.6969324050468,0 79.9586246476095,23.6966452998292,0 79.9586769045138,23.6959873479906,0 79.9585070695749,23.6959634224067,0 79.9579453078541,23.6963342684642,0 79.95752725262,23.6962983801821,0 79.9569524266731,23.6964060449988,0 79.9571353258381,23.6965974488982,0 79.9567433990561,23.6967888525169,0 79.9545747375292,23.6965376352098,0 79.952549782489,23.696453896,0 79.9530723515316,23.6965854861627,0 79.9533336360529,23.6971477335457,0 79.9530592873056,23.697267360336,0 79.9532944433748,23.6975185762388,0 79.9532683149226,23.6979731561675,0 79.9531899295662,23.6981884829495,0 79.9533728287312,23.6983918468065,0 79.9534904067657,23.6990019364763,0 79.9538692693217,23.6996000608354,0 79.9541305538429,23.6998273473732,0 79.9545878017553,23.7005690164804,0 79.9552671415106,23.7011551713417,0 79.9554631049017,23.700006783834,0</coordinates></LinearRing></outerBoundaryIs></Polygon>
  </Placemark>

    </Document>
</kml>