<?xml version="1.0" encoding="UTF-8"?>
<kml xmlns="http://www.opengis.net/kml/2.2">
    <Document>
        <Placemark xmlns:ns0="http://www.opengis.net/kml/2.2">
	<Style><LineStyle><color>ff0000ff</color></LineStyle><PolyStyle><fill>0</fill></PolyStyle></Style>
	<ExtendedData><SchemaData schemaUrl="#Wave24_v28MAR2025">
		<SimpleData name="area(ha)">11.185808810919946</SimpleData>
		<SimpleData name="site_id">240252_1.1</SimpleData>
		<SimpleData name="Land_parc">240252</SimpleData>
		<SimpleData name="district">Damoh</SimpleData>
		<SimpleData name="block">Pathariya</SimpleData>
		<SimpleData name="village">Semra chhakka</SimpleData>
		<SimpleData name="Land Type">Farmer</SimpleData>
		<SimpleData name="Instance">Wave 2024</SimpleData>
	</SchemaData></ExtendedData>
      <Polygon><outerBoundaryIs><LinearRing><coordinates>79.3399734,23.9265956,0 79.3399338,23.926641,0 79.3399403,23.9266416,0 79.3399723,23.9266261,0 79.3399871,23.9265761,0 79.3399901,23.9265454,0 79.3399971,23.9265102,0 79.3400004,23.9264808,0 79.3400029,23.9264472,0 79.3400105,23.9263793,0 79.3400147,23.9263439,0 79.340025,23.9262826,0 79.3400343,23.9262139,0 79.3400336,23.9261895,0 79.3400464,23.9261559,0 79.3400491,23.9261289,0 79.3400595,23.9260954,0 79.3400679,23.9260442,0 79.3400717,23.9260188,0 79.3400792,23.9259926,0 79.3401024,23.9259665,0 79.340129,23.9259171,0 79.3401289,23.92591,0 79.3401536,23.9258487,0 79.3401587,23.9258203,0 79.3401476,23.9256945,0 79.3401682,23.925625,0 79.340173,23.9255924,0 79.3401802,23.9255271,0 79.3401844,23.925499,0 79.3401134,23.925437,0 79.3400447,23.9254248,0 79.339928,23.9254077,0 79.3398897,23.9254136,0 79.3398584,23.925419,0 79.3398206,23.9254182,0 79.3397797,23.9254231,0 79.3397172,23.9254341,0 79.3396801,23.9254199,0 79.339632,23.9254317,0 79.339576,23.9254262,0 79.3395535,23.9254162,0 79.3395356,23.9253936,0 79.3395153,23.925369,0 79.339516,23.9253368,0 79.339509,23.9253059,0 79.3395083,23.9252698,0 79.3394838,23.9252042,0 79.3394713,23.9251402,0 79.3394641,23.9251115,0 79.3394559,23.9250778,0 79.3394457,23.9250476,0 79.3394402,23.9250174,0 79.33943,23.9249877,0 79.3394271,23.924952,0 79.3394155,23.9248842,0 79.3394021,23.9248467,0 79.3393923,23.9248115,0 79.3393784,23.9247807,0 79.3393702,23.9247477,0 79.339344,23.9246839,0 79.3393179,23.9246239,0 79.3393061,23.9245916,0 79.3392679,23.9245412,0 79.3392532,23.9245094,0 79.3392393,23.9244849,0 79.3392253,23.924453,0 79.339195,23.9243954,0 79.3391757,23.9243622,0 79.3391691,23.9243354,0 79.3391555,23.9243035,0 79.3391556,23.9242772,0 79.3391549,23.9242419,0 79.3391477,23.9242097,0 79.3391655,23.924159,0 79.3391588,23.924127,0 79.3391529,23.9241027,0 79.3391293,23.9240474,0 79.3391164,23.9240376,0 79.3390959,23.9240285,0 79.3390684,23.9240181,0 79.3390307,23.924027,0 79.3389989,23.9240328,0 79.3389576,23.9240521,0 79.3389281,23.9240595,0 79.3388548,23.924085,0 79.3388169,23.9240972,0 79.3387815,23.9241073,0 79.3387499,23.9241066,0 79.3386839,23.9241138,0 79.3386206,23.9240894,0 79.338554,23.9241064,0 79.3385197,23.9241102,0 79.3384801,23.9241187,0 79.3384476,23.9241193,0 79.3384011,23.9241268,0 79.3383333,23.9241471,0 79.3382998,23.9241624,0 79.3382595,23.9241753,0 79.3382278,23.9241866,0 79.3381898,23.9241964,0 79.3381537,23.9241998,0 79.3380877,23.9242019,0 79.3380491,23.924198,0 79.3379725,23.9242206,0 79.3379405,23.9242208,0 79.3378962,23.9242137,0 79.3378582,23.9242208,0 79.3378234,23.924226,0 79.3377842,23.924233,0 79.3377421,23.9242369,0 79.3377041,23.9242455,0 79.3376632,23.9242492,0 79.3376217,23.9242621,0 79.3375808,23.9242705,0 79.3375413,23.9242889,0 79.3375097,23.9242967,0 79.3374689,23.9243013,0 79.3374383,23.9243084,0 79.3374044,23.9243151,0 79.3373772,23.9243205,0 79.3373373,23.9243311,0 79.3373083,23.9243333,0 79.3372739,23.9243297,0 79.3372437,23.9243323,0 79.3371757,23.9243501,0 79.3371085,23.9243578,0 79.3370707,23.9243637,0 79.3370415,23.9243698,0 79.3369992,23.9243736,0 79.3369258,23.9243839,0 79.3369033,23.9243948,0 79.3368647,23.9243868,0 79.3368296,23.9244204,0 79.3368036,23.9244435,0 79.3367929,23.924481,0 79.3367727,23.9244935,0 79.3367521,23.9245174,0 79.3367256,23.9245309,0 79.3367168,23.9245771,0 79.3367156,23.924611,0 79.3367167,23.9246459,0 79.3367005,23.9247318,0 79.3366854,23.9247652,0 79.3366973,23.9247841,0 79.336677,23.9247757,0 79.3366726,23.9248027,0 79.3366768,23.9248141,0 79.3366756,23.9248127,0 79.3366733,23.9248131,0 79.3366488,23.9248076,0 79.3366162,23.9248207,0 79.3365853,23.9248293,0 79.33655,23.9248348,0 79.3365175,23.9248438,0 79.3364822,23.9248521,0 79.336446,23.9248521,0 79.3364199,23.924864,0 79.3363864,23.924864,0 79.3363297,23.9248846,0 79.3362917,23.9248938,0 79.3362598,23.9248984,0 79.3362263,23.9249066,0 79.3361952,23.9249162,0 79.3361673,23.9249229,0 79.3361136,23.9249356,0 79.3360491,23.9249368,0 79.3360163,23.9249486,0 79.3359775,23.924942,0 79.3359096,23.9249381,0 79.3358411,23.9249593,0 79.3358151,23.9249829,0 79.3357714,23.9250176,0 79.3357744,23.9250437,0 79.3357729,23.9250741,0 79.3357893,23.9251072,0 79.3357976,23.9251388,0 79.3358169,23.9251703,0 79.3358418,23.9252373,0 79.3358485,23.9252806,0 79.3358526,23.9253207,0 79.3358417,23.925353,0 79.3358483,23.9253793,0 79.3358439,23.9254044,0 79.3358445,23.9254615,0 79.335829,23.9254799,0 79.3358047,23.9254895,0 79.3357747,23.9255018,0 79.3357152,23.9255068,0 79.3356859,23.9255108,0 79.3356267,23.9255275,0 79.3356012,23.9255277,0 79.3355639,23.9255323,0 79.3355009,23.9255475,0 79.3354711,23.9255522,0 79.3354268,23.9255469,0 79.3353984,23.9255637,0 79.3353747,23.9255833,0 79.3353369,23.9255935,0 79.3352903,23.925598,0 79.3352566,23.9256103,0 79.3352308,23.9256201,0 79.3351892,23.9256288,0 79.3351541,23.9256389,0 79.3351122,23.9256454,0 79.3350616,23.9256632,0 79.335025,23.9256676,0 79.3349528,23.9256803,0 79.3348705,23.9256963,0 79.3348197,23.9256915,0 79.3347685,23.9257324,0 79.3347567,23.9257359,0 79.3347568,23.9257439,0 79.3347495,23.9257907,0 79.3347445,23.9258136,0 79.3347321,23.9258628,0 79.3347271,23.9259076,0 79.3347431,23.925943,0 79.3347449,23.9259693,0 79.3347434,23.9260023,0 79.3347381,23.926035,0 79.3347518,23.9260693,0 79.3347474,23.9261118,0 79.334758,23.9261395,0 79.3347589,23.9261657,0 79.3347724,23.9261899,0 79.3347894,23.9262082,0 79.3348112,23.9262465,0 79.3348314,23.9262659,0 79.334869,23.9262502,0 79.3348998,23.9262416,0 79.3349297,23.9262295,0 79.3349642,23.9262299,0 79.3349859,23.9262346,0 79.3350219,23.9262283,0 79.3350449,23.9262345,0 79.3350743,23.9262476,0 79.335092,23.9262719,0 79.3351151,23.9263293,0 79.3351078,23.9263871,0 79.3351123,23.9264162,0 79.3351129,23.9265237,0 79.3351139,23.9265958,0 79.3351209,23.9266295,0 79.3351104,23.9267024,0 79.3351112,23.926745,0 79.3351227,23.9267764,0 79.3351388,23.9268067,0 79.3351751,23.9268508,0 79.3351971,23.9268676,0 79.3352292,23.9268701,0 79.3352626,23.9268638,0 79.3352967,23.9268584,0 79.335321,23.9268466,0 79.3353514,23.9268434,0 79.3353814,23.9268298,0 79.3354165,23.9268235,0 79.3354797,23.9267896,0 79.3355137,23.9267759,0 79.3355423,23.9267549,0 79.3355624,23.9267376,0 79.3356209,23.926705,0 79.3356821,23.9266705,0 79.3357457,23.9266396,0 79.3357748,23.9266213,0 79.3358021,23.9266047,0 79.3358301,23.926592,0 79.3359,23.9265706,0 79.3359315,23.9265639,0 79.3359661,23.9265557,0 79.3359945,23.9265462,0 79.3360632,23.9265202,0 79.3361209,23.9264889,0 79.3361817,23.9264698,0 79.3362078,23.9264534,0 79.3362323,23.926441,0 79.3362613,23.9264238,0 79.3362898,23.9264122,0 79.3363204,23.9263948,0 79.3363517,23.9263766,0 79.3364146,23.926361,0 79.3364792,23.9263323,0 79.3365078,23.9263213,0 79.3365758,23.9262941,0 79.3366229,23.9262759,0 79.3366485,23.9262619,0 79.3366877,23.9262443,0 79.3367595,23.926209,0 79.3367986,23.9261914,0 79.3368266,23.9261725,0 79.3368831,23.9261419,0 79.3369103,23.926125,0 79.3369105,23.926125,0 79.3369302,23.9261276,0 79.336951,23.9261421,0 79.3370369,23.9261086,0 79.3371054,23.9260914,0 79.3371429,23.9260793,0 79.3372339,23.9260604,0 79.3372625,23.9260594,0 79.3373393,23.9260587,0 79.3373701,23.9260604,0 79.3375315,23.9260581,0 79.3376094,23.926048,0 79.3377607,23.9260207,0 79.3378188,23.9260047,0 79.3379183,23.9259832,0 79.3379509,23.9259824,0 79.338014,23.9259843,0 79.338025,23.9260075,0 79.3380382,23.9260319,0 79.3380384,23.9260716,0 79.3380386,23.9261024,0 79.3380586,23.9262158,0 79.3380656,23.9262788,0 79.3380637,23.9263347,0 79.3380497,23.9263631,0 79.3380511,23.9263865,0 79.3380381,23.9265712,0 79.3380032,23.9267208,0 79.3379995,23.9267955,0 79.3379948,23.9269055,0 79.3380062,23.9269379,0 79.3380041,23.9269976,0 79.3379887,23.927048,0 79.3379815,23.9270742,0 79.3379643,23.927071,0 79.3379693,23.9271363,0 79.3379643,23.9272056,0 79.3379573,23.9272874,0 79.3379611,23.9273217,0 79.3379573,23.9273589,0 79.3379299,23.9274225,0 79.3379095,23.9274573,0 79.3378925,23.9274927,0 79.3378826,23.9275251,0 79.3378844,23.9275865,0 79.3378744,23.9276148,0 79.3378948,23.9276614,0 79.3379497,23.9276688,0 79.3379801,23.9276652,0 79.3380431,23.9276639,0 79.3380814,23.9276551,0 79.3381226,23.9276541,0 79.3381794,23.9276724,0 79.3382643,23.9276764,0 79.3383291,23.9276703,0 79.3383927,23.9276742,0 79.3384286,23.9276854,0 79.3385145,23.9276967,0 79.3385677,23.9277013,0 79.3386908,23.9277099,0 79.3386986,23.9277033,0 79.3386998,23.9277018,0 79.3386974,23.9276882,0 79.33872,23.9276692,0 79.3387187,23.9275906,0 79.3387273,23.9275387,0 79.3387281,23.9275131,0 79.338732,23.9274385,0 79.3387347,23.9273954,0 79.3387363,23.9273583,0 79.3387384,23.9273094,0 79.3387462,23.927254,0 79.3387484,23.9272274,0 79.3387484,23.927227,0 79.3387155,23.9271919,0 79.3387161,23.9271907,0 79.338707,23.92719,0 79.3386842,23.9271227,0 79.3386819,23.9270634,0 79.3386934,23.9270381,0 79.3387138,23.9269895,0 79.3387473,23.9269567,0 79.3388086,23.9269423,0 79.3388307,23.9269223,0 79.3388875,23.926901,0 79.3389709,23.9268867,0 79.3389707,23.9268574,0 79.3390972,23.9268676,0 79.3391608,23.9268466,0 79.339273,23.9268173,0 79.3393438,23.9268031,0 79.3394196,23.9267908,0 79.3395111,23.9267318,0 79.3395741,23.926729,0 79.3396628,23.9267069,0 79.3398356,23.9266448,0 79.3399246,23.9266018,0 79.3399528,23.9265998,0 79.339967,23.9266001,0 79.3399734,23.9265956,0</coordinates></LinearRing></outerBoundaryIs></Polygon>
  </Placemark>
  
    </Document>
</kml>