<?xml version="1.0" encoding="UTF-8"?>
<kml xmlns="http://www.opengis.net/kml/2.2">
    <Document>
        <Placemark xmlns:ns0="http://www.opengis.net/kml/2.2">
	<Style><LineStyle><color>ff0000ff</color></LineStyle><PolyStyle><fill>0</fill></PolyStyle></Style>
	<ExtendedData><SchemaData schemaUrl="#Wave24_v28MAR2025">
		<SimpleData name="area(ha)">0.620529530640668</SimpleData>
		<SimpleData name="site_id">240224_1.1</SimpleData>
		<SimpleData name="Land_parc">240224</SimpleData>
		<SimpleData name="district">Damoh</SimpleData>
		<SimpleData name="block">Tendukheda</SimpleData>
		<SimpleData name="village">KULUA</SimpleData>
		<SimpleData name="Land Type">Farmer</SimpleData>
		<SimpleData name="Instance">Wave 2024</SimpleData>
	</SchemaData></ExtendedData>
      <Polygon><outerBoundaryIs><LinearRing><coordinates>79.4860485435714,23.6035428294653,0 79.486100604132,23.603489822349,0 79.4861403594692,23.6034538532343,0 79.4862227098106,23.6034027392293,0 79.4863031670407,23.6033601442252,0 79.4863855173821,23.6033241751106,0 79.4865038368381,23.6032730611056,0 79.4865558973987,23.6032848930512,0 79.4866164769602,23.6032829999399,0 79.4866448736296,23.6032829999399,0 79.4866865220781,23.6032546032704,0 79.4867508878622,23.6032053823767,0 79.4867906431995,23.6031476424822,0 79.4868398640932,23.6031097802563,0 79.4868711004295,23.6030681318077,0 79.4869070695442,23.6030501472504,0 79.4869411455475,23.6030236436923,0 79.4869070695442,23.6029668503534,0 79.4868266123141,23.6028826069007,0 79.4867366895275,23.6027728064455,0 79.486662858187,23.6027027613276,0 79.4865672560665,23.6026270368757,0 79.4865204015619,23.6025763961485,0 79.4864735470573,23.6025962738172,0 79.4863087309691,23.6026863966491,0 79.4862435340349,23.6027174329401,0 79.4861308939128,23.602777065946,0 79.4860286659028,23.602825340284,0 79.4859565312029,23.6028689969546,0 79.4859359034492,23.6028688818438,0 79.4859463312735,23.6029387969669,0 79.4859775518978,23.6031055207558,0 79.485998376122,23.6032702214386,0 79.4859926967881,23.6033610907808,0 79.4859737656751,23.6034614256795,0 79.485979445009,23.6035958365816,0 79.4860485435714,23.6035428294653,0</coordinates></LinearRing></outerBoundaryIs></Polygon>
  </Placemark>
  
    </Document>
</kml>