<?xml version="1.0" encoding="UTF-8"?>
<kml xmlns="http://www.opengis.net/kml/2.2">
    <Document>
        <Placemark xmlns:ns0="http://www.opengis.net/kml/2.2">
	<Style><LineStyle><color>ff0000ff</color></LineStyle><PolyStyle><fill>0</fill></PolyStyle></Style>
	<ExtendedData><SchemaData schemaUrl="#Wave24_v28MAR2025">
		<SimpleData name="area(ha)">0.917085528351620</SimpleData>
		<SimpleData name="site_id">240219_1.1</SimpleData>
		<SimpleData name="Land_parc">240219</SimpleData>
		<SimpleData name="district">Damoh</SimpleData>
		<SimpleData name="block">Tendukheda</SimpleData>
		<SimpleData name="village">Devri Leeladhar</SimpleData>
		<SimpleData name="Land Type">Farmer</SimpleData>
		<SimpleData name="Instance">Wave 2024</SimpleData>
	</SchemaData></ExtendedData>
      <Polygon><outerBoundaryIs><LinearRing><coordinates>79.496514236774,23.6065895736216,0 79.4964738373777,23.6063475285877,0 79.4962833783053,23.606208607768,0 79.4963597841063,23.6061492758585,0 79.4964574261442,23.6062492036985,0 79.4964256464773,23.6060588013167,0 79.4965032025509,23.6060261492881,0 79.4964394222724,23.6059608758774,0 79.4964154831645,23.6059430366116,0 79.4963867189722,23.6059329224586,0 79.4963559689082,23.6059315317503,0 79.4963262682019,23.6059390017584,0 79.4963005485051,23.6059545951446,0 79.49619541746,23.6060429951091,0 79.4957809587665,23.6061088104119,0 79.4957524981089,23.6061176317991,0 79.4957282723139,23.6061339806248,0 79.4957105560756,23.606156321808,0 79.4957010128724,23.6061825576122,0 79.4955561123284,23.6069622574952,0 79.4955569102017,23.6069965440559,0 79.4955864101122,23.6071225440694,0 79.4955975455057,23.6071489852611,0 79.4956170321513,23.6071709392909,0 79.4956429476749,23.6071862403709,0 79.4956727354839,23.6071933790329,0 79.4957034569786,23.6071916510397,0 79.4960179571837,23.6071272510075,0 79.4960484510177,23.6071157819202,0 79.4960730987941,23.6070956504637,0 79.496514236774,23.6065895736216,0</coordinates></LinearRing></outerBoundaryIs></Polygon>
  </Placemark>
  
    </Document>
</kml>