<?xml version="1.0" encoding="UTF-8"?>
<kml xmlns="http://www.opengis.net/kml/2.2">
    <Document>
        <Placemark xmlns:ns0="http://www.opengis.net/kml/2.2">
	<Style><LineStyle><color>ff0000ff</color></LineStyle><PolyStyle><fill>0</fill></PolyStyle></Style>
	<ExtendedData><SchemaData schemaUrl="#Wave24_v28MAR2025">
		<SimpleData name="area(ha)">2.428749014354143</SimpleData>
		<SimpleData name="site_id">240229_1.1</SimpleData>
		<SimpleData name="Land_parc">240229</SimpleData>
		<SimpleData name="district">Damoh</SimpleData>
		<SimpleData name="block">Tendukheda</SimpleData>
		<SimpleData name="village">Deori leeladhar</SimpleData>
		<SimpleData name="Land Type">Farmer</SimpleData>
		<SimpleData name="Instance">Wave 2024</SimpleData>
	</SchemaData></ExtendedData>
      <Polygon><outerBoundaryIs><LinearRing><coordinates>79.5032372981973,23.6012199993061,0 79.5032089471882,23.6012383864558,0 79.5031816946,23.6012624245786,0 79.5031876232525,23.6013471461165,0 79.5032443887837,23.6014048418382,0 79.5033348581796,23.6015284773476,0 79.5034113490971,23.601580684008,0 79.5036045490971,23.601787984008,0 79.5037116217641,23.6019257983332,0 79.5038497197434,23.6021028078391,0 79.503917224321,23.6022262217283,0 79.5039795276354,23.602357943791,0 79.5041118145734,23.6024673379814,0 79.5042053833833,23.6025264699383,0 79.5043086317252,23.6025471661169,0 79.5043602558962,23.6026949958691,0 79.504354,23.6028465,0 79.5043708,23.6029465,0 79.5042829,23.6031431,0 79.5043334,23.6032899,0 79.5046634,23.6032867,0 79.5046796,23.6032334,0 79.504932,23.6031594,0 79.5051451,23.6030903,0 79.5052525877575,23.6030350036666,0 79.5053090516945,23.6029670021776,0 79.5054397253773,23.602978828526,0 79.5054332723559,23.6027511711312,0 79.5053171179712,23.6027304749848,0 79.5053009854178,23.6026447337721,0 79.5052558142682,23.6024732511784,0 79.5051751515011,23.6022869853484,0 79.5049941,23.6023136,0 79.5049105,23.6020827,0 79.5048496011364,23.6019346451433,0 79.5047920666158,23.6019446741016,0 79.5047050125733,23.6019247861823,0 79.5046993229638,23.6018189008657,0 79.5046188,23.6017788,0 79.5043869,23.6018213,0 79.5043759,23.6016938,0 79.5043895,23.6014586,0 79.504332,23.6012891,0 79.5042584,23.601219,0 79.5042074,23.601084,0 79.5040734,23.6011004,0 79.5040063691726,23.6010497164635,0 79.5037834198431,23.6010820113869,0 79.5035971198431,23.6011521113869,0 79.5033834430023,23.6011939922302,0 79.5032373,23.60122,0 79.5032372981973,23.6012199993061,0</coordinates></LinearRing></outerBoundaryIs><innerBoundaryIs><LinearRing><coordinates>79.5033414357651,23.6012965950136,0 79.5033015077008,23.6013198784294,0 79.5032742840206,23.601308236722,0 79.5032742840206,23.6012783008982,0 79.5033178419089,23.6012566805767,0 79.5033414357651,23.6012965950136,0</coordinates></LinearRing></innerBoundaryIs></Polygon>
  </Placemark>
  
    </Document>
</kml>