<?xml version="1.0" encoding="UTF-8"?>
<kml xmlns="http://www.opengis.net/kml/2.2">
    <Document>
        <Placemark xmlns:ns0="http://www.opengis.net/kml/2.2">
	<Style><LineStyle><color>ff0000ff</color></LineStyle><PolyStyle><fill>0</fill></PolyStyle></Style>
	<ExtendedData><SchemaData schemaUrl="#Wave24_v28MAR2025">
		<SimpleData name="area(ha)">3.245078299957042</SimpleData>
		<SimpleData name="site_id">240223_1.1</SimpleData>
		<SimpleData name="Land_parc">240223</SimpleData>
		<SimpleData name="district">Damoh</SimpleData>
		<SimpleData name="block">Tendukheda</SimpleData>
		<SimpleData name="village">Dasori Mal</SimpleData>
		<SimpleData name="Land Type">Farmer</SimpleData>
		<SimpleData name="Instance">Wave 2024</SimpleData>
	</SchemaData></ExtendedData>
      <Polygon><outerBoundaryIs><LinearRing><coordinates>79.4955869259657,23.6352413273849,0 79.4955273541328,23.6352796827045,0 79.4955054694057,23.6352990542024,0 79.4954910657263,23.6353236647769,0 79.495485524027,23.6353511549312,0 79.4954893756144,23.6353788890926,0 79.4955726754353,23.6356430891336,0 79.4955865348162,23.6356697261619,0 79.4956089832061,23.635690817388,0 79.4959668483369,23.6359316628332,0 79.496063203347,23.6361265343286,0 79.4960779641926,23.6361478488777,0 79.4960985603647,23.6361645578684,0 79.496123377247,23.6361753514146,0 79.4963642220963,23.6362441378434,0 79.4966811768959,23.6364974157814,0 79.4967078560204,23.6365126138058,0 79.4970039406581,23.6366257258757,0 79.4970433237819,23.636680672817,0 79.4973449399281,23.6371904205681,0 79.4973545596265,23.6372037226663,0 79.4975804595595,23.6374630227732,0 79.4976037221196,23.6374823554912,0 79.4976324174675,23.6374939386293,0 79.4976636140143,23.6374965888243,0 79.4976941246406,23.6374900353251,0 79.4977208323028,23.6374749476537,0 79.4977410084794,23.6374528672048,0 79.4977525919252,23.6374260497724,0 79.4977975809671,23.6372391419622,0 79.4978788670673,23.6370459230869,0 79.4981990946106,23.6370804875184,0 79.4982284495562,23.6370795738692,0 79.4982561926847,23.6370706885964,0 79.4985214871605,23.6369418993293,0 79.4986895088887,23.6369132979265,0 79.4987160721286,23.6369050179197,0 79.4987390033526,23.6368901472435,0 79.4987564255602,23.6368699031151,0 79.4988345255126,23.6367462030705,0 79.4988448688139,23.6367227774117,0 79.4988477555468,23.6366976279928,0 79.4988354553062,23.6363752279883,0 79.498831444167,23.6363526435866,0 79.4988293617527,23.6363483044698,0 79.498844877311,23.6363114671449,0 79.4988515129682,23.6362794771657,0 79.4988453987965,23.6362473991023,0 79.4987606986637,23.6360369991453,0 79.4987591809612,23.6360334596915,0 79.4986647378713,23.6358261041315,0 79.498658883907,23.6357898654703,0 79.4986540126611,23.6356918689343,0 79.4986508835831,23.6356730032849,0 79.4985895823094,23.6354585492151,0 79.498462772468,23.6350002063994,0 79.4983831997219,23.6346235174292,0 79.4983535268053,23.6343939233226,0 79.4983429112395,23.6343625017144,0 79.498320779555,23.6343366711858,0 79.4979612795802,23.6340465713352,0 79.4979352814799,23.6340314892042,0 79.4979054926473,23.6340245631144,0 79.4978748399146,23.6340264735724,0 79.4975522401245,23.6340944735381,0 79.4975443871175,23.6340964483233,0 79.4972926309681,23.634170233958,0 79.4970750179171,23.634189513711,0 79.4970448319872,23.6341967843264,0 79.4970186555387,23.6342124265116,0 79.4967128555826,23.6344672263855,0 79.4967044883112,23.6344751052643,0 79.4964498931637,23.6347461193859,0 79.4963095990268,23.6348714462408,0 79.4961341717153,23.6349907221116,0 79.4958391989698,23.6350966663958,0 79.4958133794093,23.635110428176,0 79.4957742510503,23.6351394154627,0 79.4957410054722,23.6351586307941,0 79.495630605507,23.6352050500357,0 79.4956056160608,23.6352201757815,0 79.4955869259657,23.6352413273849,0</coordinates></LinearRing></outerBoundaryIs><innerBoundaryIs><LinearRing><coordinates>79.4957565634195,23.6354859328132,0 79.495812062422,23.6354252031271,0 79.4958891443698,23.6354026060273,0 79.4959292269827,23.6353545871775,0 79.4959816427072,23.6353291654263,0 79.4961465980756,23.6352698479878,0 79.4962853455818,23.635214767485,0 79.4963870937529,23.6351667485663,0 79.4964795920903,23.6351102556982,0 79.4965720904277,23.6350650613861,0 79.4966522556535,23.634980322009,0 79.4968804182191,23.6347261035485,0 79.4970839145615,23.6345396763638,0 79.4973120771271,23.6344775339099,0 79.497460074467,23.6344549366466,0 79.497601905251,23.6344492873302,0 79.4978084848713,23.6344182160855,0 79.4980150644915,23.6345453256763,0 79.4980027313799,23.6346950323695,0 79.4980767300498,23.6348503881909,0 79.4981260624964,23.6349887959492,0 79.4982308939455,23.6353672980512,0 79.4982987260596,23.6355396008845,0 79.4983449752283,23.6356554108581,0 79.4983727247296,23.6357881685067,0 79.4984726523485,23.6358638925589,0 79.4984792191236,23.6358855402026,0 79.4984528899553,23.6359887170398,0 79.498462139789,23.6361186497282,0 79.4984775561786,23.63622033609,0 79.4985083889577,23.6362683546223,0 79.4985145555136,23.6363220223729,0 79.4985392217369,23.6363841639513,0 79.4985330551811,23.6364463055002,0 79.498499139124,23.6365592900591,0 79.4984744729007,23.6366468530251,0 79.4984066407866,23.6367061698398,0 79.4982401437792,23.6367683112359,0 79.4978263056328,23.6368584125212,0 79.4977942002934,23.6368598357361,0 79.4977643209651,23.636870750749,0 79.49773988082,23.6368899837777,0 79.4977235081125,23.6369154665348,0 79.4976049885289,23.6369547352472,0 79.497530989859,23.6369208399921,0 79.4973421390869,23.6366228438306,0 79.4973205561415,23.6365790623469,0 79.4972480991105,23.636485850107,0 79.4971633089678,23.6364547793456,0 79.4970970184927,23.636422296269,0 79.4969012303452,23.6362457576682,0 79.4966761510574,23.636077692699,0 79.4965805694421,23.6359929539773,0 79.4964449052139,23.6359505845959,0 79.4963169491804,23.6358277133122,0 79.4962013262587,23.6357373251679,0 79.4960795367811,23.6356907187565,0 79.4958991650231,23.6355890319833,0 79.4957565634195,23.6354859328132,0</coordinates></LinearRing></innerBoundaryIs></Polygon>
  </Placemark>
  
    </Document>
</kml>