<?xml version="1.0" encoding="UTF-8"?>
<kml xmlns="http://www.opengis.net/kml/2.2">
    <Document>
        <Placemark xmlns:ns0="http://www.opengis.net/kml/2.2">
	<Style><LineStyle><color>ff0000ff</color></LineStyle><PolyStyle><fill>0</fill></PolyStyle></Style>
	<ExtendedData><SchemaData schemaUrl="#Wave24_v28MAR2025">
		<SimpleData name="area(ha)">2.823464223045018</SimpleData>
		<SimpleData name="site_id">240253_1.1</SimpleData>
		<SimpleData name="Land_parc">240253</SimpleData>
		<SimpleData name="district">Damoh</SimpleData>
		<SimpleData name="block">Damoh</SimpleData>
		<SimpleData name="village">Biltara sadak</SimpleData>
		<SimpleData name="Land Type">Farmer</SimpleData>
		<SimpleData name="Instance">Wave 2024</SimpleData>
	</SchemaData></ExtendedData>
      <Polygon><outerBoundaryIs><LinearRing><coordinates>79.5849249519772,23.8459637681142,0 79.5851613244377,23.8459653936381,0 79.5851786759086,23.845927530536,0 79.5852207837228,23.8459307399792,0 79.585276927475,23.8459403683082,0 79.5853435981806,23.8459243210928,0 79.5854137778708,23.8459339494222,0 79.5855050114681,23.8459146927626,0 79.5855646642048,23.8458793888791,0 79.5857190595233,23.845824828313,0 79.5858348560121,23.8458151999754,0 79.5859050357023,23.8458505038764,0 79.5858997722256,23.8459712591922,0 79.5859418800397,23.8459889111226,0 79.5859787243771,23.8459808875182,0 79.5860103052377,23.8459712591922,0 79.586033113637,23.8459760733553,0 79.5860664489898,23.8459560143413,0 79.5861594370794,23.8459479907348,0 79.5862550569073,23.8459263269948,0 79.5863190958746,23.8459062679731,0 79.5864384,23.8459266,0 79.5864642,23.8459198,0 79.5864752456854,23.8459568167019,0 79.5864927906079,23.8459985394473,0 79.5865471798678,23.8460081677713,0 79.5865980601433,23.846016191374,0 79.5866752578025,23.8459889111226,0 79.5867577189385,23.8459600261443,0 79.5868261441365,23.8459391647671,0 79.5869173777337,23.8458990467245,0 79.5870454556684,23.8458685570039,0 79.587065,23.845803,0 79.5870691,23.8457958,0 79.587077,23.8457905,0 79.5870385,23.8457484,0 79.586927,23.8456574,0 79.5868896,23.8456325,0 79.5868689,23.8456175,0 79.586853,23.845606,0 79.5868464,23.8455938,0 79.5868287,23.8455547,0 79.5868241,23.8455084,0 79.5868469,23.8453859,0 79.5868475,23.8453813,0 79.5868401800745,23.8452134274577,0 79.5868893058576,23.8451765186524,0 79.5869735214859,23.8451765186524,0 79.5870173837922,23.8451652855356,0 79.5870507191451,23.8451652855356,0 79.5870893179747,23.8451717044596,0 79.5871244078198,23.8451765186524,0 79.5871787970797,23.8451749139215,0 79.5872103779403,23.845181332845,0 79.5872472222777,23.8451781233833,0 79.5872823121228,23.845181332845,0 79.5873383,23.8452025,0 79.5873349468905,23.8451524476867,0 79.5873402103672,23.845093072619,0 79.5873349468905,23.8450080217988,0 79.5873349468905,23.8449759271352,0 79.5873428,23.8449534,0 79.5873507373208,23.8449085283158,0 79.5873481055824,23.8448788407295,0 79.5873402103672,23.8448531649736,0 79.5873489828285,23.8448234773746,0 79.5873489828285,23.8447994063434,0 79.5873410876134,23.8447769400436,0 79.5873235426908,23.8447263908547,0 79.5873103839989,23.8446854700683,0 79.5872893300918,23.8446517705874,0 79.587277048646,23.84461646636,0 79.587263012708,23.844581162123,0 79.5872536664484,23.8445302065346,0 79.5872525059052,23.844500484925,0 79.587251345362,23.8444856241177,0 79.5872571480781,23.8444537795247,0 79.5872559875349,23.844438918712,0 79.587251345362,23.8444155660029,0 79.5872536664484,23.8443879673413,0 79.5872606297078,23.844355061237,0 79.5872652718807,23.8443179091737,0 79.5872687535103,23.8442786341239,0 79.5872745562264,23.8441608089029,0 79.5872211712381,23.8441512555019,0 79.5871701073363,23.8441459480566,0 79.5871445753854,23.8441427635893,0 79.5871248461506,23.8441427635893,0 79.5870819060513,23.8441417021002,0 79.5870354843223,23.8441395791219,0 79.5870006680256,23.8441459480566,0 79.5869797782476,23.8441480710347,0 79.586961209556,23.8441417021002,0 79.5869182694567,23.8441459480566,0 79.5868741688142,23.8441512555019,0 79.5868103389369,23.8441608089029,0 79.5867824858995,23.8441650548586,0 79.5867557934054,23.8441703623032,0 79.5867331628125,23.8441793849583,0 79.5866844199971,23.8441841616579,0 79.586659033114,23.8441832328552,0 79.5866271181753,23.8441667797781,0 79.5865574855819,23.8441094593642,0 79.5865290522729,23.8441009674489,0 79.5864890135317,23.8441009674489,0 79.5864275047408,23.8441036211725,0 79.586404874148,23.8441158283004,0 79.5863758605674,23.8441497959544,0 79.5863642551351,23.8441646568003,0 79.5863514891597,23.8441720872226,0 79.5863434,23.8442043,0 79.586326,23.8442605,0 79.5863137,23.8442932,0 79.5863143,23.8443288,0 79.5863135,23.8443589,0 79.5863088,23.8443959,0 79.5862987,23.8444638,0 79.586317,23.8445326,0 79.586319,23.844566,0 79.5863523,23.8446034,0 79.586355,23.8446298,0 79.586291140912,23.8446842545894,0 79.5862792,23.8447002,0 79.5862935,23.8447331,0 79.5863134,23.8447565,0 79.5863438,23.844818,0 79.5863829,23.8448709,0 79.5864512958769,23.8449522791925,0 79.5860331,23.8450056,0 79.5859798,23.8450054,0 79.5859236,23.8450316,0 79.5859155626559,23.8450381105387,0 79.5858798382788,23.8450389083488,0 79.5858291382788,23.8450528083488,0 79.5858129248589,23.8450501460327,0 79.5857945026903,23.8450493436665,0 79.5857594128452,23.8450573673286,0 79.5856874786627,23.8450461342015,0 79.5856313349105,23.845047738934,0 79.5855313288519,23.8450397152713,0 79.5854646581463,23.8450621815256,0 79.5853032448587,23.8450332963408,0 79.5853155263045,23.8451985837003,0 79.5853382605508,23.8452923466219,0 79.5853126605508,23.8453747466219,0 79.5852892089207,23.845420036337,0 79.5852014843079,23.8455227388807,0 79.5848830439636,23.8455857243849,0 79.5848953254094,23.8456503145834,0 79.5849119930859,23.8456896303407,0 79.5849396263389,23.8457445921447,0 79.5849646278535,23.8458424802634,0 79.5849883134989,23.8458882148509,0 79.5849962087141,23.8459307399791,0 79.5849663823458,23.8459520025381,0 79.5849277835162,23.8459584214231,0 79.5849249519772,23.8459637681142,0</coordinates></LinearRing></outerBoundaryIs></Polygon>
  </Placemark>
  
    </Document>
</kml>