<?xml version="1.0" encoding="UTF-8"?>
<kml xmlns="http://www.opengis.net/kml/2.2">
    <Document>
        <Placemark xmlns:ns0="http://www.opengis.net/kml/2.2">
	<Style><LineStyle><color>ff0000ff</color></LineStyle><PolyStyle><fill>0</fill></PolyStyle></Style>
	<ExtendedData><SchemaData schemaUrl="#Wave24_v28MAR2025">
		<SimpleData name="area(ha)">2.193086419927444</SimpleData>
		<SimpleData name="site_id">240211_1.1</SimpleData>
		<SimpleData name="Land_parc">240211</SimpleData>
		<SimpleData name="district">Chhatarpur</SimpleData>
		<SimpleData name="block">Bijawar</SimpleData>
		<SimpleData name="village">Chachai Semra</SimpleData>
		<SimpleData name="Land Type">Private land</SimpleData>
		<SimpleData name="Instance">Wave 2024</SimpleData>
	</SchemaData></ExtendedData>
      <Polygon><outerBoundaryIs><LinearRing><coordinates>79.3718664,24.271484,0 79.3718867,24.2714783,0 79.3719317,24.2714609,0 79.3719315,24.271446,0 79.372004,24.271449,0 79.3720611,24.2714602,0 79.3720836,24.2714695,0 79.3721167,24.2715004,0 79.3721653,24.271514,0 79.3721898,24.2715233,0 79.3721852,24.271591,0 79.3721833,24.2716244,0 79.3721834,24.2716482,0 79.3721778,24.2716884,0 79.3721667,24.271752,0 79.3721606,24.2717717,0 79.3721596,24.2718451,0 79.3721657,24.2719447,0 79.3721685,24.2719964,0 79.3721644,24.2720113,0 79.372165,24.2720407,0 79.3721646,24.2720753,0 79.3721653,24.2721116,0 79.3721653,24.2721441,0 79.3721668,24.2721789,0 79.3722003,24.2722116,0 79.3723089,24.272211,0 79.3724126,24.2721806,0 79.3724795,24.2721961,0 79.3725245,24.2721998,0 79.3725833,24.2721929,0 79.3726564,24.2722118,0 79.3727397,24.2722262,0 79.3728063,24.2721926,0 79.3728573,24.2721729,0 79.3729462,24.2721786,0 79.3730086,24.2721748,0 79.3730689,24.2721849,0 79.373132,24.2722304,0 79.3732019,24.2722519,0 79.3732489,24.2722799,0 79.3732862,24.2723061,0 79.3733662,24.2722946,0 79.3734136,24.2722642,0 79.3734559,24.2722356,0 79.3734981,24.27224,0 79.373564,24.2722112,0 79.3736265,24.272167,0 79.3736707,24.2721561,0 79.3737271,24.2721291,0 79.3737963,24.2720991,0 79.3738203,24.2720709,0 79.3738637,24.2720361,0 79.3738999,24.2720085,0 79.3739433,24.2719888,0 79.3740098,24.2719608,0 79.3740519,24.2719296,0 79.3741099,24.2719158,0 79.3741698,24.2719018,0 79.3742317,24.2718573,0 79.3742616,24.2718206,0 79.3742514,24.2717789,0 79.3742456,24.2717313,0 79.3742529,24.2716825,0 79.3742719,24.271625,0 79.3742937,24.2715634,0 79.3742762,24.2714584,0 79.3741842,24.2714351,0 79.3740276,24.2714107,0 79.3739903,24.2713966,0 79.3739679,24.2713888,0 79.373936,24.271371,0 79.3739212,24.2713367,0 79.3738736,24.2713213,0 79.3738195,24.2713044,0 79.3737594,24.2712858,0 79.3737234,24.2712881,0 79.3736639,24.2713011,0 79.373611,24.2713216,0 79.3735662,24.2713166,0 79.3735442,24.271293,0 79.3735179,24.2712831,0 79.3734683,24.2712735,0 79.3733903,24.2712536,0 79.3733285,24.2712608,0 79.3732371,24.2712617,0 79.3731593,24.2712373,0 79.3730563,24.2712371,0 79.3730055,24.2712416,0 79.3729395,24.2712602,0 79.3728748,24.2712789,0 79.3728284,24.2713265,0 79.3728303,24.2713645,0 79.3727749,24.2713499,0 79.3727313,24.2713195,0 79.3727055,24.271303,0 79.372647,24.2713084,0 79.3726183,24.2713343,0 79.372583,24.2712448,0 79.3725817,24.2711431,0 79.372556,24.2710775,0 79.3724727,24.271078,0 79.372417,24.2710826,0 79.3723463,24.2710875,0 79.372262,24.2710988,0 79.3722394,24.2711106,0 79.3722257,24.2711297,0 79.3721607,24.2711712,0 79.3721433,24.2711777,0 79.3720956,24.2711769,0 79.372044,24.2711749,0 79.3720045,24.2711934,0 79.3719578,24.2712067,0 79.3719065,24.2712172,0 79.3718669,24.2712324,0 79.3718217,24.2712474,0 79.3717966,24.2712621,0 79.3717559,24.2712995,0 79.3717439,24.2713323,0 79.3717768,24.2713747,0 79.3718155,24.2714272,0 79.3718441,24.2714746,0 79.3718664,24.271484,0</coordinates></LinearRing></outerBoundaryIs></Polygon>
  </Placemark>
  
    </Document>
</kml>