<?xml version="1.0" encoding="UTF-8"?>
<kml xmlns="http://www.opengis.net/kml/2.2">
    <Document>
        <Placemark xmlns:ns0="http://www.opengis.net/kml/2.2">
	<Style><LineStyle><color>ff0000ff</color></LineStyle><PolyStyle><fill>0</fill></PolyStyle></Style>
	<ExtendedData><SchemaData schemaUrl="#Wave24_v28MAR2025">
		<SimpleData name="area(ha)">33.310817671617251</SimpleData>
		<SimpleData name="site_id">240227_2.3</SimpleData>
		<SimpleData name="Land_parc">240227</SimpleData>
		<SimpleData name="district">Katni</SimpleData>
		<SimpleData name="block">Rithi</SimpleData>
		<SimpleData name="village">Khamariya</SimpleData>
		<SimpleData name="Land Type">Community</SimpleData>
		<SimpleData name="Instance">Wave 2024</SimpleData>
	</SchemaData></ExtendedData>
      <MultiGeometry><Polygon><outerBoundaryIs><LinearRing><coordinates>79.9199095,23.7583753,0 79.9199154052246,23.7583799597193,0 79.9199189,23.7583755,0 79.9199095,23.7583753,0</coordinates></LinearRing></outerBoundaryIs></Polygon><Polygon><outerBoundaryIs><LinearRing><coordinates>79.9171813,23.7615426,0 79.9174021,23.7614928,0 79.9176691,23.7614408,0 79.9179093,23.7614111,0 79.9181481,23.7614819,0 79.9183915,23.7615746,0 79.9186296,23.7616713,0 79.9188399,23.7618018,0 79.9190547,23.7619307,0 79.9192988,23.7620454,0 79.9194471,23.7621416,0 79.91969,23.7622436,0 79.9199266,23.7623397,0 79.920163,23.7624213,0 79.9204004,23.7624854,0 79.9205645,23.7626215,0 79.9207416,23.7627441,0 79.9209697,23.7628784,0 79.9211888,23.7629976,0 79.9213917353708,23.76307040808,0 79.9216390063174,23.763218770648,0 79.9217956456981,23.7633097908813,0 79.9219594157658,23.7634162882463,0 79.9219662831372,23.7634194308242,0 79.9220957303011,23.763506768574,0 79.9222993651983,23.7636231313724,0 79.9225873631244,23.7637598576605,0 79.9227464,23.7639144,0 79.9229517,23.7639768,0 79.9232013,23.7640845,0 79.9234438,23.7641841,0 79.9236907,23.764247,0 79.9239439,23.7642894,0 79.9241479,23.7643548,0 79.924403,23.7644328,0 79.9246545,23.7644797,0 79.9249183,23.7645409,0 79.9251551,23.7645978,0 79.9253829793558,23.7647082144675,0 79.9255197056439,23.7649496672741,0 79.9256409,23.7651342,0 79.9258121,23.7653287,0 79.9260196,23.7654873,0 79.9261898,23.76569,0 79.9263659,23.7658477,0 79.9263775,23.7658452,0 79.9263756144539,23.7658176762752,0 79.9263762854782,23.7658183140801,0 79.9263703,23.7657401,0 79.9264254,23.7655899,0 79.9265772,23.7654338,0 79.9266711,23.7652829,0 79.9268118,23.7652128,0 79.9269929,23.7652624,0 79.9270979,23.7653815,0 79.9271956,23.765464,0 79.9273114,23.7655134,0 79.9274791,23.765556,0 79.927672,23.7655868,0 79.9282761,23.7656197,0 79.9282559,23.7655839,0 79.9282666,23.7654929,0 79.9282058,23.7653118,0 79.9280623,23.7651246,0 79.9277631,23.7647581,0 79.9275375,23.7644708,0 79.9273781,23.7642738,0 79.9272655,23.7641266,0 79.9271476,23.7639568,0 79.9270411,23.7637714,0 79.9269612,23.7635136,0 79.9268802,23.7632566,0 79.9266341,23.7629979,0 79.9264088,23.7628138,0 79.926166,23.7626489,0 79.9259742,23.7625309,0 79.9256915,23.7624192,0 79.9254796,23.7623236,0 79.9252387,23.7621992,0 79.9249179,23.7621262,0 79.9247033,23.7620887,0 79.9244753,23.7620472,0 79.9242833,23.7619566,0 79.9241024,23.7617975,0 79.9239574,23.7616091,0 79.9238239,23.7613933,0 79.9236906,23.761174,0 79.9235134,23.7609564,0 79.9233601,23.7607351,0 79.9231935,23.7605799,0 79.923024,23.7603891,0 79.922831,23.7601977,0 79.9226936,23.7600658,0 79.9225839,23.7599258,0 79.922473,23.759776,0 79.9223082,23.7596233,0 79.9221011,23.7594758,0 79.9218794,23.7592975,0 79.9217351,23.7592301,0 79.9214967,23.7591245,0 79.9212612,23.7590415,0 79.9210275,23.7589481,0 79.9208468,23.7588745,0 79.920644,23.7587756,0 79.920444,23.7586603,0 79.9201704,23.7585343,0 79.9200176,23.7584606,0 79.9199154052246,23.7583799597193,0 79.9199154052223,23.7583799597223,0 79.9199095,23.7583753,0 79.9198587288368,23.7584006971527,0 79.9198356,23.7584818,0 79.9198284,23.7585104,0 79.9198272,23.7585315,0 79.9198237,23.7585681,0 79.9198214,23.7585913,0 79.9198168,23.7587002,0 79.9198399,23.7587756,0 79.9198184,23.7588302,0 79.9197942,23.7588913,0 79.919765,23.7591051,0 79.9197376,23.7591291,0 79.9197321,23.759141,0 79.9197211,23.7591912,0 79.9197012,23.7592383,0 79.9196808,23.7592668,0 79.9196556,23.7593103,0 79.9195361,23.759375,0 79.9195256,23.7593394,0 79.9195262,23.7593284,0 79.9194307,23.7592559,0 79.9194024,23.7592017,0 79.9191732,23.75926,0 79.9191322,23.7592608,0 79.9190557,23.759243,0 79.9190102,23.7592462,0 79.9189436,23.7592627,0 79.9188932,23.7592929,0 79.9188677,23.7592956,0 79.9188517,23.7593271,0 79.9188224,23.7593821,0 79.9187809,23.7594181,0 79.9186606,23.7594745,0 79.9185749,23.7595194,0 79.9184391,23.7596015,0 79.9184044,23.7596373,0 79.9183811,23.759653,0 79.9183301,23.759719,0 79.9182848,23.7597706,0 79.9182746,23.7597884,0 79.9182392,23.7598315,0 79.9182167,23.7598666,0 79.9181141,23.7599768,0 79.9180234,23.759975,0 79.9179469,23.7599865,0 79.9177827,23.7599951,0 79.9177745,23.7600041,0 79.9177242,23.7600457,0 79.9176912,23.7600751,0 79.9176746,23.7601121,0 79.9175172,23.7602317,0 79.9175241,23.7602792,0 79.9175064,23.7603394,0 79.9174955,23.760428,0 79.9174689,23.7605721,0 79.9174264,23.7605347,0 79.9174039,23.7605854,0 79.9174642,23.7607344,0 79.9174941,23.7607748,0 79.9175489,23.7608094,0 79.9175951,23.7608387,0 79.9176644,23.7608826,0 79.917696,23.7609189,0 79.9177227,23.760994,0 79.9178178,23.7610623,0 79.9178458,23.7610867,0 79.9178233,23.7611283,0 79.9178293,23.7611822,0 79.9178464,23.7612518,0 79.9178909,23.7612707,0 79.9168402250014,23.7615904651367,0 79.9170277359823,23.761550464485,0 79.9172152469632,23.7615040120999,0 79.9173370469728,23.761482922251,0 79.9171813,23.7615426,0</coordinates></LinearRing></outerBoundaryIs></Polygon></MultiGeometry>
  </Placemark>
  
    </Document>
</kml>