<?xml version="1.0" encoding="UTF-8"?>
<kml xmlns="http://www.opengis.net/kml/2.2">
    <Document>
        <Placemark xmlns:ns0="http://www.opengis.net/kml/2.2">
	<Style><LineStyle><color>ff0000ff</color></LineStyle><PolyStyle><fill>0</fill></PolyStyle></Style>
	<ExtendedData><SchemaData schemaUrl="#Wave24_v28MAR2025">
		<SimpleData name="area(ha)">2.248162314503780</SimpleData>
		<SimpleData name="site_id">240255_1.2</SimpleData>
		<SimpleData name="Land_parc">240255</SimpleData>
		<SimpleData name="district">Katni</SimpleData>
		<SimpleData name="block">Barwara</SimpleData>
		<SimpleData name="village">Pathara</SimpleData>
		<SimpleData name="Land Type">Community</SimpleData>
		<SimpleData name="Instance">Wave 2024</SimpleData>
	</SchemaData></ExtendedData>
      <Polygon><outerBoundaryIs><LinearRing><coordinates>80.4967108835868,23.8125356974205,0 80.4966623642948,23.8125353803568,0 80.4966245885604,23.8125363315478,0 80.4965535424543,23.8125252343198,0 80.4965022506313,23.8125404533751,0 80.4964149159058,23.8125759644972,0 80.4963830317996,23.8126609375,0 80.4965244308791,23.8126609375,0 80.4966284007904,23.8127205453942,0 80.4966200831975,23.8128220055766,0 80.4965202720826,23.8128701991355,0 80.496255495375,23.8128308833388,0 80.4962416327201,23.8128854181504,0 80.4961847958353,23.8130020972052,0 80.4960614182072,23.8130819969322,0 80.4960184439771,23.8131707743491,0 80.4959214053932,23.8132291137613,0 80.4958354569331,23.8133559384802,0 80.4957910964376,23.8134218872851,0 80.4961285,23.8134251,0 80.4962277,23.8134532,0 80.4963135,23.8134644,0 80.4963519,23.8134568,0 80.4964864,23.8134672,0 80.4965972,23.813467,0 80.4967038,23.8134985,0 80.4968597,23.813554,0 80.4969753,23.8135678,0 80.497193,23.8135779,0 80.49739,23.8136123,0 80.497439,23.8136747,0 80.4975661,23.8136956,0 80.4976406,23.8137092,0 80.4976557,23.8137211,0 80.4976903,23.8137221,0 80.4977686041516,23.8137370460149,0 80.4978091,23.8136776,0 80.4979187,23.813636,0 80.4980605,23.8134769,0 80.4981595310184,23.8134313991292,0 80.4980749688238,23.8131891639493,0 80.4980611061689,23.8131181420307,0 80.4980375396557,23.8130521930716,0 80.4980001104876,23.8129735615765,0 80.4979737714434,23.81287971102,0 80.4979515911956,23.8128061524284,0 80.4979194,23.8126695,0 80.4978763,23.8125663,0 80.4978409766748,23.8125013541677,0 80.4977481332169,23.8124376492702,0 80.4976947482286,23.8123760678395,0 80.4975995836842,23.8123527093581,0 80.4975345932637,23.8123718208432,0 80.4974278232871,23.8123888088275,0 80.4973187322241,23.8124270317842,0 80.4972212465933,23.812435525773,0 80.497082,23.812479,0 80.4968883255688,23.8124776747604,0 80.4968079221707,23.8124928938213,0 80.4967839,23.8125362,0 80.4967240531089,23.8125391851205,0 80.4967108835868,23.8125356974205,0</coordinates></LinearRing></outerBoundaryIs></Polygon>
  </Placemark>
  
    </Document>
</kml>