<?xml version="1.0" encoding="UTF-8"?>
<kml xmlns="http://www.opengis.net/kml/2.2">
    <Document>
        <Placemark xmlns:ns0="http://www.opengis.net/kml/2.2">
	<Style><LineStyle><color>ff0000ff</color></LineStyle><PolyStyle><fill>0</fill></PolyStyle></Style>
	<ExtendedData><SchemaData schemaUrl="#Wave24_v28MAR2025">
		<SimpleData name="area(ha)">0.908703268757067</SimpleData>
		<SimpleData name="site_id">240254_1.2</SimpleData>
		<SimpleData name="Land_parc">240254</SimpleData>
		<SimpleData name="district">Damoh</SimpleData>
		<SimpleData name="block">Damoh</SimpleData>
		<SimpleData name="village">Biltra sadak</SimpleData>
		<SimpleData name="Land Type">Community land</SimpleData>
		<SimpleData name="Instance">Wave 2024</SimpleData>
	</SchemaData></ExtendedData>
      <Polygon><outerBoundaryIs><LinearRing><coordinates>79.5929674,23.8506347,0 79.5930128,23.850574,0 79.5930334,23.8505489,0 79.593057,23.8505166,0 79.5930888,23.850487,0 79.593114,23.8504629,0 79.5931407,23.8504325,0 79.5932124,23.8503763,0 79.5932373,23.8503488,0 79.5932832,23.8503156,0 79.5933062,23.8502899,0 79.593372,23.8502287,0 79.5934051,23.8502052,0 79.5934262,23.8501776,0 79.5934584,23.8501406,0 79.5934489,23.8501378,0 79.5934772,23.850101,0 79.5935038,23.8500731,0 79.5935065,23.8500694,0 79.5935061,23.8500671,0 79.5934984,23.8500591,0 79.5934907,23.8500262,0 79.5934397,23.849979,0 79.5934195,23.8499593,0 79.5933624,23.8499265,0 79.5933092,23.8498908,0 79.5932831,23.8498771,0 79.5931854,23.8498396,0 79.5931594,23.8498167,0 79.5931282,23.8498132,0 79.5930567,23.8498444,0 79.5930052,23.8498729,0 79.592941,23.8499051,0 79.5928764,23.8499241,0 79.5928407,23.8499337,0 79.5927782,23.8499523,0 79.5927757,23.8499515,0 79.5926881,23.8500226,0 79.5926579,23.8500753,0 79.5925953,23.8501203,0 79.5925458,23.8501428,0 79.5924781,23.8501706,0 79.5924143,23.8502101,0 79.5923021,23.8502656,0 79.5922646,23.8502815,0 79.5921854,23.8502989,0 79.5921275,23.8503164,0 79.5921135,23.8503323,0 79.5920906,23.8503559,0 79.5920483,23.8503879,0 79.5920247,23.8503898,0 79.592018,23.8503947,0 79.5920292,23.8504219,0 79.5920427,23.8504448,0 79.5919774,23.8504876,0 79.5920517896645,23.8505422766683,0 79.5921149513857,23.8505572535358,0 79.5921734344608,23.8505829281617,0 79.592269346704,23.8506064632309,0 79.5923208118102,23.8506321378471,0 79.5923629196243,23.8506588822335,0 79.5924003487924,23.8507294873871,0 79.5924155543919,23.8507466037822,0 79.5924214026994,23.850765859724,0 79.5924471352525,23.8508000925023,0 79.5924775464515,23.8508321857237,0 79.5925126362966,23.8508621393899,0 79.5925336902037,23.8508867441819,0 79.5926116,23.8509599,0 79.5926624,23.8509198,0 79.5926924,23.8508957,0 79.5927319,23.8508681,0 79.5928037,23.8508028,0 79.5928257,23.8507786,0 79.5928507,23.8507496,0 79.5928939,23.8507036,0 79.5929488,23.8506492,0 79.5929669,23.8506391,0 79.5929674,23.8506347,0</coordinates></LinearRing></outerBoundaryIs></Polygon>
  </Placemark>
  
    </Document>
</kml>