<?xml version="1.0" encoding="UTF-8"?>
<kml xmlns="http://www.opengis.net/kml/2.2">
    <Document>
        <Placemark xmlns:ns0="http://www.opengis.net/kml/2.2">
	<Style><LineStyle><color>ff0000ff</color></LineStyle><PolyStyle><fill>0</fill></PolyStyle></Style>
	<ExtendedData><SchemaData schemaUrl="#Wave24_v28MAR2025">
		<SimpleData name="area(ha)">2.716288373201492</SimpleData>
		<SimpleData name="site_id">240256_1.1</SimpleData>
		<SimpleData name="Land_parc">240256</SimpleData>
		<SimpleData name="district">Katni</SimpleData>
		<SimpleData name="block">Dhimakheda</SimpleData>
		<SimpleData name="village">Paharua</SimpleData>
		<SimpleData name="Land Type">Community</SimpleData>
		<SimpleData name="Instance">Wave 2024</SimpleData>
	</SchemaData></ExtendedData>
      <Polygon><outerBoundaryIs><LinearRing><coordinates>80.5575704,23.5523134,0 80.5575927395254,23.552313499268,0 80.5576576557389,23.5522853533962,0 80.5577909971502,23.552236031092,0 80.5579407138225,23.5521802754215,0 80.5580880911719,23.5521545420272,0 80.5579814,23.5519442,0 80.5579525,23.5517652,0 80.5579319,23.5516548,0 80.5579244,23.5516279,0 80.5578873,23.551547,0 80.5578686,23.5514788,0 80.5578918,23.5512929,0 80.5578814,23.5511958,0 80.5578108,23.5510942,0 80.5577153,23.5510252,0 80.5575765,23.5509701,0 80.5575316,23.5509444,0 80.5574394,23.550924,0 80.5572974,23.5509,0 80.5571982,23.5508413,0 80.5570336,23.5508786,0 80.5569019,23.5507979,0 80.5567445,23.5508265,0 80.5567014,23.5508822,0 80.5566636,23.550893,0 80.5565488,23.5508752,0 80.5563568,23.5509467,0 80.5562425,23.550928,0 80.5561913,23.5509186,0 80.5561581,23.5509162,0 80.556171,23.551006,0 80.5561668,23.5511067,0 80.5561779,23.5511689,0 80.556203,23.5512725,0 80.5562325,23.5513943,0 80.5562019,23.5515365,0 80.5562329,23.5516217,0 80.5562634192274,23.5516913400672,0 80.5563102056875,23.5518414519923,0 80.5563523135016,23.5519786970309,0 80.5563686887627,23.5520880640684,0 80.5563916,23.5521715,0 80.5564381,23.5522719,0 80.5564616,23.552306,0 80.5564839,23.5523288,0 80.5565464,23.552352,0 80.556557,23.5523726,0 80.5565152,23.5523831,0 80.556553,23.5524088,0 80.5565793,23.5524176,0 80.5565822,23.5524418,0 80.5566384,23.5524615,0 80.556699,23.5524566,0 80.5567756,23.5524489,0 80.5568259,23.5524395,0 80.5568524,23.5524358,0 80.5569009,23.5524487,0 80.5569314,23.5524508,0 80.5569882,23.5524417,0 80.5570477,23.5524209,0 80.55709,23.552397,0 80.5571171,23.5523995,0 80.5571826,23.5524062,0 80.5572392,23.5524148,0 80.557273,23.5523998,0 80.557366,23.5524054,0 80.5574181,23.5523566,0 80.5574858,23.5523114,0 80.5574879,23.5523099,0 80.5574882,23.5523087,0 80.5575451,23.5523147,0 80.5575704,23.5523134,0</coordinates></LinearRing></outerBoundaryIs></Polygon>
  </Placemark>
  
    </Document>
</kml>