<?xml version="1.0" encoding="UTF-8"?>
<kml xmlns="http://www.opengis.net/kml/2.2">
    <Document>
        <Placemark xmlns:ns0="http://www.opengis.net/kml/2.2">
	<Style><LineStyle><color>ff0000ff</color></LineStyle><PolyStyle><fill>0</fill></PolyStyle></Style>
	<ExtendedData><SchemaData schemaUrl="#Wave24_v28MAR2025">
		<SimpleData name="area(ha)">0.675384343373403</SimpleData>
		<SimpleData name="site_id">240218_1.1</SimpleData>
		<SimpleData name="Land_parc">240218</SimpleData>
		<SimpleData name="district">Damoh</SimpleData>
		<SimpleData name="block">Tendukheda</SimpleData>
		<SimpleData name="village">Pateriya Mal</SimpleData>
		<SimpleData name="Land Type">Farmer</SimpleData>
		<SimpleData name="Instance">Wave 2024</SimpleData>
	</SchemaData></ExtendedData>
      <Polygon><outerBoundaryIs><LinearRing><coordinates>79.5329006,23.5976858,0 79.5328799,23.5976932,0 79.5328391,23.5976992,0 79.5327797,23.5976943,0 79.5327568,23.5977357,0 79.5328349,23.5978104,0 79.5329317,23.5978933,0 79.5328848,23.5979203,0 79.5326894,23.5978993,0 79.5325414,23.5980083,0 79.5326687,23.5981372,0 79.5327674,23.5982257,0 79.5328363,23.5983042,0 79.5328803,23.5983083,0 79.5329994,23.5982189,0 79.5331290310172,23.598144306554,0 79.5332752768037,23.5980739604794,0 79.5332277,23.5979747,0 79.5332826816537,23.5979277146929,0 79.5333882007655,23.5978814343807,0 79.5336103462641,23.5977833201188,0 79.5337389,23.597745,0 79.5342008830478,23.5976296694823,0 79.5341453466732,23.5975250759767,0 79.5340250178614,23.5972399892535,0 79.5338213844877,23.5973769789776,0 79.5337505704107,23.5973823465865,0 79.5334780706171,23.5975323466534,0 79.5333456228783,23.5976028269012,0 79.5332623183163,23.5976083805387,0 79.5331734601169,23.597628743876,0 79.5330569927131,23.5976303539265,0 79.5329394927758,23.5976409539212,0 79.5329006,23.5976858,0</coordinates></LinearRing></outerBoundaryIs></Polygon>
  </Placemark>
  
    </Document>
</kml>