<?xml version="1.0" encoding="UTF-8"?>
<kml xmlns="http://www.opengis.net/kml/2.2">
    <Document>
        <Placemark xmlns:ns0="http://www.opengis.net/kml/2.2">
	<Style><LineStyle><color>ff0000ff</color></LineStyle><PolyStyle><fill>0</fill></PolyStyle></Style>
	<ExtendedData><SchemaData schemaUrl="#Wave24_v28MAR2025">
		<SimpleData name="area(ha)">14.214104960917801</SimpleData>
		<SimpleData name="site_id">240209_1.1</SimpleData>
		<SimpleData name="Land_parc">240209</SimpleData>
		<SimpleData name="district">Chhatarpur</SimpleData>
		<SimpleData name="block">Bijawar</SimpleData>
		<SimpleData name="village">Gulganj</SimpleData>
		<SimpleData name="Land Type">Farmer</SimpleData>
		<SimpleData name="Instance">Wave 2024</SimpleData>
	</SchemaData></ExtendedData>
      <Polygon><outerBoundaryIs><LinearRing><coordinates>79.358706588759,24.7141264034874,0 79.3586724115119,24.7141109553051,0 79.3586286092988,24.7140954017831,0 79.358587688878,24.7140698303397,0 79.3585372423479,24.7140366175445,0 79.3584888957168,24.7139481557576,0 79.3584510878074,24.7138949823657,0 79.3584147043481,24.7138380560132,0 79.3583507551625,24.7137858526601,0 79.3582696890493,24.7136756776037,0 79.3582041598936,24.713534268061,0 79.3581361098022,24.7135850265592,0 79.3580346643827,24.7136655677701,0 79.3579733006372,24.713625954376,0 79.3579725353828,24.7135794673117,0 79.3580323191154,24.7135298745756,0 79.358068826853,24.7134724899234,0 79.3580990363408,24.7133710699858,0 79.358059,24.7134415,0 79.3580107,24.7134707,0 79.3579812,24.7134864,0 79.3579204,24.71354,0 79.3578684,24.7135923,0 79.3578128528735,24.7136179168212,0 79.3577555619739,24.7136372861301,0 79.3576215619739,24.7137245861301,0 79.3574975403408,24.7138575350697,0 79.3574543,24.713904,0 79.3573997,24.7139583,0 79.3572404050857,24.7140651291329,0 79.3571785912718,24.7141121869295,0 79.3571328784102,24.7141374379091,0 79.3571100755601,24.7141459813943,0 79.3570950337577,24.7142180469934,0 79.3571035919995,24.7142470328856,0 79.3571129778958,24.7142653503112,0 79.3571353273407,24.7142913468173,0 79.3571447214888,24.7143090362414,0 79.3571679480587,24.7143205962777,0 79.3572118655536,24.7143273582229,0 79.3572637692501,24.7143543065123,0 79.3573281963352,24.7143700863238,0 79.3573703926544,24.7144032091596,0 79.3574457538327,24.7144241333953,0 79.3574919103529,24.7144698613733,0 79.3575281781526,24.7145355799319,0 79.3575760462466,24.7146604659948,0 79.3576681288184,24.7147695058679,0 79.3577526537875,24.7148257033577,0 79.3578197487854,24.7148477930847,0 79.3578831049255,24.7149452126747,0 79.3579275406904,24.7150173014796,0 79.3579354281489,24.715045023807,0 79.3579386,24.7151126,0 79.3579929,24.7152515,0 79.3579962,24.7153885,0 79.3579187,24.7154594,0 79.3578481,24.7154675,0 79.3577388,24.7155727,0 79.3575254,24.7157245,0 79.3574433,24.7157861,0 79.357322,24.7158751,0 79.3572789,24.715903,0 79.3572923633564,24.7159474561829,0 79.3573248691074,24.7159854976238,0 79.3573697500283,24.7160236746004,0 79.3573809983957,24.716040721662,0 79.3574216983957,24.716103121662,0 79.3574633732238,24.7161201696878,0 79.3575014780599,24.7161507353346,0 79.357542332952,24.7161813310898,0 79.3575898321665,24.7162295861209,0 79.3576510486453,24.7162805037156,0 79.3577150481828,24.7163289394026,0 79.3577395348084,24.7163493064246,0 79.3577734652696,24.7163835948366,0 79.3578379758761,24.7163930944838,0 79.3579242725686,24.7164191629874,0 79.3580184568474,24.7164729537666,0 79.3580908056492,24.716513943632,0 79.3581193844825,24.7165368677578,0 79.3581821411515,24.716575240207,0 79.3581902429767,24.7165866345243,0 79.3581967720272,24.7166130857876,0 79.3582030044518,24.7166621450495,0 79.3582161120045,24.7167112795751,0 79.3582306110709,24.7167591731526,0 79.358254685892,24.7168109400966,0 79.3582843761891,24.7168539752467,0 79.3583127079575,24.7168957393399,0 79.3583351112,24.7169700992204,0 79.3583014184313,24.7170224899699,0 79.3583132993302,24.7170603054372,0 79.3583850479948,24.7170422481294,0 79.3584523164805,24.7171560406865,0 79.3585345145796,24.7173111365346,0 79.3585689233241,24.7173090007858,0 79.3586332800319,24.7173061990431,0 79.3587096049041,24.7172778798057,0 79.3588053057634,24.7172161181175,0 79.3588769720974,24.7172043405769,0 79.3589673617419,24.7172329656593,0 79.3590273030797,24.7172763316918,0 79.3590874585824,24.7173033696973,0 79.3591486432664,24.7173567987332,0 79.3591908081178,24.7173924331222,0 79.3592719350678,24.7173933207105,0 79.3593295053035,24.717407768532,0 79.3593663677105,24.7174282706965,0 79.359390953634,24.7174411014677,0 79.3594623895182,24.7174469076596,0 79.359535118112,24.7174590088621,0 79.3596974050602,24.7174582716255,0 79.359808700506,24.7174657697986,0 79.3599499833282,24.7174936947284,0 79.3600172777187,24.7175007115476,0 79.3601508805179,24.7175112798171,0 79.3603639,24.7175757,0 79.3604792,24.7175801,0 79.3606448801707,24.7174890447237,0 79.3607580279554,24.7174601331869,0 79.3609073214598,24.7174014682718,0 79.3610345813888,24.7173450747681,0 79.361192,24.7173446,0 79.3612901,24.7173243,0 79.3614849,24.7172813,0 79.3616184,24.7172893,0 79.361792,24.717251,0 79.3619938,24.7171739,0 79.3621343,24.7172156,0 79.3623476298588,24.7172626929061,0 79.3624422,24.7171997,0 79.3624539,24.7171182,0 79.3623124,24.7169374,0 79.3621834,24.7168375,0 79.3620614,24.7167821,0 79.3618562,24.7168573,0 79.3618176,24.7168749,0 79.3618253,24.7167197,0 79.3620451,24.7164462,0 79.3620041,24.7164093,0 79.3618768,24.716525,0 79.3616001,24.7166074,0 79.3615067,24.7165964,0 79.3614115,24.7166099,0 79.3613479,24.7165272,0 79.3612972,24.7164912,0 79.3612218,24.7164022,0 79.3612656,24.7162099,0 79.3611747,24.7160714,0 79.3610973798229,24.7159628622204,0 79.3610809,24.7159559,0 79.3609935364429,24.7159114801391,0 79.3608459887366,24.7158370090627,0 79.3606450201643,24.715641360503,0 79.360783,24.7154634,0 79.3609347,24.7153823,0 79.3609393,24.7153439,0 79.3609792,24.7153434,0 79.3610481,24.7153311,0 79.3611015,24.715269,0 79.3611526638415,24.715272409381,0 79.3611971411961,24.7152364661167,0 79.361226164453,24.7152254776124,0 79.3612580693069,24.7152044711335,0 79.3612981255284,24.7151910908023,0 79.3613237017784,24.7151676598196,0 79.3613478499423,24.7151088831141,0 79.3613756790578,24.7150840635312,0 79.361394052112,24.7150724875629,0 79.3614059896063,24.7150010156176,0 79.361375334745,24.7149265659643,0 79.3613256107388,24.7148380899576,0 79.3612568176442,24.714735587581,0 79.3612907881377,24.7146618440183,0 79.3614167029372,24.7146029229891,0 79.361532828156,24.7145564567236,0 79.361669,24.7144896,0 79.3618069203223,24.7144187583797,0 79.3617679331214,24.7143504986976,0 79.3617059491265,24.7142530956201,0 79.3617101624931,24.7141413414315,0 79.3616875931906,24.7140795419763,0 79.3616510766191,24.7140326643519,0 79.3616377870422,24.7139973460824,0 79.361609602709,24.7139442785558,0 79.3616031779174,24.7138047721529,0 79.3613326,24.7137867,0 79.3610291905882,24.7138716735632,0 79.3608377536434,24.7138934489513,0 79.3604869,24.7139481,0 79.3602498,24.7139571,0 79.3601637,24.7139765,0 79.3599845,24.7140984,0 79.359932,24.7141219,0 79.3596906791218,24.7141158142434,0 79.3594424,24.7141769,0 79.3591182,24.7142054,0 79.3589613499926,24.7142045620282,0 79.3588708471995,24.7141847290502,0 79.3588106602642,24.7141602030287,0 79.3587051808174,24.7141289004419,0 79.358706588759,24.7141264034874,0</coordinates></LinearRing></outerBoundaryIs><innerBoundaryIs><LinearRing><coordinates>79.3583735428974,24.7156822155872,0 79.3583670479001,24.7156367507565,0 79.3584182437614,24.7156044741873,0 79.358549289884,24.7156686802577,0 79.3586295222039,24.7157252509841,0 79.3585733595799,24.7157915393486,0 79.3584350543427,24.7157530157484,0 79.3583865328921,24.71571102154,0 79.3583735428974,24.7156822155872,0</coordinates></LinearRing></innerBoundaryIs></Polygon>
  </Placemark>
  
    </Document>
</kml>