<?xml version="1.0" encoding="UTF-8"?>
<kml xmlns="http://www.opengis.net/kml/2.2">
    <Document>
        <Placemark xmlns:ns0="http://www.opengis.net/kml/2.2">
	<Style><LineStyle><color>ff0000ff</color></LineStyle><PolyStyle><fill>0</fill></PolyStyle></Style>
	<ExtendedData><SchemaData schemaUrl="#Wave24_v28MAR2025">
		<SimpleData name="area(ha)">6.520735850349804</SimpleData>
		<SimpleData name="site_id">240207_1.1</SimpleData>
		<SimpleData name="Land_parc">240207</SimpleData>
		<SimpleData name="district">Chhatarpur</SimpleData>
		<SimpleData name="block">Rajnagar</SimpleData>
		<SimpleData name="village">Bansarai</SimpleData>
		<SimpleData name="Land Type">Community</SimpleData>
		<SimpleData name="Instance">Wave 2024</SimpleData>
	</SchemaData></ExtendedData>
      <Polygon><outerBoundaryIs><LinearRing><coordinates>79.8295998,24.7316575,0 79.829599935382,24.7316571990599,0 79.8295691041024,24.7316430353309,0 79.829573,24.7316426,0 79.8294042704127,24.7316320254771,0 79.8287603666703,24.731551329444,0 79.8288478244677,24.7316349689816,0 79.8288853055594,24.7317268856567,0 79.8287428774108,24.731794972039,0 79.828682907664,24.7317388007763,0 79.8286349821015,24.7316701561913,0 79.8286351880457,24.7317403075521,0 79.828551,24.7318904,0 79.8284347,24.7321532,0 79.828172,24.7322143,0 79.8282473,24.7323539,0 79.828375,24.7324992,0 79.8282522,24.7327565,0 79.828333,24.7328624,0 79.8284116,24.7330983,0 79.8284646,24.733451,0 79.8285966,24.7335076,0 79.8288719,24.733414,0 79.8290097,24.733584,0 79.8290977,24.7337732,0 79.8291936,24.7339625,0 79.8294237,24.7340957,0 79.8296019,24.7341315,0 79.8298011,24.734104,0 79.8300813,24.7340106,0 79.8303884,24.7339415,0 79.8306113,24.7338541,0 79.8307384,24.7336243,0 79.8309205,24.7335263,0 79.8310423,24.7334454,0 79.8312462,24.73316,0 79.8312033,24.7330616,0 79.8316018,24.7329022,0 79.8315835,24.7326467,0 79.8314703,24.7325105,0 79.8314561,24.7324212,0 79.8314049,24.7322454,0 79.8312923788777,24.7321078526,0 79.8310479525459,24.7320365854224,0 79.8309291028316,24.7320104363126,0 79.8307724165408,24.7319698044379,0 79.8305829239986,24.7319304929151,0 79.8304534244303,24.7319357883545,0 79.8301529453027,24.7319523608349,0 79.8300253337961,24.7319403302423,0 79.8299693385017,24.7318374272984,0 79.8297139,24.731727,0 79.8295998,24.7316575,0</coordinates></LinearRing></outerBoundaryIs></Polygon>
  </Placemark>
  
    </Document>
</kml>