<?xml version="1.0" encoding="UTF-8"?>
<kml xmlns="http://www.opengis.net/kml/2.2">
    <Document>
        <Placemark xmlns:ns0="http://www.opengis.net/kml/2.2">
	<Style><LineStyle><color>ff0000ff</color></LineStyle><PolyStyle><fill>0</fill></PolyStyle></Style>
	<ExtendedData><SchemaData schemaUrl="#Wave24_v28MAR2025">
		<SimpleData name="area(ha)">8.197214406829946</SimpleData>
		<SimpleData name="site_id">240227_1.3</SimpleData>
		<SimpleData name="Land_parc">240227</SimpleData>
		<SimpleData name="district">Katni</SimpleData>
		<SimpleData name="block">Rithi</SimpleData>
		<SimpleData name="village">Khamariya</SimpleData>
		<SimpleData name="Land Type">Community</SimpleData>
		<SimpleData name="Instance">Wave 2024</SimpleData>
	</SchemaData></ExtendedData>
      <Polygon><outerBoundaryIs><LinearRing><coordinates>79.9337083,23.771064,0 79.9337063,23.7707941,0 79.9337906,23.7705238,0 79.9337255,23.7703358,0 79.9336918,23.7700388,0 79.9336932,23.7697099,0 79.9336343,23.7694883,0 79.9334738,23.7693384,0 79.9332255,23.7691858,0 79.933055,23.7690587,0 79.932817,23.7688568,0 79.9325133,23.7687018,0 79.9323364,23.7685738,0 79.9319985,23.7684243,0 79.9316786,23.7681504,0 79.9315071,23.7679771,0 79.931132,23.767766,0 79.9308898,23.7676108,0 79.9307042,23.7674855,0 79.9304202,23.7672857,0 79.9303009,23.7671128,0 79.9302483988636,23.7671714694559,0 79.9301553086249,23.7672296508551,0 79.9300764,23.7673153,0 79.9298395,23.7674896,0 79.9297429,23.7675857,0 79.9295718,23.767759,0 79.9294548,23.7679315,0 79.9293267,23.7680803,0 79.9293048233605,23.768105034425,0 79.9293404523969,23.7681364559428,0 79.9293349508962,23.7681503714974,0 79.9293844050855,23.7682041892917,0 79.9294716771843,23.7682667342958,0 79.9295851309128,23.7683685517444,0 79.9296840392914,23.768473278263,0 79.9298411290692,23.7686012773412,0 79.9299179951308,23.7686644173748,0 79.9301605539306,23.7689929546951,0 79.9306004293144,23.7694471289422,0 79.930641568125,23.7694651800529,0 79.9306876684276,23.7695292706584,0 79.9309640300737,23.7696369062469,0 79.9312956640491,23.7697619962552,0 79.9313860096472,23.7697918274282,0 79.9314237858019,23.7698084027792,0 79.9319160613134,23.7699871795831,0 79.9320152628071,23.770029081941,0 79.9321823036696,23.7701130800659,0 79.9326757388173,23.7705928796565,0 79.9328336428012,23.7707889981366,0 79.9330592199211,23.7710160823232,0 79.9333675538814,23.7710563933481,0 79.9333361173725,23.7710352443277,0 79.9333407402309,23.7710361688976,0 79.933480375589,23.7710419870375,0 79.9337083,23.771064,0</coordinates></LinearRing></outerBoundaryIs></Polygon>
  </Placemark>
  
    </Document>
</kml>