<?xml version="1.0" encoding="UTF-8"?>
<kml xmlns="http://www.opengis.net/kml/2.2">
    <Document>
        <Placemark xmlns:ns0="http://www.opengis.net/kml/2.2">
	<Style><LineStyle><color>ff0000ff</color></LineStyle><PolyStyle><fill>0</fill></PolyStyle></Style>
	<ExtendedData><SchemaData schemaUrl="#Wave24_v28MAR2025">
		<SimpleData name="area(ha)">5.137608219887154</SimpleData>
		<SimpleData name="site_id">240208_2.2</SimpleData>
		<SimpleData name="Land_parc">240208</SimpleData>
		<SimpleData name="district">Chhatarpur</SimpleData>
		<SimpleData name="block">Bada Malahara</SimpleData>
		<SimpleData name="village">Khardooti</SimpleData>
		<SimpleData name="Land Type">Community</SimpleData>
		<SimpleData name="Instance">Wave 2024</SimpleData>
	</SchemaData></ExtendedData>
      <Polygon><outerBoundaryIs><LinearRing><coordinates>79.2315906,24.6590303,0 79.2316215,24.6590126,0 79.2315277,24.6588758,0 79.2314079,24.6587829,0 79.2312949,24.6587363,0 79.23115,24.6587005,0 79.2309986,24.6586294,0 79.2308056,24.6585606,0 79.2305713,24.6584306,0 79.2304866,24.6583091,0 79.2304536,24.6581214,0 79.2303544,24.6579048,0 79.2302146,24.657539,0 79.2301716,24.6574261,0 79.2301944,24.6572827,0 79.230163,24.6572041,0 79.2302109,24.6568891,0 79.2300678449595,24.6569113592107,0 79.2300678449595,24.6569113592107,0 79.2299219888196,24.6569096407731,0 79.2297833468794,24.6568889618679,0 79.2295975,24.6569671,0 79.2292806,24.6570821,0 79.2290566,24.6570982,0 79.2290251,24.6571116,0 79.2289982,24.6571623,0 79.2288931,24.6571634,0 79.2287783,24.6571664,0 79.2287584,24.6573272,0 79.2287294,24.6574529,0 79.228737,24.6575952,0 79.2287641,24.6578374,0 79.2287709,24.6581557,0 79.2287933,24.658355,0 79.2287175,24.6585441,0 79.2286539,24.6585627,0 79.2284763,24.658627,0 79.2283214,24.6586698,0 79.2281218,24.6587555,0 79.2279771,24.6588344,0 79.227922,24.6589654,0 79.2279481,24.6591029,0 79.2281285,24.6592032,0 79.2285104,24.6592143,0 79.2287909,24.659241,0 79.229108,24.6592288,0 79.229626,24.6592131,0 79.2297109,24.6592607,0 79.2299012,24.6592398,0 79.2301801,24.6592104,0 79.2304322,24.6591944,0 79.2305894,24.6592343,0 79.2307686,24.6592521,0 79.2308922,24.6592344,0 79.2309774,24.65922,0 79.2311144,24.6591721,0 79.2311773,24.6591538,0 79.2313248,24.6591264,0 79.2314405,24.659066,0 79.2315906,24.6590303,0</coordinates></LinearRing></outerBoundaryIs></Polygon>
  </Placemark>
  
    </Document>
</kml>