<?xml version="1.0" encoding="UTF-8"?>
<kml xmlns="http://www.opengis.net/kml/2.2">
    <Document>
        <Placemark xmlns:ns0="http://www.opengis.net/kml/2.2">
	<Style><LineStyle><color>ff0000ff</color></LineStyle><PolyStyle><fill>0</fill></PolyStyle></Style>
	<ExtendedData><SchemaData schemaUrl="#Wave24_v28MAR2025">
		<SimpleData name="area(ha)">19.860035022830242</SimpleData>
		<SimpleData name="site_id">240227_3.3</SimpleData>
		<SimpleData name="Land_parc">240227</SimpleData>
		<SimpleData name="district">Katni</SimpleData>
		<SimpleData name="block">Rithi</SimpleData>
		<SimpleData name="village">Kamariya</SimpleData>
		<SimpleData name="Land Type">Community</SimpleData>
		<SimpleData name="Instance">Wave 2024</SimpleData>
	</SchemaData></ExtendedData>
      <Polygon><outerBoundaryIs><LinearRing><coordinates>79.926049,23.7656334,0 79.9257394,23.7653371,0 79.9254583574015,23.7650928977698,0 79.9253566,23.7649127,0 79.9253357893564,23.7647704905208,0 79.9250666725618,23.7646958838847,0 79.9248601,23.7645974,0 79.9246306,23.7645161,0 79.9242906,23.764456,0 79.9241562,23.7644137,0 79.9236306,23.7643199,0 79.923296,23.7642219,0 79.9230115,23.7641252,0 79.9228233,23.7640258,0 79.922598,23.7639227,0 79.9223734,23.7638091,0 79.9221537,23.7636706,0 79.9219305,23.763533,0 79.9217391,23.7633988,0 79.9215282,23.7632901,0 79.9213283,23.763164,0 79.9209539203419,23.7628915002775,0 79.9207706489344,23.7628115008536,0 79.9206019228767,23.7626995016602,0 79.9204096,23.7625593,0 79.9201595,23.762447,0 79.9199192,23.7623553,0 79.9196948,23.7622942,0 79.9194534,23.7621733,0 79.9192488,23.7620715,0 79.9190267,23.7619735,0 79.9188402,23.7618715,0 79.9186486,23.7617512,0 79.9184469,23.7616124,0 79.9182094,23.7615382,0 79.9179997,23.7614747,0 79.917798,23.7614579,0 79.9175585,23.7614988,0 79.9174789,23.7615371,0 79.9174711,23.7615531,0 79.9174701,23.7617638,0 79.9174824,23.7619577,0 79.9174982,23.7620774,0 79.9174887,23.7622363,0 79.9175001,23.7624056,0 79.9175679,23.7625483,0 79.9175997,23.7625857,0 79.9176321,23.7626413,0 79.9177785,23.7627734,0 79.9179427,23.7628605,0 79.9180846,23.7629881,0 79.918171,23.763149,0 79.9182325,23.7632995,0 79.9183109,23.7634494,0 79.9183407,23.7634892,0 79.9184622,23.7635999,0 79.9187518,23.7637108,0 79.9190892,23.7638401,0 79.9193827,23.7640627,0 79.9196836264596,23.7641581578226,0 79.920013321055,23.76434821706,0 79.9201801077327,23.764491731178,0 79.9203876213898,23.7646604572357,0 79.9204904085284,23.7647690625142,0 79.9205796200072,23.7648311226734,0 79.9206998615655,23.7649785155513,0 79.920882163283,23.7651065146296,0 79.9210547681006,23.7647748806541,0 79.9212661605177,23.7646100333564,0 79.9214019171159,23.7645363369174,0 79.9215473706138,23.7644432466787,0 79.92182858071,23.76434239892,0 79.9220380337471,23.7643773077596,0 79.9225345150202,23.7644083378391,0 79.9229151,23.7644579,0 79.9230309962933,23.7644781555182,0 79.9230212993935,23.7647884563139,0 79.9229766936541,23.7650250606706,0 79.9229340272947,23.7651743929286,0 79.9228716,23.7653154,0 79.9229405,23.765315,0 79.9229851,23.7653223,0 79.9230144,23.765328,0 79.9230465,23.765332,0 79.9231026,23.7653613,0 79.9231583,23.765405,0 79.923193,23.7654322,0 79.9232245,23.7654486,0 79.9232496,23.7654594,0 79.9233133,23.7654633,0 79.923709779284,23.7655234813237,0 79.9238222633224,23.7655583901633,0 79.9238978991414,23.765579723343,0 79.9239871106177,23.7655894202426,0 79.9240840796327,23.7656282078437,0 79.9242528056765,23.765651480402,0 79.9244855312732,23.7656844498615,0 79.9247046812102,23.765719358701,0 79.9246911055504,23.7659113573184,0 79.9249641,23.7660567,0 79.9252289,23.7662364,0 79.9256506,23.7665074,0 79.9261553374302,23.766805411486,0 79.9264811532657,23.7671351060815,0 79.9265626072246,23.7671932874807,0 79.9266359,23.7672553,0 79.9267119,23.7676521,0 79.9267558,23.7676839,0 79.926844,23.7677947,0 79.9268856,23.7679314,0 79.9270319371781,23.7682405526662,0 79.927396540613,23.7684674601231,0 79.9276389631097,23.7685489140819,0 79.9281024749233,23.7687098826197,0 79.9281403,23.7687889,0 79.9284709571182,23.7689290325567,0 79.9286399,23.7692159,0 79.9288306,23.7694227,0 79.929424,23.7697838,0 79.9298035,23.7698467,0 79.9304594,23.7695085,0 79.9305129569993,23.7694870287987,0 79.9304430132779,23.7694217479921,0 79.9302997951818,23.7693051751232,0 79.9302165288468,23.7692352314018,0 79.9301552448243,23.769176611902,0 79.9301186076369,23.7691473021521,0 79.9300466655235,23.7690567083796,0 79.9299720588874,23.7689821017435,0 79.9298841296376,23.7688848466643,0 79.9298428295355,23.7688302239485,0 79.9297948681265,23.7687835948009,0 79.9297242582745,23.7687316366079,0 79.9296363290248,23.7686570299718,0 79.9295750450023,23.768583755597,0 79.9294991061048,23.768513145745,0 79.9294644673094,23.7684678488587,0 79.9294284962527,23.7684332100634,0 79.9293599,23.768398,0 79.929296,23.7683391,0 79.9292004,23.7682675,0 79.9291637,23.7682243,0 79.9291465,23.7682001,0 79.9291399,23.7681978,0 79.9291059,23.7681599,0 79.9290735,23.7681299,0 79.9290263,23.768081,0 79.9290069,23.7680614,0 79.9289919,23.7680368,0 79.9289714,23.768015,0 79.9289457,23.7679993,0 79.9288916,23.7679602,0 79.9288423,23.7679303,0 79.9287888,23.7679022,0 79.9287579,23.7678821,0 79.9287266,23.7678322,0 79.9287057,23.7678189,0 79.9286707,23.7677988,0 79.928605,23.7677637,0 79.9285821,23.7677494,0 79.928562,23.7677272,0 79.9285196,23.7676874,0 79.928497,23.7676686,0 79.928471,23.7676524,0 79.9284446,23.7676228,0 79.9283906,23.7675973,0 79.9283382,23.7675533,0 79.9283113,23.7675404,0 79.928281,23.7675317,0 79.9282293,23.7674908,0 79.9281938,23.7674294,0 79.9281637,23.7674222,0 79.9281345,23.7674091,0 79.9281513,23.767373,0 79.928069,23.7672888,0 79.9279972,23.7672708,0 79.9279679,23.767273,0 79.9279448,23.7672528,0 79.9279173,23.7671839,0 79.9278918,23.7671709,0 79.9278599,23.7671584,0 79.9278345,23.7671423,0 79.9278051,23.767132,0 79.9277493,23.7671031,0 79.9277183,23.7670855,0 79.9276688,23.767053,0 79.9276445,23.7670379,0 79.9276224,23.76702,0 79.9275999,23.7670202,0 79.9275774,23.7669982,0 79.9275602,23.7669847,0 79.9275098,23.7669513,0 79.9274493,23.7669206,0 79.9274455,23.7668949,0 79.9274375,23.7668812,0 79.9274359,23.7668801,0 79.9274057,23.7668495,0 79.9273633,23.766805,0 79.9271041,23.7666369,0 79.9269784,23.7665447,0 79.9267039,23.7663211,0 79.9265911,23.7662172,0 79.9265146,23.7661394,0 79.9263673,23.7660135,0 79.9261728,23.7657943,0 79.9260700615412,23.7656500519623,0 79.926049,23.7656334,0</coordinates></LinearRing></outerBoundaryIs></Polygon>
  </Placemark>
  
    </Document>
</kml>