<?xml version="1.0" encoding="UTF-8"?>
<kml xmlns="http://www.opengis.net/kml/2.2">
    <Document>
        <Placemark xmlns:ns0="http://www.opengis.net/kml/2.2">
	<Style><LineStyle><color>ff0000ff</color></LineStyle><PolyStyle><fill>0</fill></PolyStyle></Style>
	<ExtendedData><SchemaData schemaUrl="#Wave24_v28MAR2025">
		<SimpleData name="area(ha)">4.816400467005676</SimpleData>
		<SimpleData name="site_id">240240_2.2</SimpleData>
		<SimpleData name="Land_parc">240240</SimpleData>
		<SimpleData name="district">Katni</SimpleData>
		<SimpleData name="block">Barwara</SimpleData>
		<SimpleData name="village">Barchheka</SimpleData>
		<SimpleData name="Land Type">Community</SimpleData>
		<SimpleData name="Instance">Wave 2024</SimpleData>
	</SchemaData></ExtendedData>
      <Polygon><outerBoundaryIs><LinearRing><coordinates>80.5644833,23.8472117,0 80.5644049634949,23.8471672646462,0 80.5643871,23.8471746,0 80.5643292,23.8470954,0 80.5642948,23.8470447,0 80.5642474,23.8468891,0 80.5642572,23.8468021,0 80.5642908,23.8467245,0 80.5642933,23.8466998,0 80.564367,23.8465899,0 80.5645433,23.8465119,0 80.564676,23.8465625,0 80.5648249,23.8464601,0 80.5649592,23.8461706,0 80.5645808,23.8460268,0 80.5645916,23.8458692,0 80.5647225,23.8456648,0 80.5647997,23.8455752,0 80.5648492,23.8455397,0 80.5649496,23.8455261,0 80.5649943,23.8455368,0 80.5650862,23.8454433,0 80.5650305,23.8454035,0 80.5649394,23.8453825,0 80.5648688,23.8453271,0 80.5647811,23.8452779,0 80.564692,23.8452163,0 80.5646677,23.8451436,0 80.5645389,23.8450383,0 80.5643437,23.8449069,0 80.5640858,23.8449077,0 80.5638523,23.8449733,0 80.5636925,23.8450379,0 80.5635936,23.8450609,0 80.5634739,23.8451531,0 80.5633302,23.8452336,0 80.5630901,23.8450523,0 80.5630302,23.8450327,0 80.5630254,23.8450495,0 80.563023,23.8450626,0 80.5628733,23.8450003,0 80.5626498,23.8450449,0 80.5625894,23.8450843,0 80.5626357,23.845379,0 80.5626662,23.8457624,0 80.5625984,23.845845,0 80.5625565,23.8457728,0 80.562324,23.8460243,0 80.5622952,23.8461472,0 80.562291,23.8462012,0 80.562215,23.8463058,0 80.5621798,23.846426,0 80.5621795,23.8465529,0 80.5622991,23.8465837,0 80.5625043,23.846551,0 80.5626336,23.8465975,0 80.5628377,23.8466677,0 80.5629489,23.8467675,0 80.5629973,23.8468759,0 80.5631342,23.8469644,0 80.5632592,23.8470078,0 80.5632866,23.8470068,0 80.5633112,23.8470157,0 80.5635655,23.8470766,0 80.5636015,23.8471133,0 80.5637015,23.8471029,0 80.5638187,23.8471082,0 80.56396,23.8471666,0 80.564108,23.847213,0 80.5642072,23.8472021,0 80.5643516,23.8471812,0 80.5644302217907,23.8471980672067,0 80.5644833,23.8472117,0</coordinates></LinearRing></outerBoundaryIs></Polygon>
  </Placemark>
  
    </Document>
</kml>