<?xml version="1.0" encoding="UTF-8"?>
<kml xmlns="http://www.opengis.net/kml/2.2">
    <Document>
        <Placemark xmlns:ns0="http://www.opengis.net/kml/2.2">
	<Style><LineStyle><color>ff0000ff</color></LineStyle><PolyStyle><fill>0</fill></PolyStyle></Style>
	<ExtendedData><SchemaData schemaUrl="#Wave24_v28MAR2025">
		<SimpleData name="area(ha)">13.583683566118221</SimpleData>
		<SimpleData name="site_id">240240_1.2</SimpleData>
		<SimpleData name="Land_parc">240240</SimpleData>
		<SimpleData name="district">Katni</SimpleData>
		<SimpleData name="block">Barwara</SimpleData>
		<SimpleData name="village">Barchheka</SimpleData>
		<SimpleData name="Land Type">Community</SimpleData>
		<SimpleData name="Instance">Wave 2024</SimpleData>
	</SchemaData></ExtendedData>
      <Polygon><outerBoundaryIs><LinearRing><coordinates>80.5569357456387,23.8479230088586,0 80.5569446100993,23.8480203003496,0 80.5568132669611,23.8481404295034,0 80.5566516138679,23.8485470196595,0 80.5566112005946,23.8489951914219,0 80.5567223370962,23.8495819706649,0 80.5568788711083,23.850003937778,0 80.5568994,23.8500046,0 80.5570396,23.8499502,0 80.5571524,23.8499629,0 80.5571525,23.8500177,0 80.5571812,23.8500799,0 80.5571895,23.8501352,0 80.5572202,23.8502287,0 80.5571558,23.8503105,0 80.5571339,23.8503699,0 80.557175,23.8504937,0 80.5571892,23.8505745,0 80.5571598,23.850666,0 80.5571489,23.8507585,0 80.5571631,23.8508697,0 80.5571861,23.8510531,0 80.5572032,23.8511412,0 80.557293,23.8512971,0 80.557336,23.8514245,0 80.5573848,23.8515291,0 80.5574945,23.8514639,0 80.557792,23.8515046,0 80.5578462,23.8515417,0 80.557962,23.8516408,0 80.5580775,23.8516408,0 80.5581346,23.8515821,0 80.5583367,23.8514801,0 80.5584484,23.851524,0 80.558577,23.8516841,0 80.5586507,23.8517784,0 80.5586698,23.8518017,0 80.5587817,23.8519248,0 80.5588307,23.8521142,0 80.5588244,23.8521764,0 80.5588628,23.8523074,0 80.5590523096416,23.8525845523959,0 80.5591533428248,23.8526615555646,0 80.5592274338259,23.8527293183152,0 80.5592956,23.8527381,0 80.5592245,23.8525736,0 80.5591996,23.8525053,0 80.5592119,23.8524927,0 80.5592902,23.8524012,0 80.559419,23.8523642,0 80.5594782,23.8523523,0 80.5595233,23.8523865,0 80.5595229,23.8524788,0 80.5595357,23.8525319,0 80.5595786,23.8525617,0 80.5596516,23.8525928,0 80.559789,23.8525763,0 80.5598167,23.8526121,0 80.5598368,23.852655,0 80.5598383,23.8526974,0 80.5598336,23.8527872,0 80.559879,23.8528612,0 80.5599751,23.8528803,0 80.5600863,23.8529194,0 80.560197,23.852923,0 80.5603473,23.852916,0 80.5605172,23.8529001,0 80.5606045,23.8528553,0 80.5609773,23.8529192,0 80.5610172,23.8529075,0 80.5610491,23.8529142,0 80.5611152,23.8529213,0 80.5611533,23.8529306,0 80.5612262,23.8529388,0 80.5612579,23.852929,0 80.5612863,23.8529282,0 80.5613431,23.8529158,0 80.561404,23.8528989,0 80.561469,23.8528827,0 80.5615295,23.852874,0 80.5615571,23.8528722,0 80.5616776,23.8527992,0 80.5617328,23.8527875,0 80.561853,23.8527674,0 80.5618797,23.8527704,0 80.5619349,23.8527581,0 80.561986,23.8527317,0 80.5620376,23.8527189,0 80.5620861,23.8526954,0 80.562176,23.8526904,0 80.5622193,23.8526484,0 80.5623357,23.8525553,0 80.5624507,23.8524969,0 80.5624784,23.8524791,0 80.5625874,23.8524511,0 80.5627015,23.8523735,0 80.5627788,23.8523293,0 80.5627805,23.8522322,0 80.5627806,23.8521193,0 80.562809,23.8520728,0 80.5628437,23.8520236,0 80.5628684,23.8519607,0 80.562849,23.8518868,0 80.562816,23.8517051,0 80.5627948,23.8516479,0 80.5627706,23.8515923,0 80.5627289,23.8515272,0 80.5627032,23.8514521,0 80.5626631,23.8513832,0 80.5626327,23.8513434,0 80.5625589,23.8512798,0 80.5625099,23.8512105,0 80.562439,23.8510924,0 80.5623726,23.8509884,0 80.562334,23.8509062,0 80.5622634,23.8508467,0 80.5621548,23.8508289,0 80.5621046,23.8508612,0 80.5620327,23.8508965,0 80.5619591,23.8509345,0 80.5618296,23.8509312,0 80.5617169,23.8508682,0 80.561593,23.8508239,0 80.5613928,23.8507808,0 80.5612677,23.8507795,0 80.5612547,23.8508017,0 80.5611781,23.8507944,0 80.561163,23.8508058,0 80.5611486,23.8508424,0 80.5611667,23.8509694,0 80.5610507,23.8510738,0 80.561004,23.8509926,0 80.5609552,23.8509044,0 80.5608692,23.8508946,0 80.5607643,23.8508717,0 80.5606391,23.8508364,0 80.5605727,23.8508176,0 80.5605122,23.850828,0 80.5604514,23.8508044,0 80.5603549,23.8507596,0 80.5602975,23.8506885,0 80.5602278,23.8505583,0 80.5602258,23.8504766,0 80.5600843,23.8504202,0 80.5600334,23.8503737,0 80.5599166,23.8503361,0 80.5598561,23.8503745,0 80.559779,23.8504515,0 80.5597402,23.8504959,0 80.5596662,23.85053,0 80.5596185,23.8505533,0 80.5595474,23.8505813,0 80.5595127,23.850597,0 80.5594242,23.8506495,0 80.55934,23.8506935,0 80.5592807,23.850706,0 80.5591327,23.8507975,0 80.5590796,23.8508078,0 80.5589623,23.8508103,0 80.5588748,23.8507989,0 80.5588238,23.8508066,0 80.5587416,23.8507326,0 80.5586271,23.8505773,0 80.55861,23.8505535,0 80.5585583,23.8504748,0 80.5585111,23.8504116,0 80.5584935,23.8503856,0 80.5584486,23.8503352,0 80.5584044,23.8502878,0 80.5583717,23.8502722,0 80.5583315,23.850232,0 80.5582653,23.8501703,0 80.5582336,23.850128,0 80.558195,23.8500597,0 80.5581509,23.8500135,0 80.5581317,23.8499938,0 80.5580902,23.8499639,0 80.5580363,23.8499488,0 80.5579379,23.8499008,0 80.5578986,23.849853,0 80.5578754,23.8498173,0 80.5578821,23.8497091,0 80.55788,23.8496139,0 80.5578861,23.8495733,0 80.55784,23.8495096,0 80.5578039,23.8494455,0 80.5577114,23.8494003,0 80.5576142,23.849255,0 80.5575701,23.8491584,0 80.557517,23.8490417,0 80.5577356,23.8487777,0 80.5577247,23.8486418,0 80.5576061,23.8485622,0 80.5575111,23.848484,0 80.5574749,23.8484013,0 80.5575229,23.8483465,0 80.5575432,23.848287,0 80.5575429,23.8482257,0 80.5575472,23.8481627,0 80.557559,23.848085,0 80.5576483,23.8479852,0 80.5576664,23.8479173,0 80.5576944,23.8477956,0 80.5577051,23.8477279,0 80.5576521,23.8477405,0 80.55761,23.8476958,0 80.5575785,23.8476785,0 80.557476,23.8476274,0 80.5574529,23.8476167,0 80.5573764,23.8475429,0 80.5573283,23.8475257,0 80.5572982,23.8475219,0 80.5572468,23.8475251,0 80.5572082,23.8476079,0 80.557184,23.8476533,0 80.5571484,23.8477286,0 80.5571044,23.8477756,0 80.5569357456387,23.8479230088586,0</coordinates></LinearRing></outerBoundaryIs></Polygon>
  </Placemark>
  
    </Document>
</kml>