<?xml version="1.0" encoding="UTF-8"?>
<kml xmlns="http://www.opengis.net/kml/2.2">
    <Document>
        <Placemark xmlns:ns0="http://www.opengis.net/kml/2.2">
	<Style><LineStyle><color>ff0000ff</color></LineStyle><PolyStyle><fill>0</fill></PolyStyle></Style>
	<ExtendedData><SchemaData schemaUrl="#Wave24_v28MAR2025">
		<SimpleData name="area(ha)">2.070803159954620</SimpleData>
		<SimpleData name="site_id">240242_1.1</SimpleData>
		<SimpleData name="Land_parc">240242</SimpleData>
		<SimpleData name="district">Chhatarpur</SimpleData>
		<SimpleData name="block">Nowgong</SimpleData>
		<SimpleData name="village">Dhamchi</SimpleData>
		<SimpleData name="Land Type">Farmer</SimpleData>
		<SimpleData name="Instance">Wave 2024</SimpleData>
	</SchemaData></ExtendedData>
      <Polygon><outerBoundaryIs><LinearRing><coordinates>79.5265975760809,25.0018275117398,0 79.5264128533094,25.0018516060143,0 79.5262629333789,25.0018783774305,0 79.526289704795,25.0020979030431,0 79.5263191533528,25.0022424686904,0 79.5263352162025,25.0025583714011,0 79.5263486019106,25.0026681342074,0 79.5262870276534,25.0026949056236,0 79.5261692334223,25.0027323856062,0 79.5260808877489,25.0027564798807,0 79.5260434077663,25.0029519112188,0 79.5259845106508,25.0029840369182,0 79.5257864021711,25.002957265502,0 79.5255588451337,25.0029599426436,0 79.5253205795298,25.0030108083343,0 79.5252188481484,25.0030456111753,0 79.5250662510763,25.0030349026089,0 79.5248813,25.0031036,0 79.5248761,25.0032953,0 79.5248895597296,25.003473953834,0 79.5248978,25.0036492,0 79.5249202,25.0037464,0 79.5250475110849,25.0036934794465,0 79.5252590052726,25.0036774165968,0 79.5253366423795,25.0038460765187,0 79.5255039637306,25.0038206436733,0 79.5259149049687,25.0037697779826,0 79.5262225,25.0037495,0 79.5262822,25.0037388,0 79.5266323789219,25.0036774165968,0 79.5266404103468,25.0034980481085,0 79.5266778903294,25.003117893999,0 79.5266803142676,25.0030082886038,0 79.5267043141289,25.0028135885835,0 79.5267126931704,25.0023482157842,0 79.5267100160288,25.002063100202,0 79.526673874617,25.0018168031733,0 79.5265975760809,25.0018275117398,0</coordinates></LinearRing></outerBoundaryIs></Polygon>
  </Placemark>
  
    </Document>
</kml>