<?xml version="1.0" encoding="UTF-8"?>
<kml xmlns="http://www.opengis.net/kml/2.2">
    <Document>
        <Placemark xmlns:ns0="http://www.opengis.net/kml/2.2">
	<Style><LineStyle><color>ff0000ff</color></LineStyle><PolyStyle><fill>0</fill></PolyStyle></Style>
	<ExtendedData><SchemaData schemaUrl="#Wave24_v28MAR2025">
		<SimpleData name="area(ha)">9.373178052542579</SimpleData>
		<SimpleData name="site_id">240214_1.1</SimpleData>
		<SimpleData name="Land_parc">240214</SimpleData>
		<SimpleData name="district">Chhatarpur</SimpleData>
		<SimpleData name="block">Bijawar</SimpleData>
		<SimpleData name="village">Khargyan(Para)</SimpleData>
		<SimpleData name="Land Type">Community</SimpleData>
		<SimpleData name="Instance">Wave 2024</SimpleData>
	</SchemaData></ExtendedData>
      <Polygon><outerBoundaryIs><LinearRing><coordinates>79.5274116962628,24.8637027647101,0 79.5275912130348,24.8638087444911,0 79.5278392201414,24.8639760050979,0 79.5280057597973,24.8640913572405,0 79.5280655987212,24.8640228669059,0 79.5281117395783,24.8639695165399,0 79.5281624,24.8638935,0 79.5282098,24.8639214,0 79.5283506,24.8640092,0 79.5283777,24.8640475,0 79.5283721,24.8640539,0 79.5283413,24.8640898,0 79.5284117,24.8641297,0 79.5284885,24.8641878,0 79.5285147511265,24.8641980579724,0 79.528504657814,24.8642326636152,0 79.5284960064033,24.8642398731241,0 79.5285392634568,24.8642456407313,0 79.5286048,24.8642732,0 79.5286772,24.8642319,0 79.5287195,24.8642529,0 79.5287778,24.8642723,0 79.5288816,24.8642822,0 79.5290111,24.8642919,0 79.5290813,24.8642918,0 79.5291361,24.8642758,0 79.5291717,24.8642353,0 79.5292256,24.8641716,0 79.5292895,24.8641028,0 79.5293103,24.8640988,0 79.5292643,24.8640119,0 79.5292405,24.8639503,0 79.5292428,24.8638879,0 79.5292269,24.8638133,0 79.5292119,24.8637413,0 79.5291976,24.8636353,0 79.5291809,24.8635516,0 79.5291714,24.86345,0 79.5291683,24.863372,0 79.5291657,24.8633,0 79.5291442,24.8632287,0 79.5291432,24.8631341,0 79.5291649,24.863102,0 79.52922,24.8630962,0 79.5291345,24.8629575,0 79.5290934,24.8628831,0 79.5290663,24.8628179,0 79.529003,24.8627271,0 79.5289373,24.862633,0 79.5289164,24.8626072,0 79.528871,24.8625505,0 79.5288195,24.8624911,0 79.5287703,24.8624334,0 79.5287242,24.8623866,0 79.5286707,24.8623202,0 79.5285856,24.8622409,0 79.5285338,24.8621927,0 79.5284755,24.8621331,0 79.5284127,24.862079,0 79.5283863,24.8620552,0 79.5282673,24.8619564,0 79.5282126,24.8619088,0 79.5281326,24.8618403,0 79.5280178,24.8617454,0 79.5279477,24.8617202,0 79.5279022,24.8616977,0 79.5279288,24.8616229,0 79.5278933,24.8616215,0 79.5278085,24.8616166,0 79.5277377,24.8615887,0 79.5276719,24.8615601,0 79.5276392,24.8615466,0 79.5275701,24.861522,0 79.5275105,24.8614831,0 79.527477,24.8614441,0 79.5274267,24.8613914,0 79.5273721,24.8613402,0 79.5272916,24.8612757,0 79.5271998,24.8612083,0 79.5271476,24.8611608,0 79.5271167,24.8611421,0 79.5270434,24.8611012,0 79.5269857,24.8610492,0 79.5269036,24.8609879,0 79.5268498,24.8609331,0 79.5267879,24.8608851,0 79.526732,24.8608441,0 79.5266665,24.8607937,0 79.5265619,24.8607353,0 79.5265174,24.8606822,0 79.5264537,24.8606046,0 79.5263995,24.8604959,0 79.5263912,24.8603619,0 79.5263965,24.8602975,0 79.5263981,24.8601156,0 79.5264249,24.8600303,0 79.5264036,24.8600038,0 79.5262291,24.8599707,0 79.5261999,24.8599835,0 79.5260828,24.8599943,0 79.5259753,24.8599828,0 79.5259051,24.859992,0 79.5257812,24.8600016,0 79.5256722,24.8599817,0 79.5255435,24.859989,0 79.5254299,24.8599841,0 79.5253035,24.8599742,0 79.5252148,24.8599767,0 79.5250218,24.8599771,0 79.5249111,24.8599815,0 79.5247595,24.859991,0 79.5245989,24.8599495,0 79.5245689,24.8599526,0 79.5245324,24.8599449,0 79.5246192,24.8600346,0 79.524683,24.8601243,0 79.524727,24.8602133,0 79.5247669,24.8602768,0 79.5248458,24.8603433,0 79.5249409,24.8604223,0 79.5249705,24.8604487,0 79.5250487,24.860533,0 79.5250154,24.8606209,0 79.5250716,24.8607035,0 79.5251357,24.8607633,0 79.5251867,24.8608043,0 79.5252488,24.8609209,0 79.5252732,24.8610087,0 79.5252882,24.861078,0 79.5253462,24.861148,0 79.525373,24.8612273,0 79.5253751,24.8612737,0 79.5253466,24.8612933,0 79.5252824,24.8613244,0 79.5252056,24.8613565,0 79.5252465,24.8614173,0 79.5252954,24.8614687,0 79.525364,24.8615627,0 79.5254353,24.8616316,0 79.5255522,24.8617737,0 79.5256078,24.8618535,0 79.5256437,24.8619781,0 79.5257217873737,24.8620431357584,0 79.5258083014806,24.8621109051422,0 79.5258645356502,24.8621656974099,0 79.5259669106767,24.8622478858115,0 79.5260519828819,24.8623603541506,0 79.526124077971,24.8623891921862,0 79.5261601255156,24.8624526358647,0 79.526356224158,24.862609803159,0 79.5264326449525,24.8626530602124,0 79.5264787858095,24.8627237133998,0 79.5265854865414,24.8628131113103,0 79.526667674943,24.8629068349261,0 79.5267195834072,24.8629774881135,0 79.5267974461034,24.863100049765,0 79.5269084725407,24.8632154019076,0 79.5270007542548,24.8633567082823,0 79.5270555465225,24.8634028491394,0 79.5271189902009,24.863477828032,0 79.527165131058,24.8635398298087,0 79.5272819251024,24.8636364372281,0 79.5274116962628,24.8637027647101,0</coordinates></LinearRing></outerBoundaryIs><innerBoundaryIs><LinearRing><coordinates>79.5262444767698,24.8610857129748,0 79.5263309908767,24.8608824048234,0 79.52664099976,24.8610554330374,0 79.5267231881616,24.8609501742072,0 79.5267678871168,24.8609891055554,0 79.5267044434384,24.8610986900908,0 79.526906309688,24.8612025070192,0 79.5269553343486,24.8612313450548,0 79.5268241212864,24.8614231179919,0 79.5262444767698,24.8610857129748,0</coordinates></LinearRing></innerBoundaryIs><innerBoundaryIs><LinearRing><coordinates>79.5275951782646,24.8636832990361,0 79.5275403859969,24.8636804152325,0 79.5274956870417,24.8636400419826,0 79.5274855937292,24.8635939011256,0 79.5275475955058,24.8635492021703,0 79.5276038296753,24.8635838078131,0 79.5276442029253,24.8636328324737,0 79.5275951782646,24.8636832990361,0</coordinates></LinearRing></innerBoundaryIs><innerBoundaryIs><LinearRing><coordinates>79.5277263913269,24.863756836027,0 79.5278157892374,24.8636544610004,0 79.5278936519336,24.8636977180539,0 79.5278172311392,24.8638116282947,0 79.5278100216302,24.8638303730179,0 79.5277263913269,24.863756836027,0</coordinates></LinearRing></innerBoundaryIs></Polygon>
  </Placemark>
  
    </Document>
</kml>