<?xml version="1.0" encoding="UTF-8"?>
<kml xmlns="http://www.opengis.net/kml/2.2">
    <Document>
        <Placemark xmlns:ns0="http://www.opengis.net/kml/2.2">
	<Style><LineStyle><color>ff0000ff</color></LineStyle><PolyStyle><fill>0</fill></PolyStyle></Style>
	<ExtendedData><SchemaData schemaUrl="#Wave24_v28MAR2025">
		<SimpleData name="area(ha)">1.916329625752736</SimpleData>
		<SimpleData name="site_id">240254_2.2</SimpleData>
		<SimpleData name="Land_parc">240254</SimpleData>
		<SimpleData name="district">Damoh</SimpleData>
		<SimpleData name="block">Damoh</SimpleData>
		<SimpleData name="village">Biltra sadak</SimpleData>
		<SimpleData name="Land Type">Community</SimpleData>
		<SimpleData name="Instance">Wave 2024</SimpleData>
	</SchemaData></ExtendedData>
      <Polygon><outerBoundaryIs><LinearRing><coordinates>79.5927492,23.8513051,0 79.5927483,23.8513096,0 79.5927341,23.8513572,0 79.5927313,23.8513906,0 79.5927333,23.8514587,0 79.5927308,23.8514891,0 79.5927244,23.8515228,0 79.5927508,23.8515523,0 79.5927729,23.8516174,0 79.5927684,23.8516474,0 79.5927802,23.8516795,0 79.5927884,23.8517102,0 79.5927951,23.8517662,0 79.5928052,23.8518009,0 79.5928331,23.851824,0 79.592895,23.8518546,0 79.5929491,23.8518933,0 79.5930506,23.8519585,0 79.5931091,23.851979,0 79.5931613,23.851952,0 79.593186,23.8519484,0 79.5932381,23.8519312,0 79.5933169,23.8518966,0 79.5933349,23.8518776,0 79.593342,23.8518737,0 79.5933341,23.8518755,0 79.5933333,23.851872,0 79.5933195,23.8518269,0 79.5933528,23.8517351,0 79.5933502,23.8517329,0 79.5933467,23.851731,0 79.5933463,23.8517315,0 79.5933485,23.8517271,0 79.5933673,23.8517155,0 79.5933774,23.8517096,0 79.5933718,23.851686,0 79.5933828,23.8516369,0 79.5933986,23.8515682,0 79.5934202,23.8514967,0 79.5934309,23.8514459,0 79.5934541,23.851397,0 79.5934967,23.8513507,0 79.5934768,23.8513247,0 79.5934741,23.8512944,0 79.5934869,23.8512562,0 79.5934725,23.8512004,0 79.5934977,23.8511371,0 79.5935177,23.8511112,0 79.5935575,23.8510378,0 79.5935693,23.8509794,0 79.5935864,23.8509582,0 79.5936359,23.8509036,0 79.59364,23.8508966,0 79.5936551,23.8508825,0 79.5936877,23.8507747,0 79.5937289,23.850721,0 79.5937357,23.8507038,0 79.5937657,23.8506857,0 79.5937491,23.8506344,0 79.5937756,23.8506093,0 79.5938459,23.8505939,0 79.593904,23.8505419,0 79.5939378,23.8504743,0 79.5938993,23.8504036,0 79.59388,23.8503852,0 79.5939097,23.8503522,0 79.5939169,23.8503448,0 79.5939264,23.8503242,0 79.593941,23.8503081,0 79.5939432,23.8502677,0 79.5939572,23.8502235,0 79.5939905,23.8501551,0 79.5940149,23.8501205,0 79.5940607,23.8500681,0 79.5941392,23.8499783,0 79.5941535,23.8499329,0 79.5941877,23.8498874,0 79.5941883,23.8498297,0 79.5941946,23.8498079,0 79.5942005,23.849783,0 79.5942199,23.8497657,0 79.5942345,23.8497181,0 79.5942486,23.8496686,0 79.5942777,23.8496259,0 79.5943151,23.8495733,0 79.5943817,23.8495657,0 79.5944411,23.849528,0 79.594463,23.8494884,0 79.5945073,23.8494398,0 79.5945409,23.8494003,0 79.5945635,23.8493583,0 79.594593,23.8493378,0 79.5946334,23.8493201,0 79.5946479,23.8493005,0 79.5946628,23.8492792,0 79.5946672,23.8492786,0 79.5946877,23.8492585,0 79.5946975,23.8492247,0 79.5947091,23.8491911,0 79.5947439,23.8491689,0 79.5947692,23.8491482,0 79.5947968,23.8491255,0 79.5948427,23.8491146,0 79.5948972,23.8490896,0 79.5949415,23.8490657,0 79.5949661,23.8490543,0 79.59499,23.8490475,0 79.5950134,23.8490336,0 79.5950393,23.8490198,0 79.5950604,23.8490104,0 79.5950818,23.8489958,0 79.5951277,23.8489518,0 79.59517,23.8489036,0 79.5951964,23.848885,0 79.5952202,23.8488629,0 79.5952469,23.8488432,0 79.5952765,23.848832,0 79.5953099,23.8488219,0 79.5953501,23.8487898,0 79.5953663,23.8487696,0 79.5954171,23.8487447,0 79.5954669,23.8487044,0 79.5955249,23.8486879,0 79.5955528,23.8486763,0 79.5956013,23.8486593,0 79.5955784287515,23.8486464185993,0 79.5955769,23.8486463,0 79.5955769,23.848637,0 79.5955643,23.8486256,0 79.5955384,23.8486334,0 79.5955176,23.8486495,0 79.5954926413906,23.8486618637198,0 79.5953677,23.8487176,0 79.5953391,23.8487229,0 79.595205,23.8487591,0 79.5950983,23.8487924,0 79.5949877,23.8488522,0 79.5949381,23.8488931,0 79.5948847,23.848937,0 79.5948302,23.8489655,0 79.5947783,23.8489958,0 79.5947303,23.8490345,0 79.5946448,23.8490923,0 79.5945903,23.8491267,0 79.5945342,23.8491684,0 79.5944775,23.8492158,0 79.5943892,23.849286,0 79.5943287,23.8493261,0 79.5942521,23.8494453,0 79.5941451,23.8495666,0 79.5940885,23.8496023,0 79.5939725,23.8496819,0 79.5939196,23.8497243,0 79.593897,23.849747,0 79.5938625,23.8497967,0 79.5938398,23.8498186,0 79.593805,23.8498775,0 79.5937763,23.8498839,0 79.5937332,23.8499174,0 79.5937016,23.8499427,0 79.5936637,23.8499606,0 79.5936096,23.8500012,0 79.593587,23.850021,0 79.5935359,23.8500775,0 79.5935131,23.8501013,0 79.5934648,23.8501593,0 79.5934454,23.8501847,0 79.5933924,23.850234,0 79.5933174,23.8503082,0 79.5933055,23.8503175,0 79.5932717,23.8503533,0 79.5932158,23.8503908,0 79.5931673,23.8504392,0 79.5931085,23.8504925,0 79.5930849,23.8505225,0 79.5930374,23.850583,0 79.5930172,23.850613,0 79.592977,23.850666,0 79.5929344,23.8507196,0 79.5929085,23.8507456,0 79.5928694,23.8508075,0 79.592845,23.8508275,0 79.5927875,23.8509087,0 79.5927466,23.8509496,0 79.5927155,23.8510039,0 79.5927185,23.8510332,0 79.5926984,23.8510932,0 79.5926888,23.851185,0 79.592697,23.8512086,0 79.5926972,23.8512376,0 79.5927062,23.8512556,0 79.5927492,23.8513051,0</coordinates></LinearRing></outerBoundaryIs></Polygon>
  </Placemark>
  
    </Document>
</kml>