<?xml version="1.0" encoding="UTF-8"?>
<kml xmlns="http://www.opengis.net/kml/2.2">
    <Document>
        <Placemark xmlns:ns0="http://www.opengis.net/kml/2.2">
	<Style><LineStyle><color>ff0000ff</color></LineStyle><PolyStyle><fill>0</fill></PolyStyle></Style>
	<ExtendedData><SchemaData schemaUrl="#Wave24_v28MAR2025">
		<SimpleData name="area(ha)">3.027186153132950</SimpleData>
		<SimpleData name="site_id">240250_1.1</SimpleData>
		<SimpleData name="Land_parc">240250</SimpleData>
		<SimpleData name="district">Chhatarpur</SimpleData>
		<SimpleData name="block">Bijawar</SimpleData>
		<SimpleData name="village">Dewara</SimpleData>
		<SimpleData name="Land Type">Community</SimpleData>
		<SimpleData name="Instance">Wave 2024</SimpleData>
	</SchemaData></ExtendedData>
      <Polygon><outerBoundaryIs><LinearRing><coordinates>79.64779349744,24.5851053810145,0 79.6477949528816,24.5851053940846,0 79.64782967623,24.5851250054248,0 79.6478713206872,24.585110072864,0 79.6478954998369,24.5850949834632,0 79.6479042539243,24.5850930655676,0 79.6479152554883,24.5850851783449,0 79.6480252199175,24.5850788452033,0 79.6480761032052,24.5850846260626,0 79.6481440516851,24.5851278281626,0 79.6482626977983,24.5851941123871,0 79.6483278926836,24.5852226486688,0 79.6484368710328,24.5852951093801,0 79.6485143099318,24.5852808895361,0 79.6486505227214,24.5854282379965,0 79.6487,24.5854642,0 79.6487603928596,24.585408212206,0 79.6487866980049,24.5853984657468,0 79.6488045418493,24.5853633543188,0 79.6488813026326,24.5853314335646,0 79.6489457485967,24.5853619593683,0 79.6489973169366,24.5853717390738,0 79.6491178618723,24.5853967786189,0 79.6491833283732,24.5854000279371,0 79.6492748429861,24.585417486413,0 79.649353437075,24.5854181914126,0 79.6494154363008,24.5854054375037,0 79.6494918,24.585423,0 79.6494259,24.5853587,0 79.6493077,24.5851874,0 79.6492091,24.5850863,0 79.6491557,24.5849686,0 79.6490975,24.5848424,0 79.6489289,24.5846144,0 79.6488087,24.5845455,0 79.6487593,24.5845138,0 79.6487469,24.5844593,0 79.6487057,24.5842948,0 79.6486732,24.5842494,0 79.6486161,24.58417,0 79.6485753,24.5841767,0 79.6486199,24.5839391,0 79.6485836,24.5837031,0 79.6486878,24.5835666,0 79.6487244,24.5834744,0 79.6487167,24.5834601,0 79.6487031,24.5834304,0 79.6487032,24.5834226,0 79.6486218,24.5834238,0 79.6485418,24.5833836,0 79.6485075993164,24.5833314179956,0 79.6483926993164,24.5833239179956,0 79.6482556825774,24.5833392982445,0 79.648150520736,24.5833729602641,0 79.6480295921256,24.5833838536192,0 79.6479319502492,24.5833949559646,0 79.647791199313,24.5834210403607,0 79.6477176887957,24.5834223140484,0 79.6476234151283,24.5833908543802,0 79.6475434527091,24.58338215022,0 79.6473868,24.5833796,0 79.6472860861805,24.5833572114722,0 79.6472020292243,24.5833231813185,0 79.6469708604766,24.5832984773858,0 79.6467157489299,24.5832669029257,0 79.6467741338645,24.5833872177473,0 79.6468201352357,24.5834408711913,0 79.6468787508706,24.5834720109456,0 79.6469296,24.5834944,0 79.6469906951876,24.5835522114062,0 79.6470459710612,24.5836232511378,0 79.6470875134101,24.5836855159525,0 79.6471148161379,24.5837183707894,0 79.6471757780146,24.5838021060766,0 79.647225,24.5839033,0 79.6473140605393,24.5840049950778,0 79.6474089,24.5841367,0 79.6475007573352,24.5842402628593,0 79.6475224873683,24.5843176561295,0 79.6475339235396,24.5843370583696,0 79.6476081479499,24.5844734871795,0 79.6476450600884,24.5845603337981,0 79.6476616819356,24.5846390121749,0 79.6477042502369,24.5848090971795,0 79.6477190093257,24.5849256923669,0 79.647740019016,24.585002413637,0 79.6477748196914,24.5850825862571,0 79.64779349744,24.5851053810145,0</coordinates></LinearRing></outerBoundaryIs></Polygon>
  </Placemark>
  
    </Document>
</kml>