<?xml version="1.0" encoding="UTF-8"?>
<kml xmlns="http://www.opengis.net/kml/2.2">
    <Document>
        <Placemark xmlns:ns0="http://www.opengis.net/kml/2.2">
	<Style><LineStyle><color>ff0000ff</color></LineStyle><PolyStyle><fill>0</fill></PolyStyle></Style>
	<ExtendedData><SchemaData schemaUrl="#Wave24_v28MAR2025">
		<SimpleData name="area(ha)">0.835962660258310</SimpleData>
		<SimpleData name="site_id">240208_1.2</SimpleData>
		<SimpleData name="Land_parc">240208</SimpleData>
		<SimpleData name="district">Chhatarpur</SimpleData>
		<SimpleData name="block">Bada Malahara</SimpleData>
		<SimpleData name="village">Khardooti</SimpleData>
		<SimpleData name="Land Type">Community</SimpleData>
		<SimpleData name="Instance">Wave 2024</SimpleData>
	</SchemaData></ExtendedData>
      <Polygon><outerBoundaryIs><LinearRing><coordinates>79.2326269488215,24.6591568477425,0 79.2327713545943,24.6591692596132,0 79.2328612496382,24.6591947685633,0 79.2329358261651,24.6592019942708,0 79.2330043286717,24.6591472511133,0 79.2330453166567,24.6590731389442,0 79.2330995031089,24.6590483824856,0 79.2332176240348,24.6590465975292,0 79.2334584112267,24.6589668993796,0 79.2335926513435,24.6589303871946,0 79.2336439680248,24.6588627447419,0 79.2336520977568,24.658778723353,0 79.2335624,24.6587266,0 79.2334462467818,24.6587207538656,0 79.2333562,24.6586638,0 79.2332603009752,24.6586058821473,0 79.2331263,24.6585932,0 79.2330304,24.6586053,0 79.2329333,24.6586029,0 79.2328199,24.6586186,0 79.2327075,24.6586401,0 79.2325994,24.6586448,0 79.2324394,24.6586625,0 79.2323487,24.6586512,0 79.2322435,24.658619,0 79.2321756,24.6586103,0 79.2320729,24.6586218,0 79.2320001,24.658638,0 79.2318783,24.6586977,0 79.2317978,24.6587536,0 79.2317684,24.6588601,0 79.2317799666707,24.6589036557474,0 79.2318545876551,24.6589077082818,0 79.2319669754572,24.6589297019007,0 79.2320656025653,24.6589689149292,0 79.2321845877553,24.6590290383208,0 79.2322761034481,24.6590666188156,0 79.2324027722899,24.65907445776,0 79.2324664383734,24.659116471785,0 79.2325389207143,24.6591490668404,0 79.2326269488215,24.6591568477425,0</coordinates></LinearRing></outerBoundaryIs></Polygon>
  </Placemark>
  
    </Document>
</kml>