<?xml version="1.0" encoding="UTF-8"?>
<kml xmlns="http://www.opengis.net/kml/2.2">
    <Document>
        <Placemark xmlns:ns0="http://www.opengis.net/kml/2.2">
	<Style><LineStyle><color>ff0000ff</color></LineStyle><PolyStyle><fill>0</fill></PolyStyle></Style>
	<ExtendedData><SchemaData schemaUrl="#Wave24_v28MAR2025">
		<SimpleData name="area(ha)">6.126276203637530</SimpleData>
		<SimpleData name="site_id">240248_1.1</SimpleData>
		<SimpleData name="Land_parc">240248</SimpleData>
		<SimpleData name="district">Damoh</SimpleData>
		<SimpleData name="block">Damoh</SimpleData>
		<SimpleData name="village">Hardua chungal</SimpleData>
		<SimpleData name="Land Type">Community</SimpleData>
		<SimpleData name="Instance">Wave 2024</SimpleData>
	</SchemaData></ExtendedData>
      <Polygon><outerBoundaryIs><LinearRing><coordinates>79.5536156,23.8165078,0 79.5536125,23.8165075,0 79.5536137,23.8165055,0 79.5535979,23.8164969,0 79.5535627,23.8165146,0 79.5535052,23.8165095,0 79.5534806,23.8165554,0 79.5534539,23.816571,0 79.553426,23.8165826,0 79.5532767,23.816615,0 79.5532564,23.8166051,0 79.5532294,23.8165897,0 79.5532005,23.8165862,0 79.5531096,23.8166543,0 79.5530898,23.8166972,0 79.5529091,23.816939,0 79.552774,23.8171086,0 79.5526327,23.8172264,0 79.5524691,23.8173611,0 79.5523326,23.8174534,0 79.5521785,23.8174993,0 79.5520034,23.8175528,0 79.5517737,23.8176676,0 79.5516234,23.8177724,0 79.5513792667928,23.817883900079,0 79.551171395877,23.8179377371507,0 79.5510736,23.818019,0 79.5509485702191,23.8181037347885,0 79.5508199594367,23.818274218849,0 79.5506973305511,23.8184985399811,0 79.5505567559749,23.8185613498981,0 79.5504789913158,23.8187168792164,0 79.5503653352755,23.8188873632769,0 79.5502965434616,23.8191206572543,0 79.5502606520805,23.8192941322632,0 79.5502666339773,23.8193748878707,0 79.5502427063899,23.819404797355,0 79.5502965434616,23.8195214443438,0 79.5502948,23.8194307,0 79.5503035,23.8194372,0 79.5504519,23.8194956,0 79.5504841,23.8195091,0 79.5505235,23.8195248,0 79.5505639,23.8195379,0 79.5506101,23.8195243,0 79.5506492,23.8195252,0 79.5506779,23.8195165,0 79.550732,23.8195017,0 79.5507297,23.8194982,0 79.5507715,23.8195038,0 79.5508054,23.8195021,0 79.5508114,23.8194956,0 79.5508388,23.8194848,0 79.5508799,23.8194632,0 79.5508971,23.819423,0 79.5509147,23.8193743,0 79.5509685,23.8193546,0 79.5509992,23.8193256,0 79.5510422,23.8193343,0 79.5510497,23.8193314,0 79.5510897,23.8193033,0 79.5511187,23.8192966,0 79.5511473,23.8192865,0 79.5511506,23.819275,0 79.5511727,23.819244,0 79.5512008,23.8192316,0 79.5512204,23.8192017,0 79.5512257,23.8191822,0 79.5512478,23.8191617,0 79.5512437,23.8191451,0 79.5512644,23.8191023,0 79.5512849,23.8190591,0 79.5513134,23.8190176,0 79.5513332,23.8189881,0 79.5513499,23.8189743,0 79.5513733,23.818953,0 79.55139,23.8189366,0 79.55142,23.8189126,0 79.551448,23.818902,0 79.5514766,23.8188758,0 79.5515062,23.8188592,0 79.5515735,23.8188186,0 79.5516246,23.8187738,0 79.5516553,23.8187549,0 79.5516787,23.8187377,0 79.5517135,23.8187261,0 79.5517445,23.8187072,0 79.5517775,23.8186963,0 79.5519441,23.8185965,0 79.5518788,23.8185607,0 79.5518858,23.8185632,0 79.5519222,23.8185387,0 79.5519484,23.8185212,0 79.5519808,23.8185059,0 79.5520277,23.8185339,0 79.5520842,23.8185204,0 79.5521322,23.8185131,0 79.5521491,23.8185083,0 79.5521582,23.8185085,0 79.5522412,23.8185357,0 79.5522496,23.8186068,0 79.5522752,23.8186179,0 79.5523112,23.8186463,0 79.5523568,23.8186625,0 79.5523634,23.8186627,0 79.5523805,23.818682,0 79.5524447,23.8187344,0 79.5524564,23.8187466,0 79.5525003,23.8187764,0 79.5525034,23.8187747,0 79.5525333,23.8187891,0 79.5525611,23.81879,0 79.5525903,23.818795,0 79.5526173,23.818808,0 79.5526633,23.8188337,0 79.5527005,23.8188536,0 79.5527025,23.8188492,0 79.5527137,23.818824,0 79.5527459,23.8187663,0 79.5527657,23.8187375,0 79.552808,23.8187084,0 79.552859,23.8187233,0 79.5528812,23.8186965,0 79.552902,23.8186816,0 79.5529284,23.8186246,0 79.5529331,23.818611,0 79.5529705,23.8185703,0 79.5529936,23.8185442,0 79.5529972,23.818515,0 79.5530149,23.818485,0 79.5530311,23.8184543,0 79.5530508,23.8184276,0 79.5530677,23.8184093,0 79.5530774,23.8183852,0 79.5531511,23.8183418,0 79.5531777,23.8183202,0 79.5532004,23.8183054,0 79.5532201,23.8182852,0 79.5532425,23.8182659,0 79.5532666,23.8182464,0 79.5532858,23.8182273,0 79.5533344,23.8181946,0 79.5533588,23.8181805,0 79.5533762,23.8181689,0 79.5534278,23.8181357,0 79.5534582,23.8181159,0 79.5535034,23.8180813,0 79.5535233,23.8180641,0 79.5535473,23.8180465,0 79.5535758,23.8180249,0 79.5536225,23.8179924,0 79.5537062,23.8179828,0 79.553738,23.8179911,0 79.5537871,23.8179567,0 79.5538247,23.8179514,0 79.5538568,23.8179188,0 79.5538722,23.8178874,0 79.5539233,23.8178432,0 79.553953,23.8178118,0 79.5539787,23.8177945,0 79.5539963466679,23.8176894884311,0 79.5540486882654,23.8176655608437,0 79.5541129936566,23.8176236875657,0 79.5541593533573,23.8175773278651,0 79.5542610456039,23.8174786265669,0 79.5545601404468,23.8173619795782,0 79.5548233439085,23.8171615860335,0 79.5549265316293,23.8170000748183,0 79.554945972794,23.816949228695,0 79.5548593,23.8168838,0 79.5548482,23.8168589,0 79.5548476,23.8168293,0 79.5548122,23.8167766,0 79.5547593,23.8167507,0 79.5547455,23.8167336,0 79.5546947,23.8167023,0 79.5546741,23.8166843,0 79.5546282,23.81666,0 79.5545671,23.8166547,0 79.5545065,23.8166378,0 79.5544175,23.8166323,0 79.5543668,23.8166269,0 79.5542731,23.8165426,0 79.5542073,23.8164789,0 79.5541863,23.8164573,0 79.5541208,23.8164478,0 79.554058,23.8164207,0 79.5539905,23.8164453,0 79.5536156,23.8165078,0</coordinates></LinearRing></outerBoundaryIs></Polygon>
  </Placemark>
  
    </Document>
</kml>