<?xml version="1.0" encoding="UTF-8"?>
<kml xmlns="http://www.opengis.net/kml/2.2">
    <Document>
        <Placemark xmlns:ns0="http://www.opengis.net/kml/2.2">
	<Style><LineStyle><color>ff0000ff</color></LineStyle><PolyStyle><fill>0</fill></PolyStyle></Style>
	<ExtendedData><SchemaData schemaUrl="#Wave24_v28MAR2025">
		<SimpleData name="area(ha)">2.278917700412397</SimpleData>
		<SimpleData name="site_id">240249_1.1</SimpleData>
		<SimpleData name="Land_parc">240249</SimpleData>
		<SimpleData name="district">Chhatarpur</SimpleData>
		<SimpleData name="block">Bijawar</SimpleData>
		<SimpleData name="village">Patna/jharkuwan</SimpleData>
		<SimpleData name="Land Type">Community</SimpleData>
		<SimpleData name="Instance">Wave 2024</SimpleData>
	</SchemaData></ExtendedData>
      <Polygon><outerBoundaryIs><LinearRing><coordinates>79.8013389,24.4221872,0 79.8013547,24.4223077,0 79.8013733,24.4223449,0 79.8013671,24.4224148,0 79.8013554,24.4224432,0 79.8013587,24.4224868,0 79.8013723,24.4225188,0 79.8013786,24.4225573,0 79.8014,24.4225861,0 79.8014129,24.422626,0 79.8014335,24.4226983,0 79.8014472,24.4227643,0 79.8014572,24.4227935,0 79.8014451,24.422838,0 79.801457,24.4228672,0 79.8014761,24.4228967,0 79.8014803,24.4229267,0 79.8014819,24.4229998,0 79.8014751,24.4231371,0 79.8014925,24.4232006,0 79.8015442,24.4233745,0 79.8015495,24.4234057,0 79.8015568,24.4234544,0 79.8015627,24.4234849,0 79.8015599,24.4235189,0 79.8015871,24.4235394,0 79.801627,24.4235276,0 79.8016639,24.4235197,0 79.8017081,24.423514,0 79.8017449,24.4235118,0 79.801802,24.4235288,0 79.8018356,24.4235216,0 79.801885,24.4235122,0 79.8019172,24.4234999,0 79.8019528,24.4234865,0 79.8020487,24.4234702,0 79.8020532,24.4234672,0 79.8020613,24.4234665,0 79.8020785,24.423465,0 79.8022472,24.4234271,0 79.8022251,24.4234474,0 79.8022247029571,24.4234530104349,0 79.8022599,24.4234448,0 79.8022946,24.4234444,0 79.8023215,24.4234366,0 79.8023983,24.4234292,0 79.8024361,24.4234304,0 79.8025136,24.4234127,0 79.8025559,24.4234077,0 79.8026216,24.4234018,0 79.8027382,24.4233855,0 79.8027819,24.4233743,0 79.8028948,24.4233632,0 79.80297,24.4233695,0 79.8029998,24.4232664,0 79.8029961,24.4231733,0 79.8029856,24.4231066,0 79.8030016,24.4230277,0 79.8030066,24.4229918,0 79.803007,24.4229598,0 79.8029993,24.4229023,0 79.8029588,24.4228385,0 79.8029605,24.4227561,0 79.8029533,24.4227033,0 79.8029512,24.4225062,0 79.8028944,24.4223909,0 79.8028858,24.4223723,0 79.8028374,24.4223397,0 79.8027406,24.4223092,0 79.8026805,24.4222992,0 79.8026435,24.422313,0 79.802622,24.4223014,0 79.8025454,24.4222445,0 79.802384,24.4221884,0 79.8023571,24.4221638,0 79.8023315,24.4221453,0 79.8022872,24.4220982,0 79.8022598,24.4220907,0 79.8022048,24.4220433,0 79.8021691,24.4219977,0 79.8020978,24.4219195,0 79.8019827,24.421927,0 79.8018403,24.4219792,0 79.8016756,24.4220304,0 79.8015421,24.4220277,0 79.8013861,24.4221532,0 79.8013389,24.4221872,0</coordinates></LinearRing></outerBoundaryIs></Polygon>
  </Placemark>
  
    </Document>
</kml>