<?xml version="1.0" encoding="UTF-8"?>
<kml xmlns="http://www.opengis.net/kml/2.2">
    <Document>
        <Placemark xmlns:ns0="http://www.opengis.net/kml/2.2">
	<Style><LineStyle><color>ff0000ff</color></LineStyle><PolyStyle><fill>0</fill></PolyStyle></Style>
	<ExtendedData><SchemaData schemaUrl="#Wave24_v28MAR2025">
		<SimpleData name="area(ha)">1.697345464125356</SimpleData>
		<SimpleData name="site_id">240232_1.1</SimpleData>
		<SimpleData name="Land_parc">240232</SimpleData>
		<SimpleData name="district">Damoh</SimpleData>
		<SimpleData name="block">Tendukheda</SimpleData>
		<SimpleData name="village">Deori leeladhar</SimpleData>
		<SimpleData name="Land Type">Farmer</SimpleData>
		<SimpleData name="Instance">Wave 2024</SimpleData>
	</SchemaData></ExtendedData>
      <Polygon><outerBoundaryIs><LinearRing><coordinates>79.506749236402,23.6092877857235,0 79.5064737360789,23.6087246858641,0 79.5064576663391,23.6087018313728,0 79.5064349333381,23.6086844307791,0 79.5064076045475,23.6086740665926,0 79.5048145055168,23.6083162668775,0 79.5047829915599,23.6083140236472,0 79.5047523419726,23.6083211411246,0 79.5047257453872,23.6083368788424,0 79.5043560454416,23.6086434786905,0 79.5043356877354,23.6086671610928,0 79.5043249467354,23.6086957058935,0 79.5043250247567,23.6087259178906,0 79.5043909245008,23.6090787179183,0 79.5043999783931,23.6091040198367,0 79.5044166505784,23.6091257860174,0 79.5044394898346,23.609142121829,0 79.5044665081257,23.6091516053245,0 79.5062569092378,23.6095134056206,0 79.506280923085,23.6095154585587,0 79.5063047538363,23.6095120449038,0 79.5066867540756,23.6094117448504,0 79.5067169138236,23.6093983452912,0 79.5067404178835,23.6093763718743,0 79.5067545224391,23.6093483897352,0 79.5067575809579,23.6093176654547,0 79.506749236402,23.6092877857235,0</coordinates></LinearRing></outerBoundaryIs><innerBoundaryIs><LinearRing><coordinates>79.5063029155244,23.6091661557686,0 79.5061703345741,23.6092226598255,0 79.5046595283962,23.6089457897141,0 79.504527347865,23.6087443882881,0 79.5048013591802,23.6087282485021,0 79.5062258335765,23.6089825174156,0 79.5063029155244,23.6091661557686,0</coordinates></LinearRing></innerBoundaryIs></Polygon>
  </Placemark>
  
    </Document>
</kml>