<?xml version="1.0" encoding="UTF-8"?>
<kml xmlns="http://www.opengis.net/kml/2.2">
    <Document>
        <Placemark xmlns:ns0="http://www.opengis.net/kml/2.2">
	<Style><LineStyle><color>ff0000ff</color></LineStyle><PolyStyle><fill>0</fill></PolyStyle></Style>
	<ExtendedData><SchemaData schemaUrl="#Wave24_v28MAR2025">
		<SimpleData name="area(ha)">1.486996173163169</SimpleData>
		<SimpleData name="site_id">240999_1.1</SimpleData>
		<SimpleData name="Land_parc">240999</SimpleData>
		<SimpleData name="district">Damoh</SimpleData>
		<SimpleData name="block">Batiyagrah</SimpleData>
		<SimpleData name="village">Kurtal</SimpleData>
		<SimpleData name="Land Type">Community</SimpleData>
		<SimpleData name="Instance">Wave 2024</SimpleData>
	</SchemaData></ExtendedData>
      <Polygon><outerBoundaryIs><LinearRing><coordinates>79.4015696271134,24.2662932890492,0 79.4018365358042,24.2662252535006,0 79.4019673733977,24.2661912357263,0 79.4021035,24.2661245,0 79.4021525,24.2660904,0 79.4021939,24.2660423,0 79.402198,24.2660145,0 79.4022038,24.2659919,0 79.4022105,24.2659608,0 79.4022161,24.2659374,0 79.4022257,24.2658756,0 79.4022535,24.2658382,0 79.4022617,24.2658102,0 79.402277,24.2657754,0 79.4022846,24.2657522,0 79.4023079,24.2657161,0 79.4023125,24.2656754,0 79.4023141,24.2656588,0 79.4023235,24.2656311,0 79.4023405,24.2656031,0 79.4023445,24.2655728,0 79.40235,24.2655541,0 79.4023631,24.2655252,0 79.4023612,24.2655015,0 79.402366,24.2654735,0 79.4023681,24.2654443,0 79.4023798,24.2653837,0 79.4023972,24.2653451,0 79.4024148,24.2653317,0 79.4023954,24.2653262,0 79.4023356,24.2653236,0 79.4023333,24.2652942,0 79.4023098,24.2652721,0 79.4023115,24.2652071,0 79.4022834,24.2651925,0 79.4022604,24.2651805,0 79.4022474,24.2651174,0 79.4022371,24.2650978,0 79.4022406,24.2650706,0 79.4022458,24.265042,0 79.4022463,24.2650199,0 79.4022542,24.2649944,0 79.4022507,24.2649701,0 79.4022595,24.2649412,0 79.4022678,24.2648856,0 79.4023076,24.2647927,0 79.402331,24.2647175,0 79.4023249,24.264691,0 79.4023066,24.2646558,0 79.4022921,24.264594,0 79.4022948,24.2645704,0 79.4022938,24.2645478,0 79.4022983,24.2645295,0 79.4023032,24.2645338,0 79.4023178,24.2645382,0 79.4022604,24.2644979,0 79.4022184,24.2644709,0 79.4021959,24.2644486,0 79.40218,24.2644242,0 79.4021917598706,24.2643856769358,0 79.4021616672241,24.264362126169,0 79.4021158740664,24.2644105360786,0 79.4020282128787,24.2644236198379,0 79.4019983,24.2644284,0 79.4019396,24.2644443,0 79.40191,24.2644507,0 79.4018826,24.2644606,0 79.4018562,24.2644766,0 79.40181,24.264517,0 79.401788,24.264539,0 79.4018071,24.2645514,0 79.4018374,24.2645497,0 79.4019112,24.2645589,0 79.4019889,24.2645881,0 79.4020058,24.2646055,0 79.4019891,24.2646619,0 79.4020195,24.2646568,0 79.402069,24.2646547,0 79.402071,24.2647152,0 79.4020683,24.2647456,0 79.4020606,24.2647712,0 79.4020578,24.2648188,0 79.4020466,24.2648303,0 79.4020286,24.2648358,0 79.401982,24.2648526,0 79.4019585,24.2648547,0 79.40191,24.2648489,0 79.4018811,24.2648432,0 79.4018557,24.2648525,0 79.4018332,24.2648673,0 79.4018014,24.2648797,0 79.4017713,24.2649451,0 79.4017628,24.264981,0 79.4017293,24.2649772,0 79.4017087,24.2649985,0 79.4016607,24.2650286,0 79.4016436,24.265045,0 79.4015814,24.2650255,0 79.4015685,24.2650503,0 79.4015481,24.2650584,0 79.4015352,24.2650794,0 79.401514,24.2650926,0 79.4014647,24.2651395,0 79.4013944,24.2651729,0 79.401331,24.2651943,0 79.4013404,24.2652267,0 79.4013363,24.2652524,0 79.4013015,24.2653323,0 79.4012245,24.2653777,0 79.4011929,24.2654616,0 79.4011065,24.2655725,0 79.4013602869638,24.2658209653367,0 79.4013863,24.2658839,0 79.4014348,24.2659356,0 79.401456,24.2659721,0 79.4015067,24.2660532,0 79.4015017,24.2661459,0 79.4015225,24.2661877,0 79.4015736,24.2662754,0 79.4015696271134,24.2662932890492,0</coordinates></LinearRing></outerBoundaryIs></Polygon>
  </Placemark>
  
    </Document>
</kml>